"rank","school_id","school_name","city","state","mascot","address","logo_url","W","L","win_pct","opp_win_pct","opp_opp_win_pct","rpi"
1,"TXUSMQ","R.C. Hatch High School","Uniontown","AL",NA,"470 West Ave","https://cdn2buckets-live-s3dfaaws-1mlao80q0xoqe.s3.amazonaws.com/41c1397c-a74a-43b6-b851-145bd55b1763?AWSAccessKeyId=AKIAIUQNYZUJLIOKKJ3A&Expires=1801043965&Signature=DbRIsc2TO1vGVVcFUuIQ8XNNyDc%3D",15,0,1,0.538071065989848,0.508214676889376,0.715378542318791
2,"B8CHF9","Jackson High School","Jackson","AL","Aggies","321 Stanley Drive","https://cdn2buckets-live-s3dfaaws-1mlao80q0xoqe.s3.amazonaws.com/c534e72c-75ad-4537-aa98-81f563d60288?AWSAccessKeyId=AKIAIUQNYZUJLIOKKJ3A&Expires=1801043964&Signature=2wN%2BULlqgzBmjS87rP5qMbrboEY%3D",17,1,0.944444444444444,0.525974025974026,0.503995433789954,0.687867545316175
3,"WXGZUY","Williamson High School","Mobile","AL","L","1567 E Dublin  Street ","https://cdn2buckets-live-s3dfaaws-1mlao80q0xoqe.s3.amazonaws.com/ad970851-b5b5-4869-abdc-889861c5c4d8?AWSAccessKeyId=AKIAIUQNYZUJLIOKKJ3A&Expires=1801043965&Signature=FNqBIzQJzQF%2FWhuw1nsPsd2uwIY%3D",16,1,0.941176470588235,0.516417910447761,0.505204163330665,0.683517897724677
4,"6NSLNF","Plainview High School","Rainsville","AL","Bears","76 Chavies Road ","https://cdn2buckets-live-s3dfaaws-1mlao80q0xoqe.s3.amazonaws.com/b67e50b1-35ac-4e29-f01a-b9e73ce5e58e?AWSAccessKeyId=AKIAIUQNYZUJLIOKKJ3A&Expires=1801043964&Signature=jjt%2F8VnhxuxqJMapQYjPZqoV%2Bc8%3D",15,1,0.9375,0.516509433962264,0.502683363148479,0.681449142673912
5,"ZP7KJC","Springville High School","Springville","AL","Tigers","8295 US Hwy 11","https://cdn2buckets-live-s3dfaaws-1mlao80q0xoqe.s3.amazonaws.com/ac7453ae-d41d-4681-e1f8-14957a35e198?AWSAccessKeyId=AKIAIUQNYZUJLIOKKJ3A&Expires=1801043965&Signature=H29SCt%2Fs0bKMEUujdtsXwI7qtZo%3D",15,1,0.9375,0.516483516483517,0.501901140684411,0.681244515940333
6,"WSMVWA","McIntosh High School (AL)","Mcintosh","AL","Demons","7010 Hwy 43 N","https://cdn2buckets-live-s3dfaaws-1mlao80q0xoqe.s3.amazonaws.com/1c9c5c5f-97ef-40c4-c1a5-85958c2e0a9a?AWSAccessKeyId=AKIAIUQNYZUJLIOKKJ3A&Expires=1801043964&Signature=w9Mb7ALM9x6%2F%2FTwNepjB9Mn7sqw%3D",12,1,0.923076923076923,0.526315789473684,0.505035971223022,0.679700288352314
7,"7L544T","Luverne High School","Luverne","AL","Tigers","194 1st Avenue","https://cdn2buckets-live-s3dfaaws-1mlao80q0xoqe.s3.amazonaws.com/f9e1d7e2-1e03-4b7a-ac40-da7b5c5f5d3b?AWSAccessKeyId=AKIAIUQNYZUJLIOKKJ3A&Expires=1801043964&Signature=eXC8azNiGhz1V4IUT6teBF5D3D8%3D",12,1,0.923076923076923,0.523206751054852,0.504522613065327,0.678483785366299
8,"NH64YJ","Pelham High School","Pelham","AL","Panthers","2500 Panther Circle","https://cdn2buckets-live-s3dfaaws-1mlao80q0xoqe.s3.amazonaws.com/d2b417b0-5626-4128-c0f2-dbe72be55a62?AWSAccessKeyId=AKIAIUQNYZUJLIOKKJ3A&Expires=1801043964&Signature=M3%2BXBJPIW7XRiUGBJNQ8F1ZuOyE%3D",22,2,0.916666666666667,0.516981132075472,0.503472222222222,0.673478118448637
9,"9F7KDR","Cold Springs High School","Bremen","AL","Eagles","9010 County Road 109","https://cdn2buckets-live-s3dfaaws-1mlao80q0xoqe.s3.amazonaws.com/7793fc7d-c659-4c8d-94f9-d7262abdae70?AWSAccessKeyId=AKIAIUQNYZUJLIOKKJ3A&Expires=1801043964&Signature=bJ0IXokjXbFSavx3urafXYzSAUs%3D",20,2,0.909090909090909,0.521951219512195,0.504265402843602,0.672385641176532
10,"Q9283G","Hayden High School","Hayden","AL","Wildcat","125 Atwood Rd","https://cdn2buckets-live-s3dfaaws-1mlao80q0xoqe.s3.amazonaws.com/f4edcaed-0979-4ebf-b0f3-03f3765fa649?AWSAccessKeyId=AKIAIUQNYZUJLIOKKJ3A&Expires=1801043964&Signature=NxoTtQO1XTQyPnmw1kcPYdzVsNU%3D",19,2,0.904761904761905,0.517730496453901,0.502195608782435,0.668659337859236
11,"PXT7FY","Sylacauga High School","Sylacauga","AL","Aggie","701 North Broadway Ave","https://cdn2buckets-live-s3dfaaws-1mlao80q0xoqe.s3.amazonaws.com/d69c703d-342a-4990-91b7-7a000e8ae9a8?AWSAccessKeyId=AKIAIUQNYZUJLIOKKJ3A&Expires=1801043965&Signature=O%2BvxFhRSF2HdgpaFIpVpxBN27Og%3D",18,2,0.9,0.520588235294118,0.504255319148936,0.668269712140175
12,"UAV74N","Florala High School","Florala","AL","Wildcats","22114 Begonia St","https://cdn2buckets-live-s3dfaaws-1mlao80q0xoqe.s3.amazonaws.com/03910ecc-935b-45b0-9988-0817e272a4b6?AWSAccessKeyId=AKIAIUQNYZUJLIOKKJ3A&Expires=1801043964&Signature=4c8vNn7rcjOYiYS8wnvdbrzUbcY%3D",9,1,0.9,0.517045454545455,0.505882352941176,0.667436497326203
13,"4NCSCM","Ashville High School","Ashville","AL","Bulldogs","33215 US 231","https://cdn2buckets-live-s3dfaaws-1mlao80q0xoqe.s3.amazonaws.com/bf41af34-e421-4c73-aaf7-ea645342416b?AWSAccessKeyId=AKIAIUQNYZUJLIOKKJ3A&Expires=1801043963&Signature=96w14LYXrIlVEhv4nAsELtrG8lw%3D",17,2,0.894736842105263,0.523510971786834,0.50392464678179,0.667104738662945
14,"UZ7SVY","Huntsville High School","Huntsville","AL","Panther","2304 Billie Watkins Avenue","https://cdn2buckets-live-s3dfaaws-1mlao80q0xoqe.s3.amazonaws.com/196c737c-e7bf-4e09-b6cf-e07fa4754935?AWSAccessKeyId=AKIAIUQNYZUJLIOKKJ3A&Expires=1801043964&Signature=U573KIdZZgLg5jFR0EeR9kk8h3Y%3D",18,2,0.9,0.515151515151515,0.501656726308814,0.665717211880234
15,"MA9S7G","Gadsden City High School","Gadsden","AL","Clash","1917 Black Creek Parkway","https://cdn2buckets-live-s3dfaaws-1mlao80q0xoqe.s3.amazonaws.com/6514d5b5-25d6-44bf-b122-3a2f50e8069e?AWSAccessKeyId=AKIAIUQNYZUJLIOKKJ3A&Expires=1801043964&Signature=tRwi%2FuAkDIL2WAYCa4PEvIYWy9Y%3D",16,2,0.888888888888889,0.515837104072398,0.502205882352941,0.66165001256913
16,"TD3HRV","Saraland High School","Saraland","AL","Spartans","1115 Industrial Parkway","https://cdn2buckets-live-s3dfaaws-1mlao80q0xoqe.s3.amazonaws.com/4210fc58-83dd-4dcc-ab37-98261283f6cc?AWSAccessKeyId=AKIAIUQNYZUJLIOKKJ3A&Expires=1801043965&Signature=opRZDYr77kCvJ%2FRbfuTRWI5gpL8%3D",16,2,0.888888888888889,0.514492753623188,0.50392464678179,0.661609181019119
17,"SPEUXT","Dothan High School","Dothan","AL","Wolves","3209 Reeves Street","https://cdn2buckets-live-s3dfaaws-1mlao80q0xoqe.s3.amazonaws.com/62037132-efdf-4860-9233-51a599f93c49?AWSAccessKeyId=AKIAIUQNYZUJLIOKKJ3A&Expires=1801043964&Signature=eps7U0o0Nc06vwSsPQm5tEta5zU%3D",18,3,0.857142857142857,0.521963824289406,0.502977371973005,0.651288824351686
18,"UTPVKU","East Limestone High School","Athens","AL","Indians","15641 East Limestone Road","https://cdn2buckets-live-s3dfaaws-1mlao80q0xoqe.s3.amazonaws.com/ed120340-0966-4917-c34c-a3a46a181ec6?AWSAccessKeyId=AKIAIUQNYZUJLIOKKJ3A&Expires=1801043964&Signature=e12SlbsldYShpsw%2F%2Bq1cWiSuEQk%3D",19,3,0.863636363636364,0.513725490196078,0.503116651825467,0.65103762997954
19,"C3PH8X","Opp High School","Opp","AL","Bobcats","502 N. Maloy Street","https://cdn2buckets-live-s3dfaaws-1mlao80q0xoqe.s3.amazonaws.com/5758646e-417f-4af2-b3e0-21ca9adc1a92?AWSAccessKeyId=AKIAIUQNYZUJLIOKKJ3A&Expires=1801043964&Signature=WxXm153iEKVko8KbK3wP2OarDJE%3D",16,3,0.842105263157895,0.528384279475983,0.50834597875569,0.648863097768674
20,"K8CCRJ","Hubbertville High School","Fayette","AL","Lions","7360 County Road 49","https://cdn2buckets-live-s3dfaaws-1mlao80q0xoqe.s3.amazonaws.com/7bc90fcb-6a97-44b3-9cec-54cb89279fc7?AWSAccessKeyId=AKIAIUQNYZUJLIOKKJ3A&Expires=1801043964&Signature=B1rhhpL4%2FY3hDnnTwp7Oml%2BY79o%3D",17,3,0.85,0.519553072625698,0.503841229193342,0.64780388271733
21,"V83L2S","Oxford High School","Oxford","AL","Yellow Jackets","1 YELLOW JACKET DRIVE","https://cdn2buckets-live-s3dfaaws-1mlao80q0xoqe.s3.amazonaws.com/ff032167-0f36-405b-a9d6-e91a05e3a012?AWSAccessKeyId=AKIAIUQNYZUJLIOKKJ3A&Expires=1801043964&Signature=16Sr9kASFANtFRLuEiAelgdGKVU%3D",17,3,0.85,0.515981735159817,0.502158273381295,0.64613317565126
22,"J942V5","Murphy High School","Mobile","AL","Panther","100 S Carlen Street","https://cdn2buckets-live-s3dfaaws-1mlao80q0xoqe.s3.amazonaws.com/b05143f5-34dc-4281-8560-ef601af3b1f9?AWSAccessKeyId=AKIAIUQNYZUJLIOKKJ3A&Expires=1801043964&Signature=K8U8YBDL4yELg4nDpECLHBocqiE%3D",17,3,0.85,0.514423076923077,0.502272727272727,0.645616258741259
23,"8388YD","Jemison High School","Jemison","AL","Panthers","25195 US HWY 31","https://cdn2buckets-live-s3dfaaws-1mlao80q0xoqe.s3.amazonaws.com/03f4cd71-1d2a-4236-a1a2-6635d2426f3c?AWSAccessKeyId=AKIAIUQNYZUJLIOKKJ3A&Expires=1801043964&Signature=4SSMyzchbonMZgbyOfYWQMwv6W4%3D",11,2,0.846153846153846,0.519480519480519,0.500370644922165,0.645372381510261
24,"H3GBW9","Calera High School","Calera","AL","Eagle","100 Eagle Drive ","https://cdn2buckets-live-s3dfaaws-1mlao80q0xoqe.s3.amazonaws.com/e9b7c419-89f2-4a19-ddb5-00673bb1c436?AWSAccessKeyId=AKIAIUQNYZUJLIOKKJ3A&Expires=1801043963&Signature=4ugZ0WIt575iOR7NAP5w2RB62eU%3D",15,3,0.833333333333333,0.515463917525773,0.502523128679563,0.639376486637245
25,"UPFCRU","Lee-Scott Academy","Auburn","AL","Warriors","1601 Academy Drive","https://cdn2buckets-live-s3dfaaws-1mlao80q0xoqe.s3.amazonaws.com/09638045-bb25-4f06-c678-465bdde6c9de?AWSAccessKeyId=AKIAIUQNYZUJLIOKKJ3A&Expires=1801043964&Signature=A36P%2FDzw8Wr3Bor06VFvFURjVDs%3D",14,3,0.823529411764706,0.524916943521595,0.502374670184697,0.638726362484615
26,"J2GDLB","Albertville High School","Albertville","AL","Aggies","402 East McCord Avenue","https://cdn2buckets-live-s3dfaaws-1mlao80q0xoqe.s3.amazonaws.com/f8885bbc-5cd3-458b-b582-e66f075e9faa?AWSAccessKeyId=AKIAIUQNYZUJLIOKKJ3A&Expires=1801043963&Signature=gfBwHNatcJJRmAN7lhJNX1oU274%3D",15,3,0.833333333333333,0.510489510489511,0.501783590963139,0.637450559745447
27,"UXJLUC","Shades Valley High School","Irondale","AL","Mounties","6100 Old Leeds Road ","https://cdn2buckets-live-s3dfaaws-1mlao80q0xoqe.s3.amazonaws.com/cbdce46b-159d-4995-8b2b-449526e75608?AWSAccessKeyId=AKIAIUQNYZUJLIOKKJ3A&Expires=1801043965&Signature=H2aA%2FrglTLdg9bLr0lkr1wlK3tY%3D",19,4,0.826086956521739,0.515337423312883,0.50316573556797,0.636594314660197
28,"L4HN83","Whitesburg Christian Academy","Huntsville","AL","Warrior","7290 Whitesburg Dr.","https://cdn2buckets-live-s3dfaaws-1mlao80q0xoqe.s3.amazonaws.com/68cb0548-a1f9-4095-f70b-1324fcf03d07?AWSAccessKeyId=AKIAIUQNYZUJLIOKKJ3A&Expires=1801043965&Signature=Ki4AcoHxUcJ8PccHrVMNuZ0YM14%3D",19,4,0.826086956521739,0.512038523274478,0.502010516548098,0.635150894891787
29,"47PAUC","Section High School","Section","AL","Lions","141 AL HWY 71","https://cdn2buckets-live-s3dfaaws-1mlao80q0xoqe.s3.amazonaws.com/40b6a33c-cc27-4ed9-9759-3191a5747494?AWSAccessKeyId=AKIAIUQNYZUJLIOKKJ3A&Expires=1801043965&Signature=A2bPdeGVMUzhFoW%2FQWwYXReEcSM%3D",14,3,0.823529411764706,0.511936339522546,0.500964134207482,0.633830517090644
30,"VG3Q6C","Russell County High School","Seale","AL","Warriors","57 Warrior Way","https://cdn2buckets-live-s3dfaaws-1mlao80q0xoqe.s3.amazonaws.com/440b22c3-37e9-46f5-b109-b383054f821b?AWSAccessKeyId=AKIAIUQNYZUJLIOKKJ3A&Expires=1801043965&Signature=QzjbEUtXvkcL39wcaX0ICT0Gs7Q%3D",16,4,0.8,0.532608695652174,0.503597122302158,0.632312324053801
31,"9VSJYV","North Sand Mtn. High School","Higdon","AL","Bison","29333 AL HWY 71","https://cdn2buckets-live-s3dfaaws-1mlao80q0xoqe.s3.amazonaws.com/113ef02e-9bf2-48b4-ac3d-fed1bb9a7c7d?AWSAccessKeyId=AKIAIUQNYZUJLIOKKJ3A&Expires=1801043964&Signature=fo%2BwWIxk0CbaKJSRjz%2FQiEtSi18%3D",12,3,0.8,0.521212121212121,0.504181600955794,0.628469642663191
32,"F4BKZQ","Cleburne County High School ","Heflin","AL","Tigers","520 Evans Bridge Road","https://cdn2buckets-live-s3dfaaws-1mlao80q0xoqe.s3.amazonaws.com/14be87df-ea73-4704-f971-80395d25cd0f?AWSAccessKeyId=AKIAIUQNYZUJLIOKKJ3A&Expires=1801043964&Signature=a55eZ9CkHNhxWP%2F1vQiLtQSzNVo%3D",16,4,0.8,0.519354838709677,0.505147058823529,0.62806095825427
33,"6QPQLT","South Lamar High School","Millport","AL","Stallions","300 SLS Road","https://cdn2buckets-live-s3dfaaws-1mlao80q0xoqe.s3.amazonaws.com/3755af34-64a0-43a1-e093-cd127943ea37?AWSAccessKeyId=AKIAIUQNYZUJLIOKKJ3A&Expires=1801043965&Signature=2Ek2fHntgx3yx%2FfJUH5v2FN6K8I%3D",12,3,0.8,0.517374517374517,0.502197112366604,0.626630359172732
34,"AMCBWL","Wicksburg High School","Newton","AL","Panthers","1172 South St Hwy 123","https://cdn2buckets-live-s3dfaaws-1mlao80q0xoqe.s3.amazonaws.com/17290cd4-5e31-4656-e16e-01b860b1b83d?AWSAccessKeyId=AKIAIUQNYZUJLIOKKJ3A&Expires=1801043965&Signature=SG5M0fFrAYUpNX%2BKgAu9ZuAbdFQ%3D",12,3,0.8,0.514893617021277,0.505039193729003,0.626472564389698
35,"XXAFCA","Jasper High School","Jasper","AL","Vikings","1501 Viking Drive","https://cdn2buckets-live-s3dfaaws-1mlao80q0xoqe.s3.amazonaws.com/74f2bbf6-574c-499f-9129-d7c69fe85caf?AWSAccessKeyId=AKIAIUQNYZUJLIOKKJ3A&Expires=1801043964&Signature=kYX%2B1ckeH%2BUuFUoA4zs0NiYsrnc%3D",12,3,0.8,0.517374517374517,0.500194476857254,0.626129700295394
36,"PCFGYW","Booker T. Washington High School, Tuskegee","Tuskegee","AL","Golden Eagles","3803 West Martin Luther King Highway","https://cdn2buckets-live-s3dfaaws-1mlao80q0xoqe.s3.amazonaws.com/bdc754d7-f514-4766-8df6-48689d4eb837?AWSAccessKeyId=AKIAIUQNYZUJLIOKKJ3A&Expires=1801043963&Signature=UaOH2V7Ua7OmraEdSxVFJzEIDmU%3D",12,3,0.8,0.514767932489452,0.503754266211604,0.626107342924209
37,"7YZHTV","Maplesville High School","Maplesville","AL","Red Devils","1256 AL Hwy 139","https://cdn2buckets-live-s3dfaaws-1mlao80q0xoqe.s3.amazonaws.com/bf855484-12db-48a3-9127-9be85e003b0f?AWSAccessKeyId=AKIAIUQNYZUJLIOKKJ3A&Expires=1801043964&Signature=6p%2FhuCAlvW091MpgiAh1rzvxZcQ%3D",8,2,0.8,0.515151515151515,0.501883239171375,0.625773840095874
38,"5Q4WNC","Minor High School","Adamsville","AL","Tigers","2285 Minor Parkway","https://cdn2buckets-live-s3dfaaws-1mlao80q0xoqe.s3.amazonaws.com/c821bd67-ee6f-4187-91b5-c23ed297f034?AWSAccessKeyId=AKIAIUQNYZUJLIOKKJ3A&Expires=1801043964&Signature=y15pzCTx4%2BlZ6NKFzHi0KghZDjY%3D",16,4,0.8,0.514778325123153,0.501993620414673,0.625670818896772
39,"XMUPAA","Fairhope High School","Fairhope","AL","Pirates","1 Pirate Dr.","https://cdn2buckets-live-s3dfaaws-1mlao80q0xoqe.s3.amazonaws.com/33ea4137-3c4b-4a99-95b7-e88e5ed5b2df?AWSAccessKeyId=AKIAIUQNYZUJLIOKKJ3A&Expires=1801043964&Signature=SMwAN3pzgGaJcQoIqM9eg6mxLRU%3D",12,3,0.8,0.509695290858726,0.502230720203952,0.623951031851542
40,"TN7H7X","Orange Beach High School ","Orange Beach","AL","Makos","23908 Canal Rd.","https://cdn2buckets-live-s3dfaaws-1mlao80q0xoqe.s3.amazonaws.com/9f68339f-c2ee-4c34-d7cd-49c5d58a63ef?AWSAccessKeyId=AKIAIUQNYZUJLIOKKJ3A&Expires=1801043964&Signature=hubcvgvFiBHoKxuNoKYnNYR8fQY%3D",20,5,0.8,0.5103668261563,0.500726532984597,0.623810022400854
41,"NVAEEG","Mountain Brook High School","Mountain Brook","AL","Spartans","3650 Bethune Drive ","https://cdn2buckets-live-s3dfaaws-1mlao80q0xoqe.s3.amazonaws.com/450be57e-03d2-4ace-9ad4-9d936569f882?AWSAccessKeyId=AKIAIUQNYZUJLIOKKJ3A&Expires=1801043964&Signature=T84fza7VtwX0rCHYzAi1W47PkDE%3D",12,3,0.8,0.506692160611855,0.501318267419962,0.62267182306914
42,"ZL2MJ6","Francis Marion School","Marion","AL","Rams","101 Hubbard Drive","https://cdn2buckets-live-s3dfaaws-1mlao80q0xoqe.s3.amazonaws.com/a8f92e05-0270-4c1c-962c-b551911bc880?AWSAccessKeyId=AKIAIUQNYZUJLIOKKJ3A&Expires=1801043964&Signature=Xat3jw1KW%2Bp6IT4FcPLyPrbBuz8%3D",11,3,0.785714285714286,0.521052631578947,0.503325942350333,0.622485620925929
43,"NYJ75M","Sparkman High School","Harvest","AL","Senators","2616 Jeff Road","https://cdn2buckets-live-s3dfaaws-1mlao80q0xoqe.s3.amazonaws.com/4323d381-656d-4ae8-8f09-8dbf84eb1b0f?AWSAccessKeyId=AKIAIUQNYZUJLIOKKJ3A&Expires=1801043965&Signature=jM21tfT1XlSYfsJm%2BX4IQMJjk1E%3D",11,3,0.785714285714286,0.512345679012346,0.501225490196078,0.618913074489055
44,"V65K88","Beulah High School","Valley","AL","Bobcat","4848 Lee Road 270","https://cdn2buckets-live-s3dfaaws-1mlao80q0xoqe.s3.amazonaws.com/e60101d8-76f1-451a-af02-fabd65942aae?AWSAccessKeyId=AKIAIUQNYZUJLIOKKJ3A&Expires=1801043963&Signature=XdfFOhVWP9kqU20X8RZPHotQ77k%3D",11,3,0.785714285714286,0.509259259259259,0.505122950819672,0.618807192731373
45,"F8P4XV","West Point High School","Cullman","AL","Warriors","4314 County Road 1141","https://cdn2buckets-live-s3dfaaws-1mlao80q0xoqe.s3.amazonaws.com/113ff9f1-5b08-404b-9957-da962ce9707e?AWSAccessKeyId=AKIAIUQNYZUJLIOKKJ3A&Expires=1801043965&Signature=%2BAG%2FXAVu%2F%2BN9BWTT%2B%2BbdQO73Hps%3D",11,3,0.785714285714286,0.511173184357542,0.501564129301356,0.618587361136193
46,"XAAP39","Bayside Academy","Daphne","AL","Admirals","303 Dryer Av","https://cdn2buckets-live-s3dfaaws-1mlao80q0xoqe.s3.amazonaws.com/a9a7767e-5362-45cf-db42-4b859d00d2c5?AWSAccessKeyId=AKIAIUQNYZUJLIOKKJ3A&Expires=1801043963&Signature=EzmpKQlAmAeTDpEpiD1d511KVRI%3D",11,3,0.785714285714286,0.507462686567164,0.5,0.616897654584222
47,"ZALS9T","Anniston High School","Anniston","AL","Bulldogs","1301 Woodstock Ave","https://cdn2buckets-live-s3dfaaws-1mlao80q0xoqe.s3.amazonaws.com/58bd62c3-eafe-41f1-9c49-f7b8ec7c5156?AWSAccessKeyId=AKIAIUQNYZUJLIOKKJ3A&Expires=1801043963&Signature=sSJ5O%2B5EWTKS7TwNIRvU0lnp%2FW0%3D",10,3,0.769230769230769,0.521235521235521,0.503010033444816,0.615877248485944
48,"423H5V","Cullman High School","Cullman","AL","Bearcats","510 13th St NE","https://cdn2buckets-live-s3dfaaws-1mlao80q0xoqe.s3.amazonaws.com/0b3f8fcc-0438-4bf4-cde8-78adc65999eb?AWSAccessKeyId=AKIAIUQNYZUJLIOKKJ3A&Expires=1801043964&Signature=s7MZ9XjMDqESXfKs044FgNGRRbA%3D",14,4,0.777777777777778,0.509505703422053,0.500916310323763,0.61466718488977
49,"4KUEC4","Paul W. Bryant High School","Cottondale","AL","Stampede","6315 Mary Harrmon-Bryant Drive","https://cdn2buckets-live-s3dfaaws-1mlao80q0xoqe.s3.amazonaws.com/8cd28591-d227-4824-fd71-e6be49e31e04?AWSAccessKeyId=AKIAIUQNYZUJLIOKKJ3A&Expires=1801043964&Signature=tBvlQQwsaDvRouFxrXsqkupJq1w%3D",17,5,0.772727272727273,0.512931034482759,0.501082251082251,0.613887333930437
50,"QVVGM3","New Hope High School","New Hope","AL","Indians","5216 Main Drive","https://cdn2buckets-live-s3dfaaws-1mlao80q0xoqe.s3.amazonaws.com/aae99de7-664b-4dc3-d715-e6a925febc9e?AWSAccessKeyId=AKIAIUQNYZUJLIOKKJ3A&Expires=1801043964&Signature=d5N7PEqH7oCPzPrP05Dsm9kxjOQ%3D",17,5,0.772727272727273,0.51123595505618,0.501203852327448,0.613324456442434
51,"NHJ3SK","Brantley High School","Brantley","AL","Bulldog","8879 North Main Street","https://cdn2buckets-live-s3dfaaws-1mlao80q0xoqe.s3.amazonaws.com/ecda6ed8-bb30-4734-dc85-d4de57d5be61?AWSAccessKeyId=AKIAIUQNYZUJLIOKKJ3A&Expires=1801043963&Signature=BT7RChYOga096hq4JDsHdA2QSnM%3D",10,3,0.769230769230769,0.515151515151515,0.501278772378517,0.613315031089967
52,"3KU9CQ","The Montgomery Academy","Montgomery","AL","Eagles","3240 Vaughn Road","https://cdn2buckets-live-s3dfaaws-1mlao80q0xoqe.s3.amazonaws.com/6715c2f3-b4cb-4a62-c8b4-2b2426f046b2?AWSAccessKeyId=AKIAIUQNYZUJLIOKKJ3A&Expires=1801043965&Signature=oOb7l03xiIABNpMk14SAGwfHrq4%3D",17,5,0.772727272727273,0.51067615658363,0.501272264631043,0.61314563005294
53,"8395UL","LaFayette High School","Lafayette","AL",NA,NA,"https://cdn2buckets-live-s3dfaaws-1mlao80q0xoqe.s3.amazonaws.com/3e1c2571-2ab5-49b5-e2b9-630bbd8890c6?AWSAccessKeyId=AKIAIUQNYZUJLIOKKJ3A&Expires=1801043964&Signature=W4eDyozRINNaZs14pojBwLV%2Bm%2B4%3D",16,5,0.761904761904762,0.521311475409836,0.50187265917603,0.612689085949355
54,"PMVGLX","Sand Rock High School","Sand Rock","AL","Wildcats","1950 Sand Rock Ave.","https://cdn2buckets-live-s3dfaaws-1mlao80q0xoqe.s3.amazonaws.com/0bbf7dcf-5bfd-4a52-9ff4-050eb67fc1aa?AWSAccessKeyId=AKIAIUQNYZUJLIOKKJ3A&Expires=1801043965&Signature=tBOCNNHWATvEYe9U%2F0pBhucqKLA%3D",10,3,0.769230769230769,0.510903426791277,0.500311915159077,0.611586485859024
55,"45QMK2","Providence Christian School","Dothan","AL","Eagle","4847 Murphy Mill Road","https://cdn2buckets-live-s3dfaaws-1mlao80q0xoqe.s3.amazonaws.com/07d059ab-f9f8-43ad-e32d-7fb7e6b23393?AWSAccessKeyId=AKIAIUQNYZUJLIOKKJ3A&Expires=1801043964&Signature=iLrN%2BwuCuFWXKZEjJ9ziz2BTDw4%3D",16,4,0.761904761904762,0.515235457063712,0.504567814476458,0.611236268353318
56,"Y23G6Z","Geneva High School","Geneva","AL","Panthers","505 Panther Drive","https://cdn2buckets-live-s3dfaaws-1mlao80q0xoqe.s3.amazonaws.com/2d55f77a-2dfc-45c3-bea2-3d2ee66bf46d?AWSAccessKeyId=AKIAIUQNYZUJLIOKKJ3A&Expires=1801043964&Signature=laUNn1Ey2RV8KISmamSj1M5f%2FhU%3D",13,4,0.764705882352941,0.511111111111111,0.503427265803503,0.610628058280941
57,"Q3M3XQ","Collinsville High School","Collinsville","AL","Panthers","802 S. Valley Ave.","https://cdn2buckets-live-s3dfaaws-1mlao80q0xoqe.s3.amazonaws.com/a1ab9ed8-0c51-4849-dab0-5b474eaca999?AWSAccessKeyId=AKIAIUQNYZUJLIOKKJ3A&Expires=1801043964&Signature=pFBWaZM8%2FrSFQR0Q3LU6bHTvgRs%3D",13,4,0.764705882352941,0.511551155115512,0.50197628458498,0.610419328377851
58,"NG6A4W","Wetumpka High School","Wetumpka","AL","Indians","1251 Coosa River Parkway","https://cdn2buckets-live-s3dfaaws-1mlao80q0xoqe.s3.amazonaws.com/8f5ab0e1-f3e2-44bb-aa07-f4bcebf84831?AWSAccessKeyId=AKIAIUQNYZUJLIOKKJ3A&Expires=1801043965&Signature=inkuz71jzVLPr69xIXa6VaEO%2Bbk%3D",16,5,0.761904761904762,0.510112359550562,0.501993797075764,0.608799679873542
59,"TSWE3S","Davidson High School","Mobile","AL","Warrior","3900 Pleasant Valley Road","https://cdn2buckets-live-s3dfaaws-1mlao80q0xoqe.s3.amazonaws.com/0808b911-5aea-488c-a72f-b0010dad5855?AWSAccessKeyId=AKIAIUQNYZUJLIOKKJ3A&Expires=1801043964&Signature=BK1Ch5ABhd6N%2BDaPFpahawfdVNQ%3D",12,4,0.75,0.511904761904762,0.502232142857143,0.604724702380952
60,"JKN2KK","Addison High School","Addison","AL","Bulldog","PO Box 240","https://cdn2buckets-live-s3dfaaws-1mlao80q0xoqe.s3.amazonaws.com/7499e25f-56f4-49a8-e705-bf15efd223d5?AWSAccessKeyId=AKIAIUQNYZUJLIOKKJ3A&Expires=1801043963&Signature=BPxlVfy3AB%2F2XYV98u%2B8ciNLSqY%3D",9,3,0.75,0.511904761904762,0.501333333333333,0.6045
61,"EPMHFL","Oneonta High School","Oneonta","AL",NA,"27605 State Highway 75","https://cdn2buckets-live-s3dfaaws-1mlao80q0xoqe.s3.amazonaws.com/3378ad38-4bf4-4218-cbe0-cecb166928b1?AWSAccessKeyId=AKIAIUQNYZUJLIOKKJ3A&Expires=1801043964&Signature=VBorIVKr7Kaf7P%2FvNLcqS66U0tM%3D",15,5,0.75,0.510822510822511,0.502183406113537,0.604333730316263
62,"NCQQWT","West Morgan High School","Trinity","AL","Rebels","363 South Greenway Drive","https://cdn2buckets-live-s3dfaaws-1mlao80q0xoqe.s3.amazonaws.com/266b93b0-19eb-44c9-c9a7-84fb279ff71d?AWSAccessKeyId=AKIAIUQNYZUJLIOKKJ3A&Expires=1801043965&Signature=toX57PmuXY%2FZ%2FjroRLv3WWLJHA4%3D",15,5,0.75,0.509259259259259,0.501246882793017,0.603552461438995
63,"4W9JMN","Decatur Heritage Christian Academy","Decatur","AL","Eagles","3802 Spring Ave","https://cdn2buckets-live-s3dfaaws-1mlao80q0xoqe.s3.amazonaws.com/2d648f93-5324-42aa-d6de-632bd9d99d78?AWSAccessKeyId=AKIAIUQNYZUJLIOKKJ3A&Expires=1801043964&Signature=eyvLZ50SoiiSxU9YlkAlsz2iVDA%3D",12,4,0.75,0.509523809523809,0.500805152979066,0.6035346215781
64,"ANW2EN","Tuscaloosa Academy","Tuscaloosa","AL","Knights","420 Rice Valley Road N","https://cdn2buckets-live-s3dfaaws-1mlao80q0xoqe.s3.amazonaws.com/54d1985e-d07b-48f1-8a57-9fe9d6556f8e?AWSAccessKeyId=AKIAIUQNYZUJLIOKKJ3A&Expires=1801043965&Signature=G%2B3P6whfznpSW5WuzIRh5%2FTaG3E%3D",9,3,0.75,0.509554140127389,0.5,0.603343949044586
65,"C6PG4H","Red Bay High School","Red Bay","AL","Tigers","800  8th ST SE","https://cdn2buckets-live-s3dfaaws-1mlao80q0xoqe.s3.amazonaws.com/e3939368-cbde-4fb9-a6e1-bbc290671fb6?AWSAccessKeyId=AKIAIUQNYZUJLIOKKJ3A&Expires=1801043965&Signature=R7CzPHAqTcqKiQJGeZuZ0mqL0gE%3D",15,5,0.75,0.509174311926605,0.500368188512518,0.603303056302442
66,"5YUJPP","Lauderdale County High School","Rogersville","AL","Tiger","201 Cedar Street","https://cdn2buckets-live-s3dfaaws-1mlao80q0xoqe.s3.amazonaws.com/95aecc26-2cdc-4eb2-93f2-130bc037f19e?AWSAccessKeyId=AKIAIUQNYZUJLIOKKJ3A&Expires=1801043964&Signature=lkY%2FQuAc3wkojd8DwKH4oMAz19s%3D",11,3,0.733333333333333,0.509803921568627,0.502395619438741,0.597363610742038
67,"BXY926","Escambia County High School","Atmore","AL","Blue Devils","1215 S. Presley St","https://cdn2buckets-live-s3dfaaws-1mlao80q0xoqe.s3.amazonaws.com/73fa0e8a-5339-4c58-b1e4-4c7325d843cb?AWSAccessKeyId=AKIAIUQNYZUJLIOKKJ3A&Expires=1801043964&Signature=HETvtM5tTeLzeUyL0H70dGi6IdI%3D",8,3,0.727272727272727,0.511520737327189,0.501167315175097,0.595233177767381
68,"TJPRKH","Spain Park High School","Birmingham","AL","Jaguar","4700 Jaguar Drive","https://cdn2buckets-live-s3dfaaws-1mlao80q0xoqe.s3.amazonaws.com/87d53303-98eb-4562-fb75-1f44c6c866d0?AWSAccessKeyId=AKIAIUQNYZUJLIOKKJ3A&Expires=1801043965&Signature=hcRUuhWejgyfJ%2FCYKtE3ah%2FImq8%3D",16,6,0.727272727272727,0.510548523206751,0.502081598667777,0.595121473698398
69,"DQ3PJ2","Homewood High School","Homewood","AL","Patriots","1901 South Lakeshore Drive","https://cdn2buckets-live-s3dfaaws-1mlao80q0xoqe.s3.amazonaws.com/b161f43d-f21a-491f-eb06-2de87b4b0c40?AWSAccessKeyId=AKIAIUQNYZUJLIOKKJ3A&Expires=1801043964&Signature=H8cijn9XATWVwwTnpgCg8XAlKSU%3D",16,6,0.727272727272727,0.509505703422053,0.501145912910619,0.594522565334464
70,"LK9MLN","Corner High School","Dora","AL","Yellow Jackets","4301 Warrior Jasper Rd","https://cdn2buckets-live-s3dfaaws-1mlao80q0xoqe.s3.amazonaws.com/99a66be0-16fa-4fb4-f747-1d4652349e90?AWSAccessKeyId=AKIAIUQNYZUJLIOKKJ3A&Expires=1801043964&Signature=4OOkFj69E1bfKMb%2B9eTAOQ3Dbrg%3D",8,3,0.727272727272727,0.507552870090634,0.500735654732712,0.593736509123991
71,"KC8GKK","Vestavia Hills High School","Vestavia Hills","AL","Rebels","2235 Lime Rock Road","https://cdn2buckets-live-s3dfaaws-1mlao80q0xoqe.s3.amazonaws.com/64c91490-88c4-4b83-b626-441ae3e6ddb6?AWSAccessKeyId=AKIAIUQNYZUJLIOKKJ3A&Expires=1801043965&Signature=MKJfBeRBSyCFYRBLg4i58ebVhMA%3D",13,5,0.722222222222222,0.506269592476489,0.500660938532716,0.591248480888839
72,"KKYA5X","Opelika High School","Opelika","AL","Bulldogs","1700 Lafayette Parkway","https://cdn2buckets-live-s3dfaaws-1mlao80q0xoqe.s3.amazonaws.com/ae317f89-d138-456a-c2c8-672eb8fdcb9b?AWSAccessKeyId=AKIAIUQNYZUJLIOKKJ3A&Expires=1801043964&Signature=9fJXUPyaNDK6bOSzhMD1%2B6LvUng%3D",10,4,0.714285714285714,0.514925373134328,0.50059880239521,0.591087866910103
73,"HYLLYZ","Georgiana High School","Georgiana","AL","Panthers","866 Highway 31 South","https://cdn2buckets-live-s3dfaaws-1mlao80q0xoqe.s3.amazonaws.com/b005eae3-9a3c-4b18-847c-bc0b9e8e3b48?AWSAccessKeyId=AKIAIUQNYZUJLIOKKJ3A&Expires=1801043964&Signature=9vFB8wBQriGGAW1Kf3RZrg8eHMY%3D",10,4,0.714285714285714,0.51027397260274,0.50261780104712,0.589964626387025
74,"F5PP54","Munford High School","Munford","AL","Lions","300 Cedars Road","https://cdn2buckets-live-s3dfaaws-1mlao80q0xoqe.s3.amazonaws.com/b647f13c-abfd-497e-93f4-55e2437e5f98?AWSAccessKeyId=AKIAIUQNYZUJLIOKKJ3A&Expires=1801043964&Signature=7hq4Erc9DG1%2BuFnSz09%2FWbjdjwc%3D",12,5,0.705882352941177,0.513595166163142,0.502904564315353,0.587837390412409
75,"QT6XAE","UMS-Wright Preparatory School","Mobile","AL","Bulldogs","65 Mobile St","https://cdn2buckets-live-s3dfaaws-1mlao80q0xoqe.s3.amazonaws.com/1065573c-c58c-402d-b96b-d9b222ea2140?AWSAccessKeyId=AKIAIUQNYZUJLIOKKJ3A&Expires=1801043965&Signature=Qzl2bm9mxVcUZ0kN98Do%2FVzf65k%3D",17,7,0.708333333333333,0.50886524822695,0.500349406009783,0.586523521715212
76,"A279HX","Boaz High School","Boaz","AL","Pirates","907 Brown Street","https://cdn2buckets-live-s3dfaaws-1mlao80q0xoqe.s3.amazonaws.com/a97a1bce-da54-463c-c660-1db467c17fc8?AWSAccessKeyId=AKIAIUQNYZUJLIOKKJ3A&Expires=1801043963&Signature=2mWAEdlqMMlU%2BS8KUTUoHr4c2eM%3D",12,5,0.705882352941177,0.508557457212714,0.500641848523748,0.585508513331858
77,"HTAWDT","Tuscaloosa County High School","Northport","AL","Wildcat","12500 Wildcat Drive","https://cdn2buckets-live-s3dfaaws-1mlao80q0xoqe.s3.amazonaws.com/3d6f2416-34cd-4e1d-b200-c7432a9c9290?AWSAccessKeyId=AKIAIUQNYZUJLIOKKJ3A&Expires=1801043965&Signature=5PSpCeGZ843sA%2FLGLNbxqlL%2F%2FqA%3D",12,5,0.705882352941177,0.507430997876858,0.500935278713057,0.585187610111635
78,"TTXUJC","Woodlawn High School","Birmingham","AL","Colonels","5620 First Avenue North","https://cdn2buckets-live-s3dfaaws-1mlao80q0xoqe.s3.amazonaws.com/7148fc84-ac1c-46e8-870a-0a323937dff0?AWSAccessKeyId=AKIAIUQNYZUJLIOKKJ3A&Expires=1801043965&Signature=3b0KPh0drSyd6vkxKEwwOrB59mM%3D",7,3,0.7,0.509523809523809,0.500768049155146,0.58352534562212
79,"XEAVJ5","Alexandria High School","Alexandria","AL","Valley Cubs","353 Stadium Drive","https://cdn2buckets-live-s3dfaaws-1mlao80q0xoqe.s3.amazonaws.com/db65c50e-6cdd-4ccb-84ab-1e8af90a1992?AWSAccessKeyId=AKIAIUQNYZUJLIOKKJ3A&Expires=1801043963&Signature=y2WfCngDwki3dHgSa86PliiiIM4%3D",7,3,0.7,0.508333333333333,0.501483679525223,0.583287586547972
80,"SWA5TB","Clay-Chalkville High School	","Pinson","AL","Cougars","6623 Roe Chandler Rd","https://cdn2buckets-live-s3dfaaws-1mlao80q0xoqe.s3.amazonaws.com/c956fb9c-a4e1-4c36-d0c8-2e5c4675ba22?AWSAccessKeyId=AKIAIUQNYZUJLIOKKJ3A&Expires=1801043964&Signature=cWheyt%2FbvkwytmIbrRKXV5kVWFk%3D",14,6,0.7,0.507843137254902,0.501576044129236,0.583139109071525
81,"UQ86FJ","Hoover High School","Hoover","AL","Bucs","1000 Buccaneer Drive","https://cdn2buckets-live-s3dfaaws-1mlao80q0xoqe.s3.amazonaws.com/123cf38e-e6be-4910-8ae8-fdea7dcdf1d1?AWSAccessKeyId=AKIAIUQNYZUJLIOKKJ3A&Expires=1801043964&Signature=I7fSzmY%2BMZXsCw2CreWLiRzzO%2FE%3D",14,6,0.7,0.507936507936508,0.501193317422434,0.583076107133386
82,"3CUVNJ","Leroy High School","Leroy","AL","Bears","26301 Highway 43","https://cdn2buckets-live-s3dfaaws-1mlao80q0xoqe.s3.amazonaws.com/5f613e50-cda7-4bf7-fa55-efcc565e7c74?AWSAccessKeyId=AKIAIUQNYZUJLIOKKJ3A&Expires=1801043964&Signature=URfgBiwdMhnircnFwBwhE0TgRQc%3D",9,4,0.692307692307692,0.515527950310559,0.500952380952381,0.582595954769868
83,"99PDUH","J.F. Shields High School","Beatrice","AL","Panthers","17688 AL-21 N","https://cdn2buckets-live-s3dfaaws-1mlao80q0xoqe.s3.amazonaws.com/95301811-2336-47ce-e8c8-80ea079a2149?AWSAccessKeyId=AKIAIUQNYZUJLIOKKJ3A&Expires=1801043964&Signature=82XeInd3O0KSe7%2FFQJyhDLTnaQI%3D",9,4,0.692307692307692,0.512690355329949,0.503037667071689,0.582124118056481
84,"283J9Q","Jacksonville Christian Academy","Jacksonville","AL","Thunder","831 Alexandria Rd. SW","https://cdn2buckets-live-s3dfaaws-1mlao80q0xoqe.s3.amazonaws.com/d67eb8e7-5d39-4f99-ce54-6a5d7baa911a?AWSAccessKeyId=AKIAIUQNYZUJLIOKKJ3A&Expires=1801043964&Signature=1Qr%2FtekKNInUnSMRaoU7hI0I%2FQg%3D",9,4,0.692307692307692,0.513089005235602,0.501783590963139,0.581950126496322
85,"XUKN6F","Piedmont High School","Piedmont","AL","Bulldogs","750 Tom Bible Memorial Highway","https://cdn2buckets-live-s3dfaaws-1mlao80q0xoqe.s3.amazonaws.com/a3a9f76d-e3fd-4aa7-eae2-16fa90807a35?AWSAccessKeyId=AKIAIUQNYZUJLIOKKJ3A&Expires=1801043964&Signature=HsL%2FTzkKIjzX34%2FfpekfqnloYAM%3D",9,4,0.692307692307692,0.510822510822511,0.503225806451613,0.581517407323859
86,"ZSSND5","Berry High School","Berry","AL","Wildcats","18242 Highway 18 East","https://cdn2buckets-live-s3dfaaws-1mlao80q0xoqe.s3.amazonaws.com/f9846204-6978-47e7-ef8e-ef47cea231fa?AWSAccessKeyId=AKIAIUQNYZUJLIOKKJ3A&Expires=1801043963&Signature=FIaqkRy1ksSorQvvsiMSmJaFGFQ%3D",9,4,0.692307692307692,0.509505703422053,0.500356887937188,0.580339295105093
87,"M4GUUY","Midfield High School","Midfield","AL","Patriot",NA,"https://cdn2buckets-live-s3dfaaws-1mlao80q0xoqe.s3.amazonaws.com/b87a1dfe-2833-451d-ce30-6bb501128e59?AWSAccessKeyId=AKIAIUQNYZUJLIOKKJ3A&Expires=1801043964&Signature=p06%2FXzRgWFq5nAUK0j4dLU8J3Pc%3D",9,4,0.692307692307692,0.509090909090909,0.500771208226221,0.58029769716145
88,"78TKCZ","Wadley High School","Wadley","AL","Bulldogs","105 Bailey St","https://cdn2buckets-live-s3dfaaws-1mlao80q0xoqe.s3.amazonaws.com/5a6f447f-2920-4348-db0b-c5c9870a6edb?AWSAccessKeyId=AKIAIUQNYZUJLIOKKJ3A&Expires=1801043965&Signature=odVrvbpYfXeYz2mK%2BtT4ZDTiOo0%3D",7,3,0.7,0.5,0.501149425287356,0.580287356321839
89,"UPKKZ6","Hale County High School","Moundville","AL","Wildcats","50 Wildcat Way","https://cdn2buckets-live-s3dfaaws-1mlao80q0xoqe.s3.amazonaws.com/5728427d-accd-4a95-9346-9b76e37c4614?AWSAccessKeyId=AKIAIUQNYZUJLIOKKJ3A&Expires=1801043964&Signature=xASmHTA3ec68or%2B2uC1X6i%2B6Wmo%3D",11,5,0.6875,0.507978723404255,0.500798722044728,0.577992233702671
90,"EFDQS7","Charles Henderson High School","Troy","AL","Trojans","150 S. George Wallace Drive","https://cdn2buckets-live-s3dfaaws-1mlao80q0xoqe.s3.amazonaws.com/4afe4e5a-2471-4d3d-ddbe-eb3b0989f706?AWSAccessKeyId=AKIAIUQNYZUJLIOKKJ3A&Expires=1801043964&Signature=Z%2BlAkrdWGLhuVPAdsNdFr6AKU5Q%3D",13,6,0.684210526315789,0.508433734939759,0.501039501039501,0.576895893015107
91,"MN2FXY","Muscle Shoals High School","Muscle Shoals","AL",NA,NA,"https://cdn2buckets-live-s3dfaaws-1mlao80q0xoqe.s3.amazonaws.com/f2574ffd-b440-4a26-8b9f-aec0146b3bc6?AWSAccessKeyId=AKIAIUQNYZUJLIOKKJ3A&Expires=1801043964&Signature=KSAH56u5DqJ4ihsyKDcKjLbhH%2Bc%3D",13,6,0.684210526315789,0.508274231678487,0.500574492531597,0.576723814746686
92,"8DDWTX","Brooks High School","Killen","AL","Lions","4300 US- 72","https://cdn2buckets-live-s3dfaaws-1mlao80q0xoqe.s3.amazonaws.com/477d9b64-05c2-45e2-d50c-8dd6a14e41e7?AWSAccessKeyId=AKIAIUQNYZUJLIOKKJ3A&Expires=1801043963&Signature=WmthjiEsIjm1oIonJ3yThMeHq3Q%3D",15,7,0.681818181818182,0.507177033492823,0.500853242320819,0.575452545029965
93,"PQ47ZV","Pleasant Valley High School","Jacksonville","AL","Raiders","4141 Pleasant Valley Road",NA,10,5,0.666666666666667,0.511415525114155,0.50055617352614,0.570801143838156
94,"CXMKAY","Lanett High School	","Lanett","AL","Panthers","1301 South 8th Ave","https://cdn2buckets-live-s3dfaaws-1mlao80q0xoqe.s3.amazonaws.com/4c4a624f-5157-45e7-a2bc-a5be6fd13622?AWSAccessKeyId=AKIAIUQNYZUJLIOKKJ3A&Expires=1801043964&Signature=b1kwthDVqmx%2BxJ5QIejxct3vybQ%3D",8,4,0.666666666666667,0.510204081632653,0.500683994528044,0.570409093870106
95,"MMP3FG","Auburn High School","Auburn","AL","Tigers","1701 East Samford Avenue","https://cdn2buckets-live-s3dfaaws-1mlao80q0xoqe.s3.amazonaws.com/d7e02dbe-f138-4ec4-f455-7faf5a42e119?AWSAccessKeyId=AKIAIUQNYZUJLIOKKJ3A&Expires=1801043963&Signature=ZjDKTsqMkmsxAuxPxVJu1hNL3Rk%3D",10,5,0.666666666666667,0.506963788300836,0.501130710085934,0.569386670093443
96,"YKS72H","Glencoe High School","Glencoe","AL","Yellow Jacket","803 Lonesomebend Road","https://cdn2buckets-live-s3dfaaws-1mlao80q0xoqe.s3.amazonaws.com/be1c97e0-4d98-4ac3-fa0d-3a1d5e16e148?AWSAccessKeyId=AKIAIUQNYZUJLIOKKJ3A&Expires=1801043964&Signature=%2FpC9ujFFNj5Ga2U6se6qfZQpNTU%3D",14,7,0.666666666666667,0.507128309572301,0.50081654872074,0.569365712197157
97,"Y3LG34","Meek High School","Arley","AL","Tiger","6615 County Road 41","https://cdn2buckets-live-s3dfaaws-1mlao80q0xoqe.s3.amazonaws.com/0ea67601-73b2-4ae4-89cc-3576ef5af9a4?AWSAccessKeyId=AKIAIUQNYZUJLIOKKJ3A&Expires=1801043964&Signature=gWPNWgZpDG1wuH2s9j%2BHMi376ho%3D",8,4,0.666666666666667,0.50709219858156,0.500709219858156,0.569326241134752
98,"UZ2Z3E","Ider High School","Ider","AL","Hornets","1064 Crabapple Lane","https://cdn2buckets-live-s3dfaaws-1mlao80q0xoqe.s3.amazonaws.com/f9a7e154-e40f-4c1f-f7c4-8e239d2b45bf?AWSAccessKeyId=AKIAIUQNYZUJLIOKKJ3A&Expires=1801043964&Signature=v0KKrw5%2BpUXBjW0kiJMMyz0yUMc%3D",12,5,0.666666666666667,0.506849315068493,0.50104821802935,0.569325981447977
99,"B2ZDQU","James Clemens High School","Madison","AL","Jets","11306 County Line Road","https://cdn2buckets-live-s3dfaaws-1mlao80q0xoqe.s3.amazonaws.com/4e28f1c6-46bc-40e5-aeea-00efc5d7f07d?AWSAccessKeyId=AKIAIUQNYZUJLIOKKJ3A&Expires=1801043964&Signature=5fy64pV1PA7gnx6242ToeCSvP0s%3D",8,4,0.666666666666667,0.50709219858156,0.500647668393782,0.569310853268658
100,"GXQ5TR","Hatton High School","Town Creek","AL","Hornet","6909 Alabama Hwy 101","https://cdn2buckets-live-s3dfaaws-1mlao80q0xoqe.s3.amazonaws.com/3e3a1c7d-bd6f-4a84-e4a8-d11a6382a597?AWSAccessKeyId=AKIAIUQNYZUJLIOKKJ3A&Expires=1801043964&Signature=Ibjr9jBt5uhelRdyUXgZfgnepqQ%3D",16,8,0.666666666666667,0.506172839506173,0.501740139211137,0.569262195296611
101,"CKQBNT","Foley High School","Foley","AL","Lions","1 Pride Place","https://cdn2buckets-live-s3dfaaws-1mlao80q0xoqe.s3.amazonaws.com/8d36c26d-8ba7-4795-805b-aa938aa83605?AWSAccessKeyId=AKIAIUQNYZUJLIOKKJ3A&Expires=1801043964&Signature=DZEsqxX1G%2B%2B9TSop7nYwEbYDFhE%3D",8,4,0.666666666666667,0.507246376811594,0.5,0.569202898550725
102,"ENXYRR","Ariton High School","Ariton","AL","Purple Cats","264 Creel Richardson Drive","https://cdn2buckets-live-s3dfaaws-1mlao80q0xoqe.s3.amazonaws.com/f10a443e-33d8-48d4-a787-8d0c417c9b23?AWSAccessKeyId=AKIAIUQNYZUJLIOKKJ3A&Expires=1801043963&Signature=EYw4mgziujsnohKEkVY%2Fbb4oiEA%3D",8,4,0.666666666666667,0.503731343283582,0.501336898395722,0.568306861414851
103,"KJNAZV","Oakman High School","Oakman","AL",NA,"10699 Main Street","https://cdn2buckets-live-s3dfaaws-1mlao80q0xoqe.s3.amazonaws.com/13de5799-aaa2-468b-ae09-4930cc339930?AWSAccessKeyId=AKIAIUQNYZUJLIOKKJ3A&Expires=1801043964&Signature=I%2B%2FokPuQI7S183JHaEs6TtIyi2Q%3D",13,7,0.65,0.507853403141361,0.501653803748622,0.563162142036632
104,"7J4W5V","McAdory High School","Mccalla","AL","Yellow Jackets","4800 McAdory School Road","https://cdn2buckets-live-s3dfaaws-1mlao80q0xoqe.s3.amazonaws.com/1eba55b7-6e3e-4f1c-a1c5-3bcf14aa41b4?AWSAccessKeyId=AKIAIUQNYZUJLIOKKJ3A&Expires=1801043964&Signature=z36ZJPZbdO5zL%2B8zV6Q9Q%2BXd6Ps%3D",13,7,0.65,0.5078125,0.5,0.562734375
105,"XY96ZB","Carver Senior High School - Montgomery","Montgomery","AL","Wolverines","2001 W Fairview Ave","https://cdn2buckets-live-s3dfaaws-1mlao80q0xoqe.s3.amazonaws.com/62ad14c4-02de-4050-b09a-84a70dd9f3f9?AWSAccessKeyId=AKIAIUQNYZUJLIOKKJ3A&Expires=1801043963&Signature=MgUIud3O6fyn6HNOIZAu%2ByzhIUE%3D",11,6,0.647058823529412,0.507645259938838,0.501097935880545,0.561773854360494
106,"3774DZ","Tarrant High School","Tarrant","AL","Wildcats","91 Black Creek Road","https://cdn2buckets-live-s3dfaaws-1mlao80q0xoqe.s3.amazonaws.com/6a997fcf-25c0-42a2-d286-ea808bec5ed8?AWSAccessKeyId=AKIAIUQNYZUJLIOKKJ3A&Expires=1801043965&Signature=6sKZJTPT%2F729YETQVU%2Bg%2FF3uZus%3D",11,6,0.647058823529412,0.506561679790026,0.501057977147694,0.561384611625197
107,"Q4SDT3","Northridge High School","Tuscaloosa","AL","Jaguars","2901 Northridge Road","https://cdn2buckets-live-s3dfaaws-1mlao80q0xoqe.s3.amazonaws.com/713b61bc-db77-4733-92ea-aad305f7527c?AWSAccessKeyId=AKIAIUQNYZUJLIOKKJ3A&Expires=1801043964&Signature=2qLrykrVpe0dh35dgoGVED06yNw%3D",13,7,0.65,0.503267973856209,0.499726626571897,0.561075447492647
108,"26R2AP","Pleasant Home High School","Andalusia","AL","Eagles","12548 Falco Road","https://cdn2buckets-live-s3dfaaws-1mlao80q0xoqe.s3.amazonaws.com/6d09d434-d61c-4e3e-9d52-1ba432ef870a?AWSAccessKeyId=AKIAIUQNYZUJLIOKKJ3A&Expires=1801043964&Signature=DM404ZE2yAuNaRCTAXo6TWT61ds%3D",9,5,0.642857142857143,0.509708737864078,0.501607717041801,0.560942844655735
109,"FUX6KR","Hillcrest High School, Tuscaloosa","Tuscaloosa","AL","Patriots","300 Patriot Parkway ","https://cdn2buckets-live-s3dfaaws-1mlao80q0xoqe.s3.amazonaws.com/9b05794a-329d-4111-c4e5-0a73cbb530f0?AWSAccessKeyId=AKIAIUQNYZUJLIOKKJ3A&Expires=1801043964&Signature=UVw7AYsT2QcJlzJxdEQS2v6vEg8%3D",11,6,0.647058823529412,0.50293542074364,0.501064282673478,0.560116997340408
110,"PRHADG","Enterprise High School","Enterprise","AL","Wildcats","1801 Boll Weevil Circle","https://cdn2buckets-live-s3dfaaws-1mlao80q0xoqe.s3.amazonaws.com/ba2e5526-a3aa-495f-960f-20f3a5f70924?AWSAccessKeyId=AKIAIUQNYZUJLIOKKJ3A&Expires=1801043964&Signature=tylFgXsyhO%2BDi84RJW6VRM%2B7HBc%3D",9,5,0.642857142857143,0.506369426751592,0.5,0.559372156505914
111,"F2654W","Childersburg High School","Childersburg","AL","Tiger","1325 Faye S. Perry Dr","https://cdn2buckets-live-s3dfaaws-1mlao80q0xoqe.s3.amazonaws.com/f66950b3-e34e-41af-fc8b-df7ec1fcd49e?AWSAccessKeyId=AKIAIUQNYZUJLIOKKJ3A&Expires=1801043964&Signature=lC85bvbIBc44U5bzdjDvvIh%2BWEY%3D",9,5,0.642857142857143,0.505586592178771,0.500467289719626,0.559214986835334
112,"T3FGKJ","Mary G. Montgomery High School","Semmes","AL","Vikings","4275 Snow Road N ","https://cdn2buckets-live-s3dfaaws-1mlao80q0xoqe.s3.amazonaws.com/8f807357-544f-495b-d663-9a4cbf5eac7c?AWSAccessKeyId=AKIAIUQNYZUJLIOKKJ3A&Expires=1801043964&Signature=VLolhGNIJBbwR14oLiqhir5Djvs%3D",7,4,0.636363636363636,0.506172839506173,0.499358151476252,0.556545486241678
113,"H6QPLL","Mobile Christian School","Mobile","AL","Leopards","5900 Cottage Hill Road","https://cdn2buckets-live-s3dfaaws-1mlao80q0xoqe.s3.amazonaws.com/f7b8b5a8-1987-40e8-a960-10e319bd81a4?AWSAccessKeyId=AKIAIUQNYZUJLIOKKJ3A&Expires=1801043964&Signature=IrZ%2F76Z5%2Fvavt4Fx7E9eOEWOxbc%3D",7,4,0.636363636363636,0.504950495049505,0.499165275459099,0.556069446677556
114,"JBSNBN","Lee High School","Huntsville","AL","Generals","2500 Meridian Street","https://cdn2buckets-live-s3dfaaws-1mlao80q0xoqe.s3.amazonaws.com/38a0cde0-4f55-4d8a-f2bd-51f6b13029ae?AWSAccessKeyId=AKIAIUQNYZUJLIOKKJ3A&Expires=1801043964&Signature=zkEW7BhzGA3yTc5gMhrUCEt%2BfMk%3D",12,7,0.631578947368421,0.507788161993769,0.500256016385049,0.55542143974145
115,"A9FE3R","Chickasaw High School","Chickasaw","AL","Chieftains","50 Chieftain Way","https://cdn2buckets-live-s3dfaaws-1mlao80q0xoqe.s3.amazonaws.com/d384ecc1-0e87-46a5-911b-51a11d8325cc?AWSAccessKeyId=AKIAIUQNYZUJLIOKKJ3A&Expires=1801043964&Signature=TcVWD8%2BbBrkw9dlZaKuZRdIQob0%3D",7,4,0.636363636363636,0.502994011976048,0.499263622974963,0.555409264480812
116,"ELSY6V","Hazel Green High School","Hazel Green","AL","Trojans","14380 Hwy 231-431 N.","https://cdn2buckets-live-s3dfaaws-1mlao80q0xoqe.s3.amazonaws.com/b84cbb42-6173-4f6a-d7c5-ac7a434dc2fd?AWSAccessKeyId=AKIAIUQNYZUJLIOKKJ3A&Expires=1801043964&Signature=Qy8KL05CS0RFo0r2WXNga38Ckk8%3D",12,7,0.631578947368421,0.506738544474393,0.500234631628343,0.555048727420492
117,"PVPEJS","Wilson High School","Florence","AL","Warriors","7601 HIGHWAY 17 NORTH","https://cdn2buckets-live-s3dfaaws-1mlao80q0xoqe.s3.amazonaws.com/3124c16c-cfb7-456c-d8a5-0f8a6755b35a?AWSAccessKeyId=AKIAIUQNYZUJLIOKKJ3A&Expires=1801043965&Signature=T%2Fz3i1DIvAVrRXsRc20zC%2BOHS3U%3D",12,7,0.631578947368421,0.503092783505155,0.50025367833587,0.55377747275814
118,"VCQVN3","Wilcox Central High School","Camden","AL","Jaguars","1310 T. L.  Threadgill Rd.","https://cdn2buckets-live-s3dfaaws-1mlao80q0xoqe.s3.amazonaws.com/79cb1b6a-583f-49bd-cd19-af528b366899?AWSAccessKeyId=AKIAIUQNYZUJLIOKKJ3A&Expires=1801043965&Signature=aq%2BXXwEl%2FZiK6AVuuRBbsx%2FUwVo%3D",10,6,0.625,0.508849557522124,0.502380952380952,0.553692583227981
119,"FF1BKX","Westminster Christian Academy","Huntsville","AL","Wildcats","PO Box 5287","https://cdn2buckets-live-s3dfaaws-1mlao80q0xoqe.s3.amazonaws.com/15f286d7-d4c4-43d1-f32f-8bc863da5225?AWSAccessKeyId=AKIAIUQNYZUJLIOKKJ3A&Expires=1801043965&Signature=J7uVF10C9tRVf1fOF3zOiUVYm4g%3D",12,7,0.631578947368421,0.503042596348884,0.49979035639413,0.553644076768011
120,"2Z2LN2","Hackleburg High School","Hackleburg","AL","Panthers","189 School Street","https://cdn2buckets-live-s3dfaaws-1mlao80q0xoqe.s3.amazonaws.com/93106b63-267e-42d4-fa1e-d81ce8c734f7?AWSAccessKeyId=AKIAIUQNYZUJLIOKKJ3A&Expires=1801043964&Signature=OY0lrYIcM%2BSs5k06PUciGUkYrd0%3D",10,6,0.625,0.506622516556291,0.5,0.552317880794702
121,"B9LYEB","Eufaula High School","Eufaula","AL","Tiger","530 Lake Drive","https://cdn2buckets-live-s3dfaaws-1mlao80q0xoqe.s3.amazonaws.com/a62217a6-7a67-4185-a348-ac09072806d9?AWSAccessKeyId=AKIAIUQNYZUJLIOKKJ3A&Expires=1801043964&Signature=1hOgr4uXdRym5WozDfcPoUgz4aI%3D",10,6,0.625,0.503289473684211,0.500489236790607,0.551273624987125
122,"UA3HSQ","Appalachian High School","Oneonta","AL","Eagles","350 County Highway 12","https://cdn2buckets-live-s3dfaaws-1mlao80q0xoqe.s3.amazonaws.com/7d7e20f1-fc8b-49ea-fc82-abc754ae06f2?AWSAccessKeyId=AKIAIUQNYZUJLIOKKJ3A&Expires=1801043963&Signature=%2FnKDy6mxfrUk2uJpQgcY50UTvKc%3D",10,6,0.625,0.503597122302158,0.5,0.551258992805755
123,"EEKTT2","White Plains High School","Anniston","AL","Wildcats","250 White Plains Road","https://cdn2buckets-live-s3dfaaws-1mlao80q0xoqe.s3.amazonaws.com/8c7d2174-7cdf-4424-da1c-f462c5d62878?AWSAccessKeyId=AKIAIUQNYZUJLIOKKJ3A&Expires=1801043965&Signature=%2Fm7OxwuktCPJ8wQ91Vw1vR7l3qk%3D",13,8,0.619047619047619,0.504322766570605,0.502145922746781,0.549668496605455
124,"ESRTSZ","Briarwood Christian School","Birmingham","AL","Lion","6255 Cahaba Valley Road","https://cdn2buckets-live-s3dfaaws-1mlao80q0xoqe.s3.amazonaws.com/c3c1315f-e4f0-4d73-d856-fc8e21293eef?AWSAccessKeyId=AKIAIUQNYZUJLIOKKJ3A&Expires=1801043963&Signature=aexh%2BoALWffXqiW5oa2kCTI0ipk%3D",13,7,0.619047619047619,0.504332755632582,0.501133786848073,0.54941895880247
125,"43RWTF","Madison Academy","Madison","AL","Mustang","325 Slaughter Road","https://cdn2buckets-live-s3dfaaws-1mlao80q0xoqe.s3.amazonaws.com/37479f3a-6157-4509-ea44-b67c6c3442ef?AWSAccessKeyId=AKIAIUQNYZUJLIOKKJ3A&Expires=1801043964&Signature=hhMrzxWN%2F5fsgmotuaUN5IbzEd4%3D",13,8,0.619047619047619,0.503131524008351,0.49949681314995,0.548589284309458
126,"GXX6TS","Pike County High School","Brundidge","AL","Bulldog","552 South Main Street","https://cdn2buckets-live-s3dfaaws-1mlao80q0xoqe.s3.amazonaws.com/ad34d574-ef21-46c5-ea52-81e8bd2ad637?AWSAccessKeyId=AKIAIUQNYZUJLIOKKJ3A&Expires=1801043964&Signature=o4PrFpaWhC9CGm2V14Pi%2Bu0V7jQ%3D",8,5,0.615384615384615,0.506976744186047,0.499399759903962,0.548445646594953
127,"N3PQKJ","St. Clair County High School","Odenville","AL","Saints","16700 Hwy 411N","https://cdn2buckets-live-s3dfaaws-1mlao80q0xoqe.s3.amazonaws.com/f6272871-0c98-4c78-99ae-323d0491cae1?AWSAccessKeyId=AKIAIUQNYZUJLIOKKJ3A&Expires=1801043965&Signature=2cRQrm%2BMqXMrjr8kvlbIvMNTtyU%3D",8,5,0.615384615384615,0.505703422053232,0.500282645562465,0.548220705263094
128,"S2B22L","Ardmore High School","Ardmore","AL","Tigers","30285 Ardmore Avenue","https://cdn2buckets-live-s3dfaaws-1mlao80q0xoqe.s3.amazonaws.com/0264d193-d76c-4047-dc71-4a5b4c359997?AWSAccessKeyId=AKIAIUQNYZUJLIOKKJ3A&Expires=1801043963&Signature=dCeBDKibDgrK4LCBA6zbX%2Fxi%2FO4%3D",13,8,0.619047619047619,0.501123595505618,0.500258131130614,0.548076838828668
129,"VLCC25","Geraldine High School","Geraldine","AL","Bulldogs","13011 AL Hwy 227","https://cdn2buckets-live-s3dfaaws-1mlao80q0xoqe.s3.amazonaws.com/6f381591-3ce1-4d06-d345-f8f6fc2c87e2?AWSAccessKeyId=AKIAIUQNYZUJLIOKKJ3A&Expires=1801043964&Signature=hk%2FLWFrglnQyIiaSEeHceL7e17s%3D",16,10,0.615384615384615,0.504608294930876,0.500510204081633,0.547894300400061
130,"M74DXV","Deshler High School","Tuscumbia","AL","Tiger","598 North High Street","https://cdn2buckets-live-s3dfaaws-1mlao80q0xoqe.s3.amazonaws.com/44de40b5-9db6-4459-98ab-17e45148962e?AWSAccessKeyId=AKIAIUQNYZUJLIOKKJ3A&Expires=1801043964&Signature=RcEW6HCpy1ONf%2B4x8QF2f5C1tBI%3D",8,5,0.615384615384615,0.501538461538461,0.500286204922725,0.546763858922989
131,"WFWRMQ","Falkville High School","Falkville","AL","Blue Devils","43 Clark Drive","https://cdn2buckets-live-s3dfaaws-1mlao80q0xoqe.s3.amazonaws.com/ebb873ea-71b4-4873-dde2-637c488a5e7e?AWSAccessKeyId=AKIAIUQNYZUJLIOKKJ3A&Expires=1801043964&Signature=xIaUI3iMd%2F0euzyYbCaAhnBg3bA%3D",11,7,0.611111111111111,0.504504504504504,0.500474833808167,0.546139729473063
132,"ZGBGHG","Sipsey Valley High School","Buhl","AL","Bears","15815 Romulus Road","https://cdn2buckets-live-s3dfaaws-1mlao80q0xoqe.s3.amazonaws.com/8da3025a-9b6c-468a-b39a-a254a0e649d3?AWSAccessKeyId=AKIAIUQNYZUJLIOKKJ3A&Expires=1801043965&Signature=v9HuBoAh6Nbn0E%2Fr%2B%2BWCm6m5Pe0%3D",11,7,0.611111111111111,0.505,0.499631268436578,0.546102261553589
133,"8ELZNV","Vinemont High School","Vinemont","AL","Eagles","High School Road","https://cdn2buckets-live-s3dfaaws-1mlao80q0xoqe.s3.amazonaws.com/166eff38-0dd6-4fa3-c97f-9030f1ea59ca?AWSAccessKeyId=AKIAIUQNYZUJLIOKKJ3A&Expires=1801043965&Signature=4YIZk83EK96P9JlYn4DypaWG04w%3D",14,9,0.608695652173913,0.506297229219144,0.500249128051819,0.54574457310922
134,"2EKQXZ","New Brockton High School","New Brockton","AL","Gamecock","P.O. Box 399","https://cdn2buckets-live-s3dfaaws-1mlao80q0xoqe.s3.amazonaws.com/c80dbbde-f70b-42ac-8996-caee4e50c6cd?AWSAccessKeyId=AKIAIUQNYZUJLIOKKJ3A&Expires=1801043964&Signature=hOkwegwhcgzeWc9E0I9OULlWfOE%3D",6,4,0.6,0.505154639175258,0.501282051282051,0.542124636531853
135,"NRYFWM","Dallas County High School","Plantersville","AL","Hornets","335 5th Avenue","https://cdn2buckets-live-s3dfaaws-1mlao80q0xoqe.s3.amazonaws.com/a9840f2c-04d6-4f76-8eea-275a44d59801?AWSAccessKeyId=AKIAIUQNYZUJLIOKKJ3A&Expires=1801043964&Signature=IdcYFObcABXEWZF61Fb9LniuR0c%3D",9,6,0.6,0.505263157894737,0.501008742434432,0.542094290871766
136,"TPPH4T","Montevallo High School","Montevallo","AL","Bulldogs","980 Oak Street","https://cdn2buckets-live-s3dfaaws-1mlao80q0xoqe.s3.amazonaws.com/af65e46e-d5f0-479a-96bb-e9d0f0142615?AWSAccessKeyId=AKIAIUQNYZUJLIOKKJ3A&Expires=1801043964&Signature=dBtBSEyo2Stfj3B1%2BsywmftQ%2Fl8%3D",9,6,0.6,0.505494505494505,0.50025974025974,0.541988011988012
137,"FFAHT8","Winfield High School","Winfield","AL","Pirate","232 Pirate Cove","https://cdn2buckets-live-s3dfaaws-1mlao80q0xoqe.s3.amazonaws.com/ebc62c43-f251-4772-b33b-6d6073f58224?AWSAccessKeyId=AKIAIUQNYZUJLIOKKJ3A&Expires=1801043965&Signature=ErkfSe%2BlEBjQ1V9SWlcHcLDG0Q8%3D",6,4,0.6,0.504504504504504,0.500868055555556,0.541793590465465
138,"Q5D6RH","Autauga Academy","Prattville","AL","Generals","497 GOLSON RD","https://cdn2buckets-live-s3dfaaws-1mlao80q0xoqe.s3.amazonaws.com/e613a513-6673-49af-ed9d-72b82837acf4?AWSAccessKeyId=AKIAIUQNYZUJLIOKKJ3A&Expires=1801043963&Signature=8Xsn18HpKjVn%2BEpfAHrEVCPPLas%3D",9,6,0.6,0.502347417840376,0.500480307396734,0.540941673093315
139,"LL8HVS","Kate Duncan Smith DAR High School","Grant","AL","Patriots","6077 Main St. ","https://cdn2buckets-live-s3dfaaws-1mlao80q0xoqe.s3.amazonaws.com/d4c05991-beda-4b8b-ab72-8282f0e205f0?AWSAccessKeyId=AKIAIUQNYZUJLIOKKJ3A&Expires=1801043964&Signature=dtzvuD9ZX5xmluvAKwh%2FeG7NOf4%3D",12,8,0.6,0.502008032128514,0.5,0.54070281124498
140,"APW28H","St. Paul's Episcopal School","Mobile","AL","Saints","161 Dogwood lane","https://cdn2buckets-live-s3dfaaws-1mlao80q0xoqe.s3.amazonaws.com/81743ef7-86e2-44c1-c86e-57ddff684261?AWSAccessKeyId=AKIAIUQNYZUJLIOKKJ3A&Expires=1801043965&Signature=H%2Fa9UGpfK5x0HTjgxuQyngwl2lE%3D",13,9,0.590909090909091,0.501945525291829,0.5,0.537044570215776
141,"HMRZ7H","Marbury High School","Deatsville","AL","Bulldogs","2360 US Highway 31 North","https://cdn2buckets-live-s3dfaaws-1mlao80q0xoqe.s3.amazonaws.com/525dfa22-cd39-47b0-c70b-44159e8c9fb9?AWSAccessKeyId=AKIAIUQNYZUJLIOKKJ3A&Expires=1801043964&Signature=UpuVDJT4eAWofPfI5wghtIYVhDk%3D",11,8,0.578947368421053,0.509090909090909,0.500257864878804,0.53482523176994
142,"34SBUV","Colbert County High School","Leighton","AL","Indians","2200 high school st","https://cdn2buckets-live-s3dfaaws-1mlao80q0xoqe.s3.amazonaws.com/7cfd5f61-c1a2-42aa-e5a7-fa41ca239886?AWSAccessKeyId=AKIAIUQNYZUJLIOKKJ3A&Expires=1801043964&Signature=OZ5wLt6WzRezINf5a3FZNvIMzBw%3D",7,5,0.583333333333333,0.5,0.499380421313507,0.53317843866171
143,"LZJKPY","Westbrook Christian School","Rainbow City","AL","Warrior","100 westminster drive","https://cdn2buckets-live-s3dfaaws-1mlao80q0xoqe.s3.amazonaws.com/a616e7ea-da11-4a59-e326-92a50e9de60c?AWSAccessKeyId=AKIAIUQNYZUJLIOKKJ3A&Expires=1801043965&Signature=JXjH3KA2fgua738mNhcPGKZubXk%3D",11,8,0.578947368421053,0.503703703703704,0.500322372662798,0.532955836830417
144,"STK2MR","Buckhorn High School","New Market","AL","Bucks","4123 Winchester Road","https://cdn2buckets-live-s3dfaaws-1mlao80q0xoqe.s3.amazonaws.com/6d803327-a5bd-485e-b7e1-1894099dcd32?AWSAccessKeyId=AKIAIUQNYZUJLIOKKJ3A&Expires=1801043963&Signature=nvy1RZq3rnzE7lab7RshMZ2LnAY%3D",11,8,0.578947368421053,0.503432494279176,0.500247647350173,0.532842232203676
145,"BQJUYQ","Austin High School","Decatur","AL","Black Bears","3004 Modaus Road SW","https://cdn2buckets-live-s3dfaaws-1mlao80q0xoqe.s3.amazonaws.com/4b92f3b1-daf2-40bb-edeb-c03808a8e59a?AWSAccessKeyId=AKIAIUQNYZUJLIOKKJ3A&Expires=1801043963&Signature=uIjOREr0nbXOxM6onSIhfJi0Pr0%3D",11,8,0.578947368421053,0.503432494279176,0.5002079002079,0.532832295418108
146,"PJQR2B","Hamilton High School","Hamilton","AL","Aggies","211 aggie ave.","https://cdn2buckets-live-s3dfaaws-1mlao80q0xoqe.s3.amazonaws.com/ae4c70d3-ac5e-43c4-f3b4-b99c60d4de35?AWSAccessKeyId=AKIAIUQNYZUJLIOKKJ3A&Expires=1801043964&Signature=cDESijeuFjYC9TlixzleBaxSjdE%3D",11,8,0.578947368421053,0.503401360544218,0.499739447628973,0.532704285466141
147,"A3GUDP","Central High School, Hayneville","Hayneville","AL","Lions","145 Main Street","https://cdn2buckets-live-s3dfaaws-1mlao80q0xoqe.s3.amazonaws.com/409f6df9-2ab0-432f-95ec-c8081fd2b40b?AWSAccessKeyId=AKIAIUQNYZUJLIOKKJ3A&Expires=1801043964&Signature=V9BFCJocWHN3%2BEeY1fvHdt9wtAE%3D",8,6,0.571428571428571,0.505208333333333,0.5,0.530394345238095
148,"T7BRHF","Gardendale High School","Gardendale","AL","Rockets","800 Main Street","https://cdn2buckets-live-s3dfaaws-1mlao80q0xoqe.s3.amazonaws.com/4fc20f97-5a61-439d-f0ac-df2af5eeed1e?AWSAccessKeyId=AKIAIUQNYZUJLIOKKJ3A&Expires=1801043964&Signature=31Y0MJmfrV0wCdnxdiwLiKp5wrg%3D",8,6,0.571428571428571,0.502840909090909,0.500393700787402,0.529664171950097
149,"3W26DU","Westminster School At Oak Mountain","Birmingham","AL","Knights","5080 Cahaba Valley Trace","https://cdn2buckets-live-s3dfaaws-1mlao80q0xoqe.s3.amazonaws.com/ca5d014b-d56f-4bb5-e463-10b670bf1812?AWSAccessKeyId=AKIAIUQNYZUJLIOKKJ3A&Expires=1801043965&Signature=DDXKUYFx4r%2BAlR3s2tKnFwiDgo0%3D",12,9,0.571428571428571,0.503480278422274,0.499407348873963,0.529641363237715
150,"GRSAGY","Bibb County High School","Centreville","AL","Choctaws","220 Birmingham Road","https://cdn2buckets-live-s3dfaaws-1mlao80q0xoqe.s3.amazonaws.com/21b14a72-0d02-428d-ecc8-b7be7be27482?AWSAccessKeyId=AKIAIUQNYZUJLIOKKJ3A&Expires=1801043963&Signature=kDrJzWxpJVAFSGRAIUYi%2F4wWcq4%3D",8,6,0.571428571428571,0.503246753246753,0.499480249480249,0.529577854577855
151,"UE5RMZ","Fort Payne High School","Fort Payne","AL","Wildcats","201 45th Street NE","https://cdn2buckets-live-s3dfaaws-1mlao80q0xoqe.s3.amazonaws.com/71080902-d90f-4631-a5c3-b1760a768d30?AWSAccessKeyId=AKIAIUQNYZUJLIOKKJ3A&Expires=1801043964&Signature=ChdM7zX7fyRisbt2J5%2FUVMNmg%2Bc%3D",8,6,0.571428571428571,0.502958579881657,0.499621212121212,0.529512234560311
152,"7HL2FY","Phil Campbell High School","Phil Campbell","AL","Bobcats","P.O. Box 849","https://cdn2buckets-live-s3dfaaws-1mlao80q0xoqe.s3.amazonaws.com/125465bf-e923-4432-ce02-d609901ae5ca?AWSAccessKeyId=AKIAIUQNYZUJLIOKKJ3A&Expires=1801043964&Signature=Z1FTUc688%2BhsHivEAj%2F29ydPUMQ%3D",12,9,0.571428571428571,0.501222493887531,0.499717673630717,0.528928719839744
153,"2XREVV","Cleveland High School","Cleveland","AL","Panthers","71 High School Street","https://cdn2buckets-live-s3dfaaws-1mlao80q0xoqe.s3.amazonaws.com/a02849c6-3800-4943-cb48-9fd232e95c65?AWSAccessKeyId=AKIAIUQNYZUJLIOKKJ3A&Expires=1801043964&Signature=w2TR7VoPXw7PwKaD9JNMQcMLxlM%3D",12,9,0.571428571428571,0.50132625994695,0.499119201409278,0.52881541990518
154,"BKTUE5","East Lawrence High School ","Trinity","AL","Eagle","55 County Road 370","https://cdn2buckets-live-s3dfaaws-1mlao80q0xoqe.s3.amazonaws.com/7fd047de-d8f7-487f-cd00-45b91565fc4c?AWSAccessKeyId=AKIAIUQNYZUJLIOKKJ3A&Expires=1801043964&Signature=SUs4yjESXGIIghRfiwk7nF5oIqo%3D",9,7,0.5625,0.502272727272727,0.5,0.525795454545455
155,"67G4EP","John Carroll Catholic High School","Birmingham","AL","Cavalier","300 Lakeshore Parkway","https://cdn2buckets-live-s3dfaaws-1mlao80q0xoqe.s3.amazonaws.com/567b6f2d-44cc-49bd-9d41-1f825ccb345e?AWSAccessKeyId=AKIAIUQNYZUJLIOKKJ3A&Expires=1801043964&Signature=1Egt9ANZj7RWKg0vwBxopJuL9aE%3D",9,7,0.5625,0.50251256281407,0.499641062455133,0.525789662598708
156,"U33X87","Hartselle High School","Hartselle","AL","Tigers","1000 Bethel Road NE","https://cdn2buckets-live-s3dfaaws-1mlao80q0xoqe.s3.amazonaws.com/a8e9be08-db34-4149-be30-964a32d5e9e9?AWSAccessKeyId=AKIAIUQNYZUJLIOKKJ3A&Expires=1801043964&Signature=TWtkX%2FCrNXqREF0MMaJedyiDLsU%3D",10,8,0.555555555555556,0.50199203187251,0.499663526244953,0.522835314938839
157,"TGTNMC","Oak Mountain High School","Birmingham","AL","Eagles","5476 Caldwell Mill Road","https://cdn2buckets-live-s3dfaaws-1mlao80q0xoqe.s3.amazonaws.com/8b094709-6c63-4cc3-ffac-7650eeaea1e5?AWSAccessKeyId=AKIAIUQNYZUJLIOKKJ3A&Expires=1801043964&Signature=ox9LpM0ceAeLuS%2B9IlzCIG9OakQ%3D",11,9,0.55,0.5,0.499280057595392,0.519820014398848
158,"WTFF6B","Lawrence County High School","Moulton","AL","Red Devil","102 College Street","https://cdn2buckets-live-s3dfaaws-1mlao80q0xoqe.s3.amazonaws.com/edc2fa61-6a9a-4861-8d47-3fd0a453d2c7?AWSAccessKeyId=AKIAIUQNYZUJLIOKKJ3A&Expires=1801043964&Signature=B2DkBCcWsX7fNMPP1pejwB36eDo%3D",12,10,0.545454545454545,0.502232142857143,0.499552772808587,0.518851261383965
159,"QGGRY7","Sardis High School","Sardis City","AL",NA,NA,"https://cdn2buckets-live-s3dfaaws-1mlao80q0xoqe.s3.amazonaws.com/d831122f-ab85-443e-c7c6-a324e0b83596?AWSAccessKeyId=AKIAIUQNYZUJLIOKKJ3A&Expires=1801043965&Signature=d09QsCcOn%2Bq2XGkFlIA7eivo3e4%3D",12,10,0.545454545454545,0.50197628458498,0.499561403508772,0.518763868663754
160,"LPKVK8","Northside Methodist Academy","Dothan","AL","Knights","2600 Redmond Rd","https://cdn2buckets-live-s3dfaaws-1mlao80q0xoqe.s3.amazonaws.com/40a7a546-e821-4b68-cc93-6ae95cc1fe61?AWSAccessKeyId=AKIAIUQNYZUJLIOKKJ3A&Expires=1801043964&Signature=uWzy5BF5R%2BGuMf3mErbamTiHPHw%3D",6,5,0.545454545454545,0.49789029535865,0.499261447562777,0.51725878344804
161,"F8LKP2","Thomasville High School","Thomasville","AL","Tigers","777 GATES DR","https://cdn2buckets-live-s3dfaaws-1mlao80q0xoqe.s3.amazonaws.com/2cf6a8f2-5ba4-43fb-aa03-6275bad2686e?AWSAccessKeyId=AKIAIUQNYZUJLIOKKJ3A&Expires=1801043965&Signature=wgEHPPCJ0xEE03ntY8qk94oQWeg%3D",7,6,0.538461538461538,0.502564102564103,0.499276410998553,0.51610115403169
162,"EEG6QD","Fultondale High School","Birmingham","AL","Wildcats","2023 Wildcat Parkway","https://cdn2buckets-live-s3dfaaws-1mlao80q0xoqe.s3.amazonaws.com/bbb043ed-6e47-4874-b2cb-213c687e7e65?AWSAccessKeyId=AKIAIUQNYZUJLIOKKJ3A&Expires=1801043964&Signature=%2BoC7WVlQfzg0MTy2S%2FxQzteHOIo%3D",7,6,0.538461538461538,0.50187265917603,0.499090357792602,0.515812635544376
163,"SR7QJA","Lexington High School","Lexington","AL","Golden Bears","101 School St","https://cdn2buckets-live-s3dfaaws-1mlao80q0xoqe.s3.amazonaws.com/05fdc6ff-09ff-4b53-fe34-b5fb11e54135?AWSAccessKeyId=AKIAIUQNYZUJLIOKKJ3A&Expires=1801043964&Signature=PrEB7iT4kGTh68T30fd4BN1Ca2M%3D",7,6,0.538461538461538,0.498652291105121,0.499645138396026,0.514824201870414
164,"N6J5ZH","Mattie T. Blount High School","Eight Mile","AL","Leopards","5450 Lott Rd","https://cdn2buckets-live-s3dfaaws-1mlao80q0xoqe.s3.amazonaws.com/6b94232e-426b-45a4-9f24-4088e2a04d32?AWSAccessKeyId=AKIAIUQNYZUJLIOKKJ3A&Expires=1801043964&Signature=2H0y37Fx2uCaXjxJYJ7heskNR1s%3D",7,6,0.538461538461538,0.49812734082397,0.498588899341486,0.514376409508376
165,"XWD7CP","Carroll High School","Ozark","AL","Eagles","141 Eagle Way","https://cdn2buckets-live-s3dfaaws-1mlao80q0xoqe.s3.amazonaws.com/6a4b32d1-7334-4384-fad7-8341ff7ee532?AWSAccessKeyId=AKIAIUQNYZUJLIOKKJ3A&Expires=1801043963&Signature=2yl5f4bQahmzCwFy%2BbPcIu3Wv%2FI%3D",8,7,0.533333333333333,0.50210970464135,0.501145912910619,0.514358208185461
166,"EE9T6D","Loachapoka High School","Auburn","AL","Indian","685 Lee Rd 61","https://cdn2buckets-live-s3dfaaws-1mlao80q0xoqe.s3.amazonaws.com/2a7b613e-773d-460d-e87a-e1ab52c58d15?AWSAccessKeyId=AKIAIUQNYZUJLIOKKJ3A&Expires=1801043964&Signature=hi4m1hwi%2BVoDxEvN3iTOU7mBgHg%3D",9,7,0.529411764705882,0.505747126436782,0.500314267756128,0.513854767074259
167,"ACXQTY","Montgomery Catholic Preparatory School","Montgomery","AL","Knights","5350 Vaughn Road","https://cdn2buckets-live-s3dfaaws-1mlao80q0xoqe.s3.amazonaws.com/de5229f3-870a-4190-8e32-9f9e6af7beb6?AWSAccessKeyId=AKIAIUQNYZUJLIOKKJ3A&Expires=1801043964&Signature=v9p6G4l2z3z7oBYzY0g%2F495nDsc%3D",8,7,0.533333333333333,0.498525073746313,0.500257334019557,0.512881442649432
168,"SQM35W","Locust Fork High School","Locust Fork","AL","Hornets","77 School Rd","https://cdn2buckets-live-s3dfaaws-1mlao80q0xoqe.s3.amazonaws.com/c26190bc-63e8-4790-9d8e-0897ceae245f?AWSAccessKeyId=AKIAIUQNYZUJLIOKKJ3A&Expires=1801043964&Signature=vqqTnLPlTJucpoxO0L80j1YmvKc%3D",9,8,0.529411764705882,0.50185873605948,0.498063516653757,0.51193114266661
169,"SJM6BA","Winterboro High School","Alpine","AL","Bulldogs","22435 Alabama Highway 21","https://cdn2buckets-live-s3dfaaws-1mlao80q0xoqe.s3.amazonaws.com/dc9ba984-a8eb-4324-a191-b1308353b3cc?AWSAccessKeyId=AKIAIUQNYZUJLIOKKJ3A&Expires=1801043965&Signature=A6aAOSGoT0HOQZisSHaus%2FxwGn4%3D",9,8,0.529411764705882,0.498084291187739,0.499609069585614,0.510996475194465
170,"3AQV8Y","Haleyville High School","Haleyville","AL","Lion","2001 20th street","https://cdn2buckets-live-s3dfaaws-1mlao80q0xoqe.s3.amazonaws.com/215fca9e-2d7b-4c53-bb0c-c0aaf9c76874?AWSAccessKeyId=AKIAIUQNYZUJLIOKKJ3A&Expires=1801043964&Signature=4n6Y3HQotUnNEQBx78QGSk5euec%3D",10,9,0.526315789473684,0.501170960187354,0.499684940138626,0.510857386889704
171,"7PCA46","Oakwood Adventist Academy","Huntsville","AL","Mustangs","7000 ADVENTIST BLVD NW","https://cdn2buckets-live-s3dfaaws-1mlao80q0xoqe.s3.amazonaws.com/f9af6798-8737-4925-b2d0-0d7eea6529bb?AWSAccessKeyId=AKIAIUQNYZUJLIOKKJ3A&Expires=1801043964&Signature=U7rRDgac4gTEueSUhDtjE9uexZQ%3D",10,9,0.526315789473684,0.499092558983666,0.499831706496129,0.510166638057789
172,"KCEYC6","Daphne High School","Daphne","AL","Trojans","9300 Champions Way","https://cdn2buckets-live-s3dfaaws-1mlao80q0xoqe.s3.amazonaws.com/e53cc359-f1a4-46b8-ac60-54cc72dd3ce4?AWSAccessKeyId=AKIAIUQNYZUJLIOKKJ3A&Expires=1801043964&Signature=AkApDVr1Co6wtVYA7INIUBxqPiI%3D",9,8,0.529411764705882,0.495726495726496,0.498748957464554,0.509956218752765
173,"8V3GX2","Arab High School","Arab","AL",NA,"511 Arabian Drive","https://cdn2buckets-live-s3dfaaws-1mlao80q0xoqe.s3.amazonaws.com/e9976b93-79ba-490f-f417-77463aa44958?AWSAccessKeyId=AKIAIUQNYZUJLIOKKJ3A&Expires=1801043963&Signature=zQofVhbCbnV7UTvtTHnLKNAxhkA%3D",11,10,0.523809523809524,0.501052631578947,0.49914354230901,0.509678116153694
174,"YF3DFT","American Christian Academy","Tuscaloosa","AL","Patriots","2300 Veterans Memorial Parkway","https://cdn2buckets-live-s3dfaaws-1mlao80q0xoqe.s3.amazonaws.com/ee547cc4-af82-45db-e43b-dcd7a8243c49?AWSAccessKeyId=AKIAIUQNYZUJLIOKKJ3A&Expires=1801043963&Signature=acSwKgy56abfuRruH7pQDQ3Y%2BkE%3D",10,9,0.526315789473684,0.495750708215297,0.499288087327954,0.508861085496816
175,"XTFJ43","Bayshore Christian School","Fairhope","AL",NA,"316 Presbyterian Dr ","https://cdn2buckets-live-s3dfaaws-1mlao80q0xoqe.s3.amazonaws.com/bff1e8f8-4406-47b4-9c42-f900dc1d245b?AWSAccessKeyId=AKIAIUQNYZUJLIOKKJ3A&Expires=1801043963&Signature=M%2FBB16dlyxyerb4Jw33pDFGgRic%3D",10,9,0.526315789473684,0.494423791821561,0.499541704857928,0.508460069141502
176,"29UCN2","Lindsay Lane Christian Academy","Athens","AL","Lions","705 W Sanderfer Rd","https://cdn2buckets-live-s3dfaaws-1mlao80q0xoqe.s3.amazonaws.com/ef02baf7-d428-48a0-fd0e-d148da6f0866?AWSAccessKeyId=AKIAIUQNYZUJLIOKKJ3A&Expires=1801043964&Signature=ZDfo58SkSnbasDphchH%2BfI%2BRePc%3D",12,11,0.521739130434783,0.498915401301518,0.499172642029785,0.508109203136891
177,"LHDU8R","Houston Academy","Dothan","AL","Raiders","901 Buena Vista Drive","https://cdn2buckets-live-s3dfaaws-1mlao80q0xoqe.s3.amazonaws.com/83ca3548-d187-48ad-a5c1-1f1753c83733?AWSAccessKeyId=AKIAIUQNYZUJLIOKKJ3A&Expires=1801043964&Signature=o74OxgloC%2BJi0IvsTGaRbR77Zac%3D",5,5,0.5,0.5,0.5,0.5
177,"U3PMQ3","Jacksonville High School","Jacksonville","AL","Golden Eagles","1000 George Douthit Dr SW","https://cdn2buckets-live-s3dfaaws-1mlao80q0xoqe.s3.amazonaws.com/58670a22-4f52-4892-d312-6b6a5c0d6109?AWSAccessKeyId=AKIAIUQNYZUJLIOKKJ3A&Expires=1801043964&Signature=HY8HQZyQeQGDZXBMCWi%2FhjKpjug%3D",8,8,0.5,0.5,0.5,0.5
177,"AJ94XG","Mae Jemison High School","Huntsville","AL","Jaguar","5000 Pulaski Pike","https://cdn2buckets-live-s3dfaaws-1mlao80q0xoqe.s3.amazonaws.com/bb9edf8a-0f16-46a5-e9f1-f5a7dbf359a4?AWSAccessKeyId=AKIAIUQNYZUJLIOKKJ3A&Expires=1801043964&Signature=d1x7ccUvsgAhdRtwXgo8r30g4HY%3D",8,8,0.5,0.5,0.5,0.5
180,"X8A4UL","Bob Jones High School","Madison","AL","Patriots","650 Hughes Road","https://cdn2buckets-live-s3dfaaws-1mlao80q0xoqe.s3.amazonaws.com/a86acc9c-e1db-4d75-8bad-ce0815aad9fc?AWSAccessKeyId=AKIAIUQNYZUJLIOKKJ3A&Expires=1801043963&Signature=kdqV6O66zHHUAShipsMVkL%2Bb%2FJU%3D",10,10,0.5,0.5,0.499524262607041,0.49988106565176
181,"5D5D4E","Cordova High School","Cordova","AL","Devil","183 School Road","https://cdn2buckets-live-s3dfaaws-1mlao80q0xoqe.s3.amazonaws.com/e833608c-84e0-4114-c597-7e86e20091d1?AWSAccessKeyId=AKIAIUQNYZUJLIOKKJ3A&Expires=1801043964&Signature=IzNTze15PrmOSGLToLYl%2FoEane4%3D",8,8,0.5,0.5,0.499508357915438,0.499877089478859
182,"GBVYT7","Hewitt-Trussville High School ","Trussville","AL","Huskies","6450 Husky Parkway","https://cdn2buckets-live-s3dfaaws-1mlao80q0xoqe.s3.amazonaws.com/1d54052b-6a48-45d0-f11f-a8992d33bd69?AWSAccessKeyId=AKIAIUQNYZUJLIOKKJ3A&Expires=1801043964&Signature=cZCQlBW8tnD7E14k0%2FGTXYyVefk%3D",6,6,0.5,0.5,0.499326145552561,0.49983153638814
183,"7SW5VW","Marion County High School","Guin","AL","Red Raiders","8115 US Hwy 43","https://cdn2buckets-live-s3dfaaws-1mlao80q0xoqe.s3.amazonaws.com/091e53b2-42ac-4fab-ad2d-bfbde1615745?AWSAccessKeyId=AKIAIUQNYZUJLIOKKJ3A&Expires=1801043964&Signature=1P0lkRrb9PWh23XOPe75%2FuN0A%2BM%3D",8,8,0.5,0.5,0.499300699300699,0.499825174825175
184,"LFLWZV","Athens High School","Athens","AL","Golden Eagles","655 U. S. Highway 31 North","https://cdn2buckets-live-s3dfaaws-1mlao80q0xoqe.s3.amazonaws.com/69f0bef8-a411-44f2-a719-cfaa153d7e83?AWSAccessKeyId=AKIAIUQNYZUJLIOKKJ3A&Expires=1801043963&Signature=aVn4nAXZvS4Ua3pNHFSok7hC01Y%3D",11,11,0.5,0.5,0.499253174010456,0.499813293502614
185,"JN44X5","Pickens County High School","Reform","AL","Tornadoes","815 7th Ave SW","https://cdn2buckets-live-s3dfaaws-1mlao80q0xoqe.s3.amazonaws.com/ffb981dc-b909-4e4f-8cc3-2530fb9d1120?AWSAccessKeyId=AKIAIUQNYZUJLIOKKJ3A&Expires=1801043964&Signature=Qf5Mfh8XeS7szPsR%2FQ%2F8WRNVGxs%3D",5,5,0.5,0.5,0.49922480620155,0.499806201550388
186,"5CFBBE","Park Crossing High School","Montgomery","AL","Thunderbirds","8000 Park Crossing Dr","https://cdn2buckets-live-s3dfaaws-1mlao80q0xoqe.s3.amazonaws.com/337e4b1a-9e98-4f22-d47d-4138acba1a9f?AWSAccessKeyId=AKIAIUQNYZUJLIOKKJ3A&Expires=1801043964&Signature=iu8lb%2BYJldbrGYy7Qlwc7zLhATc%3D",9,9,0.5,0.5,0.498921639108555,0.499730409777139
187,"889VCG","McGill-Toolen Catholic High School","Mobile","AL","Yellow Jackets","1501 Old Shell Rd","https://cdn2buckets-live-s3dfaaws-1mlao80q0xoqe.s3.amazonaws.com/2e259943-e4c2-4b43-dd4c-6326de798d75?AWSAccessKeyId=AKIAIUQNYZUJLIOKKJ3A&Expires=1801043964&Signature=WeaFoSN%2BqI7yz9eeFjOuYXTIIuU%3D",6,6,0.5,0.5,0.498911860718172,0.499727965179543
188,"J9W3H4","J.U. Blacksher High School","Uriah","AL","Bulldogs","15933 Highway 21 South","https://cdn2buckets-live-s3dfaaws-1mlao80q0xoqe.s3.amazonaws.com/e83edf33-72e5-4842-c8d4-981d44cf48d5?AWSAccessKeyId=AKIAIUQNYZUJLIOKKJ3A&Expires=1801043964&Signature=zvwT%2FsL7226GvGRzRkX1WY266Ro%3D",7,7,0.5,0.5,0.498740554156171,0.499685138539043
189,"WXX895","Cedar Bluff High School","Cedar Bluff","AL","Tigers","3655 Old Hwy 9","https://cdn2buckets-live-s3dfaaws-1mlao80q0xoqe.s3.amazonaws.com/cd8ece00-a73a-45ba-f07f-648ec61f932f?AWSAccessKeyId=AKIAIUQNYZUJLIOKKJ3A&Expires=1801043964&Signature=TWeRxqiN2UJANT9FzV76SUsM75I%3D",6,6,0.5,0.5,0.498496240601504,0.499624060150376
190,"QVVN4Q","Monroe County High School","Monroeville","AL","Tigers","212 Tiger Drive","https://cdn2buckets-live-s3dfaaws-1mlao80q0xoqe.s3.amazonaws.com/e13c5c35-475f-4461-8124-a9f399854799?AWSAccessKeyId=AKIAIUQNYZUJLIOKKJ3A&Expires=1801043964&Signature=QxWHcOwdyqa2xCyd4I7W8UrFrLI%3D",7,7,0.5,0.5,0.497816593886463,0.499454148471616
191,"4QAWD9","Tanner High School","Tanner","AL","Rattlers","12060 Sommers Rd","https://cdn2buckets-live-s3dfaaws-1mlao80q0xoqe.s3.amazonaws.com/392e2e36-b3bf-4643-e9e0-60bad6b9b80b?AWSAccessKeyId=AKIAIUQNYZUJLIOKKJ3A&Expires=1801043965&Signature=GmGo1EQg4lolaHF3n6M5lKZsIF0%3D",9,9,0.5,0.497835497835498,0.499505440158259,0.499118784281989
192,"9FCUQR","Alabama School of Cyber Technology & Engineering","Huntsville","AL","Sentinels","229 Wynn Drive","https://cdn2buckets-live-s3dfaaws-1mlao80q0xoqe.s3.amazonaws.com/34a5c017-95ae-4f23-cc89-14130d4a22ee?AWSAccessKeyId=AKIAIUQNYZUJLIOKKJ3A&Expires=1801043963&Signature=Z3Eaj3zwQLD1PIGQ3hkeGXDYckM%3D",11,11,0.5,0.498031496062992,0.49888558692422,0.499032420353102
193,"BX4VKB","Central High School, Florence","Florence","AL","Wildcats","300 Co Rd 200","https://cdn2buckets-live-s3dfaaws-1mlao80q0xoqe.s3.amazonaws.com/35fe17cd-7fe3-4fd7-d1de-be409b6d07a2?AWSAccessKeyId=AKIAIUQNYZUJLIOKKJ3A&Expires=1801043964&Signature=uhgzbx7tiM03JMaptz29UchoQv4%3D",9,9,0.5,0.496732026143791,0.499272197962154,0.498674258640865
194,"3LP23D","GW Long High School","Skipperville","AL","Rebels","2565 County Road 60","https://cdn2buckets-live-s3dfaaws-1mlao80q0xoqe.s3.amazonaws.com/6bd91eb3-1af1-4880-f223-3c8a0da89fb0?AWSAccessKeyId=AKIAIUQNYZUJLIOKKJ3A&Expires=1801043964&Signature=oLLQI1suWMrWAFI4dJ1epSWAZ%2B0%3D",9,9,0.5,0.496969696969697,0.497905027932961,0.498415650922634
195,"EJWAY5","Handley High School","Roanoke","AL","Tigers","100 Tiger Circle","https://cdn2buckets-live-s3dfaaws-1mlao80q0xoqe.s3.amazonaws.com/3b6f5dc4-06aa-4d0d-e888-70c55eac61e8?AWSAccessKeyId=AKIAIUQNYZUJLIOKKJ3A&Expires=1801043964&Signature=yb8SXylRmiOeE%2BloQFFABrG1bFE%3D",6,6,0.5,0.496,0.498571428571429,0.498242857142857
196,"RQ5GEV","Faith Christian School","Anniston","AL","Lion","4100 RONNAKI RD","https://cdn2buckets-live-s3dfaaws-1mlao80q0xoqe.s3.amazonaws.com/483a256d-9b8e-4460-f374-82cbd0aa2396?AWSAccessKeyId=AKIAIUQNYZUJLIOKKJ3A&Expires=1801043964&Signature=Jrlv2nUqFvxW2cnWlCBAfGnNAzw%3D",5,5,0.5,0.495689655172414,0.497679814385151,0.497911332906633
197,"SANXCV","Prattville Christian Academy","Prattville","AL","Panthers","322 Old Farm Lane North","https://cdn2buckets-live-s3dfaaws-1mlao80q0xoqe.s3.amazonaws.com/ed7bfcaf-e79e-4eea-bf9e-8b4fee45a449?AWSAccessKeyId=AKIAIUQNYZUJLIOKKJ3A&Expires=1801043964&Signature=ez36tzZqY%2FXmaxh882%2FJE4OeIeQ%3D",10,11,0.476190476190476,0.49873417721519,0.498695878977569,0.489707122245899
198,"8S5ZUT","West Limestone High School","Lester","AL","Wildcats","10945 West Schoolhouse Road","https://cdn2buckets-live-s3dfaaws-1mlao80q0xoqe.s3.amazonaws.com/dffdaabc-ca62-4127-c0ae-386d56a9bd5b?AWSAccessKeyId=AKIAIUQNYZUJLIOKKJ3A&Expires=1801043965&Signature=BVvEGwWUQHSFHwmdSRClThyrM%2FU%3D",11,12,0.478260869565217,0.496240601503759,0.498494882600843,0.489612279002613
199,"HBDQWR","Pike Road High School","Pike Road","AL","Patriots","696 Georgia Washington Rd","https://cdn2buckets-live-s3dfaaws-1mlao80q0xoqe.s3.amazonaws.com/0e0a7545-2688-4761-f79b-4ecd49cf8026?AWSAccessKeyId=AKIAIUQNYZUJLIOKKJ3A&Expires=1801043964&Signature=bR7e3I2nM7jO80gibe9M%2B%2FbLmtY%3D",9,10,0.473684210526316,0.499115044247788,0.499440089585666,0.489023972093669
200,"GTYVU2","Douglas High School","Douglas","AL","Eagles","P.O. Box 300","https://cdn2buckets-live-s3dfaaws-1mlao80q0xoqe.s3.amazonaws.com/b4e7724c-f9f7-43c4-f4f2-7ff3a9ef2bac?AWSAccessKeyId=AKIAIUQNYZUJLIOKKJ3A&Expires=1801043964&Signature=Fv%2Bfbm9QOl8IZAYjkmmLl1i8AL8%3D",9,10,0.473684210526316,0.498933901918977,0.498050139275766,0.48861308470111
201,"FQ6D7M","Carbon Hill High School","Carbon Hill","AL","Bulldog","217 Bulldog Boulevard","https://cdn2buckets-live-s3dfaaws-1mlao80q0xoqe.s3.amazonaws.com/e8f7395e-3864-4377-b9a0-ff00cf17c78e?AWSAccessKeyId=AKIAIUQNYZUJLIOKKJ3A&Expires=1801043963&Signature=YZoJ7o5yfN8jv6o%2Bd9MkZBbir88%3D",8,9,0.470588235294118,0.498525073746313,0.499786233433091,0.487665628287129
202,"FMWUYX","Huffman High School-Magnet","Birmingham","AL","Vikings","950 Springville Road","https://cdn2buckets-live-s3dfaaws-1mlao80q0xoqe.s3.amazonaws.com/2f4b392d-be23-4041-ba99-4e3c9bc81997?AWSAccessKeyId=AKIAIUQNYZUJLIOKKJ3A&Expires=1801043964&Signature=fIJ9P8%2BavqI7a5PwVIdJOIG%2Bc2A%3D",8,9,0.470588235294118,0.498817966903073,0.499003587086489,0.487572479305345
203,"7LHCMH","Randolph School ","Huntsville","AL","Raiders","4915 Garth Rd SE","https://cdn2buckets-live-s3dfaaws-1mlao80q0xoqe.s3.amazonaws.com/f714f84c-874d-4495-8981-03134cc7cf41?AWSAccessKeyId=AKIAIUQNYZUJLIOKKJ3A&Expires=1801043965&Signature=LIAk1thQWNsYGt7%2B%2FbJDbdq4mH4%3D",8,9,0.470588235294118,0.499043977055449,0.498643936458737,0.487561670201739
204,"CK93GZ","Samson High School","Samson","AL","Tigers","209 North Broad St.","https://cdn2buckets-live-s3dfaaws-1mlao80q0xoqe.s3.amazonaws.com/716f859a-aaf2-4429-8532-64bd2d664723?AWSAccessKeyId=AKIAIUQNYZUJLIOKKJ3A&Expires=1801043965&Signature=EUdUYZrC0NFtZV4eiRxdLZbGbto%3D",8,8,0.470588235294118,0.498338870431894,0.499243570347958,0.487464791355799
205,"QYXH5S","Waterloo School","Waterloo","AL","Cougar","311 School House Lane","https://cdn2buckets-live-s3dfaaws-1mlao80q0xoqe.s3.amazonaws.com/b0b91d95-e5af-4bfb-e41a-843660fd2d0a?AWSAccessKeyId=AKIAIUQNYZUJLIOKKJ3A&Expires=1801043965&Signature=iLpzOjGdIxjY6FDOYQ91ifXOnGc%3D",9,10,0.473684210526316,0.495575221238938,0.498001598721023,0.48742541132441
206,"TB8SG3","Colbert Heights High School","Tuscumbia","AL",NA,"6825 Woodmont Dr.","https://cdn2buckets-live-s3dfaaws-1mlao80q0xoqe.s3.amazonaws.com/7af3a392-c917-40e5-f686-43d3e0760fac?AWSAccessKeyId=AKIAIUQNYZUJLIOKKJ3A&Expires=1801043964&Signature=tVTyoepEcaq0KiVP%2BS6ii2FSZJg%3D",8,9,0.470588235294118,0.498542274052478,0.498087222647284,0.487246895697835
207,"YBVVGE","Helena High School","Helena","AL","Huskies","1310 Hillsboro Pkwy","https://cdn2buckets-live-s3dfaaws-1mlao80q0xoqe.s3.amazonaws.com/9ea16b9e-e502-4015-9533-50716d450b71?AWSAccessKeyId=AKIAIUQNYZUJLIOKKJ3A&Expires=1801043964&Signature=NhCZQ%2B4qKM%2FbkTTg8TbvcsO1RJM%3D",8,9,0.470588235294118,0.496332518337408,0.499785315586088,0.486898004432262
208,"5ZDAFP","Ranburne High School","Ranburne","AL","Bulldogs","21045 main street","https://cdn2buckets-live-s3dfaaws-1mlao80q0xoqe.s3.amazonaws.com/c50d9bba-6ddb-4246-c906-e3f9ca245a92?AWSAccessKeyId=AKIAIUQNYZUJLIOKKJ3A&Expires=1801043964&Signature=3bkCPPap621pJ7RXfd1wYwQFtFA%3D",8,9,0.470588235294118,0.494845360824742,0.498923187365398,0.486161967247656
209,"VJ66N9","Rehobeth High School","Dothan","AL","Rebels","373 Malvern Road","https://cdn2buckets-live-s3dfaaws-1mlao80q0xoqe.s3.amazonaws.com/370ac070-7c95-4ce7-b418-53aba6d04f66?AWSAccessKeyId=AKIAIUQNYZUJLIOKKJ3A&Expires=1801043965&Signature=uLaPSweloLstER7FzFCNIMLxmUQ%3D",7,8,0.466666666666667,0.498630136986301,0.499668214996682,0.486104268361043
210,"CX8CJT","Belgreen High School","Russellville","AL","Bulldog","14220 Hwy 187","https://cdn2buckets-live-s3dfaaws-1mlao80q0xoqe.s3.amazonaws.com/e08f7002-345c-42f1-8fbb-dc9115505060?AWSAccessKeyId=AKIAIUQNYZUJLIOKKJ3A&Expires=1801043963&Signature=2gF%2Bx9oxUYbh1EjDFWBzzoxIKZQ%3D",7,8,0.466666666666667,0.498567335243553,0.499197431781701,0.485964591947336
211,"REKPEM","Southeastern High School","Remlap","AL","Mustangs","18770 Hwy. 75","https://cdn2buckets-live-s3dfaaws-1mlao80q0xoqe.s3.amazonaws.com/79d30525-8dcf-4a8b-fe8f-8d97f7b4de4f?AWSAccessKeyId=AKIAIUQNYZUJLIOKKJ3A&Expires=1801043965&Signature=CYKFHjfyWl9wCBpTvLzeWFAxmwE%3D",8,9,0.470588235294118,0.495049504950495,0.497643097643098,0.485913395261095
212,"A9JFUD","University Charter School","Livingston","AL","Trail Blazers","P.O. Box 1053","https://cdn2buckets-live-s3dfaaws-1mlao80q0xoqe.s3.amazonaws.com/6fadc082-1e84-47ef-e89d-7d17950eedfe?AWSAccessKeyId=AKIAIUQNYZUJLIOKKJ3A&Expires=1801043965&Signature=73QWDSZFqAu9x3g0rPkctD0BNqI%3D",7,8,0.466666666666667,0.497757847533632,0.499575191163976,0.485775711094432
213,"9MGD7V","Holt High School","Tuscaloosa","AL","Ironmen","301 44th Court NE","https://cdn2buckets-live-s3dfaaws-1mlao80q0xoqe.s3.amazonaws.com/c66123dc-24fe-46b9-fbae-3320071d6a83?AWSAccessKeyId=AKIAIUQNYZUJLIOKKJ3A&Expires=1801043964&Signature=8k3w88SQtl01HQgryig8xfyr09s%3D",7,8,0.466666666666667,0.498054474708171,0.498494882600843,0.485609453464737
214,"9BN8PE","Dale County High School","Midland City","AL","Warriors","11740 S Co Rd 59","https://cdn2buckets-live-s3dfaaws-1mlao80q0xoqe.s3.amazonaws.com/1feec741-c609-4b19-b6cd-7d13c3d0075a?AWSAccessKeyId=AKIAIUQNYZUJLIOKKJ3A&Expires=1801043964&Signature=oSmnkHmr3a%2ByysKMdstndL7lVKM%3D",7,8,0.466666666666667,0.493449781659389,0.499393939393939,0.484222575095938
215,"6DL2UA","Covenant Christian School","Tuscumbia","AL","Eagle","1900 Covenant Drive","https://cdn2buckets-live-s3dfaaws-1mlao80q0xoqe.s3.amazonaws.com/96b755b3-a65f-446a-cbcb-00485738a52d?AWSAccessKeyId=AKIAIUQNYZUJLIOKKJ3A&Expires=1801043964&Signature=0yV8ahtZfRo64y%2FOtiGAMMRAJcs%3D",6,7,0.461538461538462,0.498583569405099,0.498500299940012,0.483744708892172
216,"SCZJJW","Bullock County High School","Union Springs","AL","Hornet","PO Box 5108","https://cdn2buckets-live-s3dfaaws-1mlao80q0xoqe.s3.amazonaws.com/30a6c57b-933a-4e2f-d5b0-9fdedca06697?AWSAccessKeyId=AKIAIUQNYZUJLIOKKJ3A&Expires=1801043963&Signature=olP%2FVM525tGYjaQTqiGh0k4d4Yo%3D",6,7,0.461538461538462,0.497267759562842,0.495552731893266,0.482547283435696
217,"NCHWT2","Madison County High School","Gurley","AL",NA,"174 Brock Road ","https://cdn2buckets-live-s3dfaaws-1mlao80q0xoqe.s3.amazonaws.com/7c6f2039-4a79-4222-ac87-0a1854c328d7?AWSAccessKeyId=AKIAIUQNYZUJLIOKKJ3A&Expires=1801043964&Signature=whYyMUsEWDUjLbYxIasUB9EzxWY%3D",11,13,0.458333333333333,0.49625468164794,0.498730964467005,0.481705213026864
218,"XKSJPP","Sheffield High School","Sheffield","AL","Bulldogs","2800 E 19th Avenue","https://cdn2buckets-live-s3dfaaws-1mlao80q0xoqe.s3.amazonaws.com/14b09ce9-3e0f-44ea-e55c-59e160d71028?AWSAccessKeyId=AKIAIUQNYZUJLIOKKJ3A&Expires=1801043965&Signature=kuX340EHYbpp3BvrPYvUrxkxVCo%3D",5,6,0.454545454545455,0.498039215686275,0.498971898560658,0.480874881948542
219,"HF4UPN","Selma High School","Selma","AL","Saints","2180 Broad Street","https://cdn2buckets-live-s3dfaaws-1mlao80q0xoqe.s3.amazonaws.com/7b17809f-17cc-4477-b571-040a5126bf30?AWSAccessKeyId=AKIAIUQNYZUJLIOKKJ3A&Expires=1801043965&Signature=qEIj%2FCe7Bp2MbsIS%2FgijJYXuGiI%3D",5,6,0.454545454545455,0.497005988023952,0.500376222723853,0.480864333307528
220,"8R8RQ4","Flomaton High School","Flomaton","AL","Hurricanes","21200 US Highway 31","https://cdn2buckets-live-s3dfaaws-1mlao80q0xoqe.s3.amazonaws.com/0cf83030-3e27-4101-cd37-405c5b9282ce?AWSAccessKeyId=AKIAIUQNYZUJLIOKKJ3A&Expires=1801043964&Signature=lnvAfZGb%2F8OIUir%2BUh%2F7zkCcqLY%3D",5,6,0.454545454545455,0.497142857142857,0.498814229249012,0.480521739130435
221,"YXLTJS","Athens Bible School","Athens","AL","Trojans","700 US Hwy 31 North","https://cdn2buckets-live-s3dfaaws-1mlao80q0xoqe.s3.amazonaws.com/375b4b20-db5f-447d-c460-71c59a74056a?AWSAccessKeyId=AKIAIUQNYZUJLIOKKJ3A&Expires=1801043963&Signature=lo2s0yGcwDZ8oYPMISzg9fNoVi0%3D",9,11,0.45,0.497354497354497,0.49812030075188,0.478604149262044
222,"FYHTQE","Thorsby High School","Thorsby","AL","Rebels","54 Opportunity Drive","https://cdn2buckets-live-s3dfaaws-1mlao80q0xoqe.s3.amazonaws.com/27bc4870-2d8f-4b4a-8d1b-8f92aceb96e5?AWSAccessKeyId=AKIAIUQNYZUJLIOKKJ3A&Expires=1801043965&Signature=Z%2BxR4EpXP3PXU%2FMQB2noRaHPVd8%3D",8,10,0.444444444444444,0.496688741721854,0.499316005471956,0.476447838748416
223,"T6NAXL","Holly Pond High School","Holly Pond","AL","Broncos","160 New Hope Road","https://cdn2buckets-live-s3dfaaws-1mlao80q0xoqe.s3.amazonaws.com/59295408-fbca-460a-a4b5-34c3241c9b44?AWSAccessKeyId=AKIAIUQNYZUJLIOKKJ3A&Expires=1801043964&Signature=M1Ax2%2Fq2K2SKly%2BF96Jq5JRIPa4%3D",8,10,0.444444444444444,0.496575342465753,0.499341238471673,0.47641445725871
224,"BNGXBT","Hokes Bluff High School","Hokes Bluff","AL","Eagles","1865 Appalachian Highway","https://cdn2buckets-live-s3dfaaws-1mlao80q0xoqe.s3.amazonaws.com/2d3b8c8a-a3ba-433f-8a1e-769497cb5878?AWSAccessKeyId=AKIAIUQNYZUJLIOKKJ3A&Expires=1801043964&Signature=gs3v142sZenNOZjFDADxrRkdnDg%3D",7,9,0.4375,0.497630331753554,0.498293515358362,0.473743994953335
225,"NJ2H5C","Mars Hill Bible School","Florence","AL","Panthers","698 Cox Creek Pkwy","https://cdn2buckets-live-s3dfaaws-1mlao80q0xoqe.s3.amazonaws.com/56805e48-547d-4d1f-aef9-8d2fd503790b?AWSAccessKeyId=AKIAIUQNYZUJLIOKKJ3A&Expires=1801043964&Signature=gPr63WCUTUxsKJnMbHMi8AaWlG4%3D",7,9,0.4375,0.497340425531915,0.498476770753998,0.47368834162467
226,"6UZTNH","Thompson High School","Alabaster","AL","Warriors","1921 Warrior Parkway","https://cdn2buckets-live-s3dfaaws-1mlao80q0xoqe.s3.amazonaws.com/d31c018a-1431-4af4-c89a-49f2787aa781?AWSAccessKeyId=AKIAIUQNYZUJLIOKKJ3A&Expires=1801043965&Signature=%2Bniv25BhOnKdRFn8kYFfGJuJRSE%3D",10,13,0.434782608695652,0.497444633730835,0.498861788617886,0.472734112438525
227,"F9G74Q","Spanish Fort High School","Spanish Fort","AL","Toros","1 Plaza De Toros","https://cdn2buckets-live-s3dfaaws-1mlao80q0xoqe.s3.amazonaws.com/4bfc1e35-6891-498b-dfc5-a22433c49749?AWSAccessKeyId=AKIAIUQNYZUJLIOKKJ3A&Expires=1801043965&Signature=n9FYCM%2FyQSD7TnJeYsqUEeBOHo4%3D",10,13,0.434782608695652,0.497098646034816,0.498346717052433,0.472484248853555
228,"MC62WV","Brookwood High School","Brookwood","AL","Panthers","12250 George Richmond Parkway","https://cdn2buckets-live-s3dfaaws-1mlao80q0xoqe.s3.amazonaws.com/ba15a354-374e-4e02-f4f6-47c03ffef769?AWSAccessKeyId=AKIAIUQNYZUJLIOKKJ3A&Expires=1801043963&Signature=%2FI2i7xk%2FB31cjeCq3BHTiUhg6mo%3D",7,9,0.4375,0.493464052287582,0.498552123552124,0.472350449188684
229,"JG3A7Z","Fairfield High Preparatory School","Fairfield","AL","Tigers","610 Valley Road","https://cdn2buckets-live-s3dfaaws-1mlao80q0xoqe.s3.amazonaws.com/c0e3bb2e-108f-474c-8ca8-8019d736b1c3?AWSAccessKeyId=AKIAIUQNYZUJLIOKKJ3A&Expires=1801043964&Signature=JYWAH%2BRRXWpXlm7HNUagMlaLXcU%3D",6,8,0.428571428571429,0.49748743718593,0.499162479061977,0.470339794209141
230,"XEW8Q5","Ramsay IB High School","Birmingham","AL","Rams","1800 13th Avenue South","https://cdn2buckets-live-s3dfaaws-1mlao80q0xoqe.s3.amazonaws.com/166ca8e0-948c-46d1-98d3-677c84409c0a?AWSAccessKeyId=AKIAIUQNYZUJLIOKKJ3A&Expires=1801043964&Signature=de%2Bqxd5O6eBHjhwgqG6W4h0fpCw%3D",6,8,0.428571428571429,0.496710526315789,0.499107939339875,0.470054240474067
231,"C6423D","Southside High School","Southside","AL","Panthers","2361 School Drive ","https://cdn2buckets-live-s3dfaaws-1mlao80q0xoqe.s3.amazonaws.com/413a596c-1273-4ee5-8b5d-6df93a1d2174?AWSAccessKeyId=AKIAIUQNYZUJLIOKKJ3A&Expires=1801043965&Signature=SS5RM5vAfX2WOYP7LuZEl0U523s%3D",9,12,0.428571428571429,0.496894409937888,0.498815566835871,0.4700455066158
232,"NCF3QK","Ashford High School","Ashford","AL","Yellow Jackets","607 Church Street","https://cdn2buckets-live-s3dfaaws-1mlao80q0xoqe.s3.amazonaws.com/479bb44a-e029-4297-d6d1-8027b90382a5?AWSAccessKeyId=AKIAIUQNYZUJLIOKKJ3A&Expires=1801043963&Signature=zF0rrvlN%2BeVmSwGqRxHpY9tleYI%3D",6,8,0.428571428571429,0.49618320610687,0.499124343257443,0.469873779380337
233,"YEUJWR","The Altamont School","Birmingham","AL","Knights","The Altamont School,4801 Altamont Rd. S.","https://cdn2buckets-live-s3dfaaws-1mlao80q0xoqe.s3.amazonaws.com/5a7d6399-cca8-4be1-dff9-f68e817dd4bc?AWSAccessKeyId=AKIAIUQNYZUJLIOKKJ3A&Expires=1801043965&Signature=XFmSBJVcytyaRdSDkpK%2Bpwm9Ahs%3D",9,12,0.428571428571429,0.496567505720824,0.498225233946434,0.469783506917468
234,"XGNYJ4","Asbury High School","Albertville","AL","Rams","1990 Asbury Rd","https://cdn2buckets-live-s3dfaaws-1mlao80q0xoqe.s3.amazonaws.com/811d5e7b-3508-4a57-e971-88b427fbd2bf?AWSAccessKeyId=AKIAIUQNYZUJLIOKKJ3A&Expires=1801043963&Signature=cIhF%2BEdkO0E8cwuGnPFIazavS%2Fw%3D",9,12,0.428571428571429,0.49678800856531,0.497793035801864,0.469752633376896
235,"TGO8P9","Gulf Shores High School","Gulf Shores","AL","Dolphins","600 E. 15th Avenue","https://cdn2buckets-live-s3dfaaws-1mlao80q0xoqe.s3.amazonaws.com/9a85f701-4aa6-4f4f-fd18-9f91e4299fae?AWSAccessKeyId=AKIAIUQNYZUJLIOKKJ3A&Expires=1801043964&Signature=L25Qyu06em8qlAdU9wMLeWoRDR4%3D",6,8,0.428571428571429,0.496428571428571,0.498,0.469678571428571
236,"BQD9RA","Northside High School","Northport","AL","Rams","19230 Northside Parkway","https://cdn2buckets-live-s3dfaaws-1mlao80q0xoqe.s3.amazonaws.com/0bcfa8ea-fd28-4ba3-a1d1-42f7c404e7ff?AWSAccessKeyId=AKIAIUQNYZUJLIOKKJ3A&Expires=1801043964&Signature=WndFdQKOwdN4Ng7DOwtLr4XKvEY%3D",6,8,0.428571428571429,0.495967741935484,0.498387096774194,0.469614055299539
237,"8RFRZX","Holtville High School","Deatsville","AL","Bulldog","10425 Holtville Road","https://cdn2buckets-live-s3dfaaws-1mlao80q0xoqe.s3.amazonaws.com/bbce9ff5-9441-41e5-e936-5b00455354fa?AWSAccessKeyId=AKIAIUQNYZUJLIOKKJ3A&Expires=1801043964&Signature=r903nwAxK6zDIQetO%2FpjOADt9nw%3D",6,8,0.428571428571429,0.49236641221374,0.498480243161094,0.468376876493654
238,"MFYEX9","Alma Bryant High School","Irvington","AL",NA,"14001 Hurricane Blvd","https://cdn2buckets-live-s3dfaaws-1mlao80q0xoqe.s3.amazonaws.com/ebe4af62-1b6c-46ef-b6ca-c6a579931a01?AWSAccessKeyId=AKIAIUQNYZUJLIOKKJ3A&Expires=1801043963&Signature=01QNBSigJg%2FXe83OFNJZaNgKEfI%3D",9,12,0.428571428571429,0.490463215258856,0.497704315886134,0.467516775740704
239,"8JHSTB","Lincoln High School","Lincoln","AL","Golden Bears","78989 AL-77","https://cdn2buckets-live-s3dfaaws-1mlao80q0xoqe.s3.amazonaws.com/b99d04a4-121e-421a-d0e4-d103e457682c?AWSAccessKeyId=AKIAIUQNYZUJLIOKKJ3A&Expires=1801043964&Signature=S83w%2F4dRcz%2BYb6ef9iHfCPmbWuA%3D",8,11,0.421052631578947,0.495774647887324,0.498564043653073,0.466583190305411
240,"9XJKWZ","Brewbaker Tech Magnet High School","Montgomery","AL","Rams","4405 Brewbaker Drive","https://cdn2buckets-live-s3dfaaws-1mlao80q0xoqe.s3.amazonaws.com/2f08b109-3275-4fc9-d993-910ba4c4ee2e?AWSAccessKeyId=AKIAIUQNYZUJLIOKKJ3A&Expires=1801043963&Signature=gXhjbkiaBgBYXqtgp8MXnrKbH3g%3D",5,7,0.416666666666667,0.496402877697842,0.49844398340249,0.465018669711534
241,"43HG2A","Coosa Christian School","Gadsden","AL","Conquerors","2736 Wills Creek Road","https://cdn2buckets-live-s3dfaaws-1mlao80q0xoqe.s3.amazonaws.com/31a9c82d-f6c1-4455-ff26-a7c456b9bfa5?AWSAccessKeyId=AKIAIUQNYZUJLIOKKJ3A&Expires=1801043964&Signature=ecWYgh4drdWB4Ij0Hj0UknIMjGw%3D",5,6,0.416666666666667,0.495145631067961,0.5,0.464967637540453
242,"6XXX7Z","Kinston High School","Kinston","AL","Bulldogs","201 College Street East","https://cdn2buckets-live-s3dfaaws-1mlao80q0xoqe.s3.amazonaws.com/59822cba-bc6e-40ef-905d-c056853c90c1?AWSAccessKeyId=AKIAIUQNYZUJLIOKKJ3A&Expires=1801043964&Signature=b1kXfChGa%2Bn2qPckC4%2B6mYQGwms%3D",8,11,0.421052631578947,0.490196078431373,0.49607535321821,0.464008518387112
243,"5TCR5Z","Chilton County High School","Clanton","AL","Tigers","1214 7th Street South","https://cdn2buckets-live-s3dfaaws-1mlao80q0xoqe.s3.amazonaws.com/79f7c0ee-c2d7-41a6-a3a3-71d891a4456b?AWSAccessKeyId=AKIAIUQNYZUJLIOKKJ3A&Expires=1801043964&Signature=w2jmx%2BaHLH4FokjJOdCApOqTt%2BU%3D",7,10,0.411764705882353,0.493606138107417,0.49940119760479,0.462318330091735
244,"6VNQO4","Priceville High School","Decatur","AL","Bulldogs","2650 North Bethel Rd.","https://cdn2buckets-live-s3dfaaws-1mlao80q0xoqe.s3.amazonaws.com/2ee310ed-9ded-440e-fe87-ec357e82ca63?AWSAccessKeyId=AKIAIUQNYZUJLIOKKJ3A&Expires=1801043964&Signature=D0umPsaL63Db66ouVlqAyOKtbDw%3D",9,13,0.409090909090909,0.493801652892562,0.497973657548126,0.460960356535792
245,"3FH9MH","Winston County High School","Double Springs","AL",NA,"1222 County Road 24","https://cdn2buckets-live-s3dfaaws-1mlao80q0xoqe.s3.amazonaws.com/1f36699c-8c92-4f75-d95d-bf0d27b8c6ac?AWSAccessKeyId=AKIAIUQNYZUJLIOKKJ3A&Expires=1801043965&Signature=uZOicDX%2FHs%2Fcshx2HEf0Wb%2BSz7c%3D",4,6,0.4,0.496212121212121,0.498452012383901,0.458287245520218
246,"74L9YR","Keith High School","Orrville","AL","Bear","1166 County Road 115","https://cdn2buckets-live-s3dfaaws-1mlao80q0xoqe.s3.amazonaws.com/f54ace3d-17b7-4925-8712-1e8f0612f7b4?AWSAccessKeyId=AKIAIUQNYZUJLIOKKJ3A&Expires=1801043964&Signature=ogSUwKJqvExjKWRReP9U655rJkg%3D",4,6,0.4,0.494565217391304,0.498847926267281,0.457809807653777
247,"8TYQFD","Pell City High School","Pell City","AL","Panthers","1300 Cogswell Ave","https://cdn2buckets-live-s3dfaaws-1mlao80q0xoqe.s3.amazonaws.com/8f6930fe-9dc5-42c9-c2b4-37462eee3c54?AWSAccessKeyId=AKIAIUQNYZUJLIOKKJ3A&Expires=1801043964&Signature=o6fKPS6YI2XeTmA6Yy3MsqI%2FR2w%3D",6,9,0.4,0.494646680942184,0.498503491852345,0.457752211292851
248,"KF7XCW","Fyffe High School","Fyffe","AL","Red Devils","PO Box 7","https://cdn2buckets-live-s3dfaaws-1mlao80q0xoqe.s3.amazonaws.com/daee1bc3-1172-4b3c-e899-a365f72ec1d4?AWSAccessKeyId=AKIAIUQNYZUJLIOKKJ3A&Expires=1801043964&Signature=ANJyOWWAw6e1ueYzctckqkBvoHg%3D",8,12,0.4,0.492146596858639,0.498018494055482,0.456755932414394
249,"MUUAEV","Pisgah High School","Pisgah","AL","Eagles","60 Metcalf Street","https://cdn2buckets-live-s3dfaaws-1mlao80q0xoqe.s3.amazonaws.com/f673874d-66c0-4e2b-a9a1-cda6c796d7e9?AWSAccessKeyId=AKIAIUQNYZUJLIOKKJ3A&Expires=1801043964&Signature=9m92YGWbvN2ZLgPiUceYXLa03xs%3D",4,6,0.4,0.491071428571429,0.498347107438017,0.456461776859504
250,"D63DSX","Weaver High School","Weaver","AL","Bearcats","917 Clairmont Drive","https://cdn2buckets-live-s3dfaaws-1mlao80q0xoqe.s3.amazonaws.com/600044d5-3853-4ee4-b094-0b1ef708a511?AWSAccessKeyId=AKIAIUQNYZUJLIOKKJ3A&Expires=1801043965&Signature=6YjhcdNcb%2BVkmwzuvAC1EVEsU2w%3D",8,12,0.4,0.492700729927007,0.495594713656388,0.456343933888549
251,"GYN3NW","Percy Julian High School","Montgomery","AL","Phoenix","225 Ann Street","https://cdn2buckets-live-s3dfaaws-1mlao80q0xoqe.s3.amazonaws.com/863428db-0f29-4847-c97d-d7cd497417bf?AWSAccessKeyId=AKIAIUQNYZUJLIOKKJ3A&Expires=1801043964&Signature=618%2FE%2FXI0FxBszgeTu2HnKpKZHk%3D",7,11,0.388888888888889,0.495575221238938,0.498392282958199,0.453604953728734
252,"328W2S","Elkmont High School","Elkmont","AL","Red Devils","25630 Evans Ave.","https://cdn2buckets-live-s3dfaaws-1mlao80q0xoqe.s3.amazonaws.com/71387640-bc85-443e-cace-3a960a7059df?AWSAccessKeyId=AKIAIUQNYZUJLIOKKJ3A&Expires=1801043964&Signature=K%2Ft4F5cK1IHbqwNkLu2%2FHEL62fM%3D",7,11,0.388888888888889,0.492890995260663,0.497933884297521,0.452550874971168
253,"37JNNB","Robertsdale High School","Robertsdale","AL","Golden Bears","1 Golden Bear Dr","https://cdn2buckets-live-s3dfaaws-1mlao80q0xoqe.s3.amazonaws.com/26999825-af33-4a57-cb33-c780f421a182?AWSAccessKeyId=AKIAIUQNYZUJLIOKKJ3A&Expires=1801043965&Signature=RoHY8feKPKsr%2FW8IbBJmsxHZS%2Fo%3D",5,6,0.384615384615385,0.494623655913978,0.498224852071006,0.451520646433798
254,"3VGVSE","Tharptown High School","Russellville","AL","Wildcats","255 Highway 80","https://cdn2buckets-live-s3dfaaws-1mlao80q0xoqe.s3.amazonaws.com/4322a3a6-7d15-44dc-a940-4911a764ce6f?AWSAccessKeyId=AKIAIUQNYZUJLIOKKJ3A&Expires=1801043965&Signature=3JFUee2SFe5mu1%2Bjl9Npk9bQ5OY%3D",5,8,0.384615384615385,0.49438202247191,0.496974935177182,0.451123595505618
255,"3M7UAH","Susan Moore High School","Blountsville","AL","Bulldogs","4040 Susan Moore Rd","https://cdn2buckets-live-s3dfaaws-1mlao80q0xoqe.s3.amazonaws.com/7c7e85cc-5a28-48ce-afe8-1f1ad0178cab?AWSAccessKeyId=AKIAIUQNYZUJLIOKKJ3A&Expires=1801043965&Signature=fv8K0li0DtMHhUdKFVWKLhFjuO4%3D",5,8,0.384615384615385,0.49402390438247,0.496842105263158,0.450965046695808
256,"QDXR7Z","St. Michael Catholic High School","Fairhope","AL","Cardinal","11732 St. Michael Way","https://cdn2buckets-live-s3dfaaws-1mlao80q0xoqe.s3.amazonaws.com/346d4d15-8a2d-4d13-993f-043420cd9387?AWSAccessKeyId=AKIAIUQNYZUJLIOKKJ3A&Expires=1801043965&Signature=4G6T7HJ43kI2icrJJ7ZJzS%2FAK%2F4%3D",5,8,0.384615384615385,0.493150684931507,0.497360703812317,0.45078906952526
257,"42XLF4","Abbeville High School","Abbeville","AL",NA,"411 Graball Cutoff ","https://cdn2buckets-live-s3dfaaws-1mlao80q0xoqe.s3.amazonaws.com/68902448-a206-407e-9ea6-4508b440b072?AWSAccessKeyId=AKIAIUQNYZUJLIOKKJ3A&Expires=1801043963&Signature=TyTOCVz02SbBYy43lawzBQq8Mrc%3D",5,9,0.384615384615385,0.489451476793249,0.498249708284714,0.44971659779497
258,"B6VHJK","Columbia High School","Huntsville","AL",NA,"300 Explorer Blvd","https://cdn2buckets-live-s3dfaaws-1mlao80q0xoqe.s3.amazonaws.com/591c338c-05b7-45d4-f981-cfaefe55a669?AWSAccessKeyId=AKIAIUQNYZUJLIOKKJ3A&Expires=1801043964&Signature=HB1Ze9dhwDVUKCZWfsFYHP5OEAg%3D",8,13,0.380952380952381,0.492753623188406,0.498192044997991,0.449392731746392
259,"FMLFGY","Oak Grove High School","Bessemer","AL","Tigers","9494 Oak Grove Parkway","https://cdn2buckets-live-s3dfaaws-1mlao80q0xoqe.s3.amazonaws.com/a3a562bc-d77d-46ea-cece-29e6109c9997?AWSAccessKeyId=AKIAIUQNYZUJLIOKKJ3A&Expires=1801043964&Signature=Xy2VJw3EsXNLcDaDhawDdh4WBM8%3D",7,12,0.368421052631579,0.490196078431373,0.497898356897211,0.443411637727915
260,"SCA85A","Alabama Aerospace & Aviation High School","Bessemer","AL","Jets","1414 2nd Ave N","https://cdn2buckets-live-s3dfaaws-1mlao80q0xoqe.s3.amazonaws.com/f90695de-3a53-4cf8-e122-44867ef7fe01?AWSAccessKeyId=AKIAIUQNYZUJLIOKKJ3A&Expires=1801043963&Signature=%2BErgaRmpYpQwoPOpSmZAmfByBKM%3D",4,7,0.363636363636364,0.494423791821561,0.498754359740907,0.443191462527319
261,"YBWRRJ","Central High School of Clay County","Lineville","AL","Volunteers","1 Bob Riley Dr","https://cdn2buckets-live-s3dfaaws-1mlao80q0xoqe.s3.amazonaws.com/ca8b6c65-e0d7-45ef-96ce-4b21508c47dc?AWSAccessKeyId=AKIAIUQNYZUJLIOKKJ3A&Expires=1801043964&Signature=qQ%2BUwqQNTdK326Vx2SoiRlo%2Bc8o%3D",5,8,0.357142857142857,0.5,0.499402628434886,0.442707799965864
262,"VARS2E","Citronelle High School","Citronelle","AL","Wildcat","8200 Lebaron Ave.","https://cdn2buckets-live-s3dfaaws-1mlao80q0xoqe.s3.amazonaws.com/cb0df446-7c2a-4a7c-a880-c5fdf4bd7e9a?AWSAccessKeyId=AKIAIUQNYZUJLIOKKJ3A&Expires=1801043964&Signature=Qi%2F5%2BG3N6I7fE5yzj6Vs6iX8CSI%3D",4,7,0.363636363636364,0.493927125506073,0.496899911426041,0.442554017238181
263,"6QH22H","Clarke County High School","Grove Hill","AL","Bulldog","P O Box 700","https://cdn2buckets-live-s3dfaaws-1mlao80q0xoqe.s3.amazonaws.com/666009f7-d4de-4899-d5fb-b4113f61672d?AWSAccessKeyId=AKIAIUQNYZUJLIOKKJ3A&Expires=1801043964&Signature=LU0HdrhmikDfXbpICjt%2BLnyQJM8%3D",4,7,0.363636363636364,0.492682926829268,0.495552731893266,0.441781752818106
264,"6D6XMT","Excel High School","Excel","AL","Panther","P.O. Box 429","https://cdn2buckets-live-s3dfaaws-1mlao80q0xoqe.s3.amazonaws.com/f39699e0-6b59-4897-f446-4f7b37cf1d3b?AWSAccessKeyId=AKIAIUQNYZUJLIOKKJ3A&Expires=1801043964&Signature=U4tzri9iW2fyIvGXX3zSEbTRMQk%3D",4,7,0.363636363636364,0.490445859872611,0.497737556561086,0.441544985550231
265,"W5EU77","Crossville High School","Crossville","AL","Lions","5405 County Road 28","https://cdn2buckets-live-s3dfaaws-1mlao80q0xoqe.s3.amazonaws.com/7fbf774c-4ded-42af-894c-09520d252bb8?AWSAccessKeyId=AKIAIUQNYZUJLIOKKJ3A&Expires=1801043964&Signature=pKKySUwyJSgxWA1F8MtuyC3Zj%2FY%3D",8,14,0.363636363636364,0.489847715736041,0.496890547263682,0.44112388277808
266,"MULQW8","Pleasant Grove High School","Pleasant Grove","AL","Spartans","100 Spartan Drive","https://cdn2buckets-live-s3dfaaws-1mlao80q0xoqe.s3.amazonaws.com/db01fdfa-754e-49a9-fa4a-ed748a6f582c?AWSAccessKeyId=AKIAIUQNYZUJLIOKKJ3A&Expires=1801043964&Signature=i%2BJ8Db%2B6e8nSzuMkQdsc40nBvy0%3D",5,9,0.357142857142857,0.494818652849741,0.498656816655473,0.440707875518421
267,"XFEZPT","Good Hope High School","Cullman","AL","Raider","210 Good Hope School Rd","https://cdn2buckets-live-s3dfaaws-1mlao80q0xoqe.s3.amazonaws.com/231b0404-1b82-4122-adec-58adc7945066?AWSAccessKeyId=AKIAIUQNYZUJLIOKKJ3A&Expires=1801043964&Signature=3bkkH173R129oRPalkA9OcFpSEQ%3D",5,9,0.357142857142857,0.494318181818182,0.498416050686378,0.440472519165101
268,"ES5KPN","North Jackson High School","Stevenson","AL","Chiefs","45549 Alabama Highway 277","https://cdn2buckets-live-s3dfaaws-1mlao80q0xoqe.s3.amazonaws.com/1b5b5201-f1eb-4123-baf2-3c415dfab613?AWSAccessKeyId=AKIAIUQNYZUJLIOKKJ3A&Expires=1801043964&Signature=aCpS1%2BVa4XnTRR4GAIU373J6h5g%3D",5,9,0.357142857142857,0.494117647058824,0.497695852534562,0.440222282461372
269,"7JMBFE","Center Point High School","Center Point","AL","Eagles","1000 Eagle Drive","https://cdn2buckets-live-s3dfaaws-1mlao80q0xoqe.s3.amazonaws.com/6e5e91ef-0b6b-4286-85e5-ee6ef9156e38?AWSAccessKeyId=AKIAIUQNYZUJLIOKKJ3A&Expires=1801043964&Signature=%2F1UViphUgurKwiTrb4or7TidZoA%3D",5,9,0.357142857142857,0.493788819875776,0.497824194952132,0.440139278551698
270,"JYY8CN","Talladega High School","Talladega","AL","Tiger","1177 McMillan Street","https://cdn2buckets-live-s3dfaaws-1mlao80q0xoqe.s3.amazonaws.com/bd1acf6b-adbc-467c-d76a-f8f6cd988564?AWSAccessKeyId=AKIAIUQNYZUJLIOKKJ3A&Expires=1801043965&Signature=X6H3X%2BrnnNoeY%2FKgW36z9zrFb3o%3D",6,11,0.352941176470588,0.48948948948949,0.497872340425532,0.43696587701594
271,"VAHZBA","Theodore High School","Theodore","AL","Bobcat","6201 Swedetown Road","https://cdn2buckets-live-s3dfaaws-1mlao80q0xoqe.s3.amazonaws.com/1db8af57-dac2-4640-fadc-46d112c570e1?AWSAccessKeyId=AKIAIUQNYZUJLIOKKJ3A&Expires=1801043965&Signature=czPLbS4V1JuPwKktjq%2BOVgFouKo%3D",6,10,0.352941176470588,0.487544483985765,0.49667616334283,0.435986080818961
272,"CXKZ4H","Fayetteville High School","Sylacauga","AL","Wolves","Fayetteville School","https://cdn2buckets-live-s3dfaaws-1mlao80q0xoqe.s3.amazonaws.com/707f6844-c9cd-4848-83d7-f0843cf59f7d?AWSAccessKeyId=AKIAIUQNYZUJLIOKKJ3A&Expires=1801043964&Signature=DEJnHypxTCo2hwkIslLTe6wFZb0%3D",6,11,0.352941176470588,0.48559670781893,0.496760259179266,0.435325383119677
273,"3XSZV4","Decatur High School","Decatur","AL","Red Raiders","910 Somerville Road Southeast, Decatur, AL 35601","https://cdn2buckets-live-s3dfaaws-1mlao80q0xoqe.s3.amazonaws.com/ed792048-3eae-40ad-a383-fedf2d29542c?AWSAccessKeyId=AKIAIUQNYZUJLIOKKJ3A&Expires=1801043964&Signature=lYBSoAXPdjWmt1nEXQfgDA0JB%2FE%3D",8,16,0.333333333333333,0.493730407523511,0.497292418772563,0.430462080659703
274,"E9KKQY","Fairview High School","Cullman","AL","Aggies","841 Welcome Rd","https://cdn2buckets-live-s3dfaaws-1mlao80q0xoqe.s3.amazonaws.com/779bd0e9-8fc9-4743-86a0-19204119c7c1?AWSAccessKeyId=AKIAIUQNYZUJLIOKKJ3A&Expires=1801043964&Signature=zQSdYn8HzluYbK3AZI89TZokF34%3D",7,14,0.333333333333333,0.492631578947368,0.49844344517468,0.430365247258582
275,"5QMJFC","Lamar County High School","Vernon","AL","Bulldogs",NA,"https://cdn2buckets-live-s3dfaaws-1mlao80q0xoqe.s3.amazonaws.com/877a62b8-6263-479f-df17-710c393afac2?AWSAccessKeyId=AKIAIUQNYZUJLIOKKJ3A&Expires=1801043964&Signature=N9JajD0nCzQesRsdTd9ORn27Mc0%3D",4,8,0.333333333333333,0.493333333333333,0.497101449275362,0.430275362318841
276,"YBYZNK","Fayette County High School","Fayette","AL","Tigers","202 Tiger Drive","https://cdn2buckets-live-s3dfaaws-1mlao80q0xoqe.s3.amazonaws.com/1cdbe9d1-5005-425a-cb0e-a78ccc4e0981?AWSAccessKeyId=AKIAIUQNYZUJLIOKKJ3A&Expires=1801043964&Signature=vt4ck%2BAgUjs4jpujqyDZCn8vZDs%3D",4,8,0.333333333333333,0.490566037735849,0.498181818181818,0.429576901086335
277,"K4N8VV","Phillips High School","Bear Creek","AL","Bears",NA,"https://cdn2buckets-live-s3dfaaws-1mlao80q0xoqe.s3.amazonaws.com/e1de4f8f-5597-4c02-a20d-5f381e03e9f1?AWSAccessKeyId=AKIAIUQNYZUJLIOKKJ3A&Expires=1801043964&Signature=BD2GSv8%2BFcrhy9PxbeMi6dQX0Zk%3D",7,14,0.333333333333333,0.491315136476427,0.496463022508039,0.429409386727092
278,"CZ9ZZ9","Satsuma High School","Satsuma","AL","Gators","1 Gator Circle","https://cdn2buckets-live-s3dfaaws-1mlao80q0xoqe.s3.amazonaws.com/8da1dd68-35f8-4cc9-d971-a42c7f4f72e5?AWSAccessKeyId=AKIAIUQNYZUJLIOKKJ3A&Expires=1801043965&Signature=gjLgLSZ0s3awY5mNWct4%2BeJAjTM%3D",5,9,0.333333333333333,0.49025069637883,0.497233201581028,0.429229377461181
279,"5BNXKE","Pike Liberal Arts School","Troy","AL","Patriots","P.O. Drawer 329","https://cdn2buckets-live-s3dfaaws-1mlao80q0xoqe.s3.amazonaws.com/2bf064b7-f7e9-47d5-a0c3-7a2ba5657464?AWSAccessKeyId=AKIAIUQNYZUJLIOKKJ3A&Expires=1801043964&Signature=UUNar5Cpa1REsCRMu%2FeMuFE%2BcyQ%3D",5,10,0.333333333333333,0.488673139158576,0.497678737233055,0.428788616347099
280,"98NGSJ","Florence High School","Florence","AL","Falcon","1201 Bradshaw Drive","https://cdn2buckets-live-s3dfaaws-1mlao80q0xoqe.s3.amazonaws.com/ac4271cc-18de-4211-f32f-6e4f4776ab04?AWSAccessKeyId=AKIAIUQNYZUJLIOKKJ3A&Expires=1801043964&Signature=XZuMpYougEqJtNf2MyevbLCOxxs%3D",8,17,0.32,0.49238578680203,0.498104102033781,0.424861050889156
281,"2M7V72","Grissom High School","Huntsville","AL","Tigers","1001 Haysland Road","https://cdn2buckets-live-s3dfaaws-1mlao80q0xoqe.s3.amazonaws.com/034d96f5-327a-4534-fd59-ebd45bd6b77c?AWSAccessKeyId=AKIAIUQNYZUJLIOKKJ3A&Expires=1801043964&Signature=LTpaNt%2BPJIBpXqH3NdoE6RemhwU%3D",6,13,0.315789473684211,0.491803278688525,0.49867374005305,0.42311537202793
282,"TL778G","Skyline High School","Scottsboro","AL","Vikings","897 County Road 25","https://cdn2buckets-live-s3dfaaws-1mlao80q0xoqe.s3.amazonaws.com/d5bf53e5-a428-478a-b71c-f2b9f016b4d3?AWSAccessKeyId=AKIAIUQNYZUJLIOKKJ3A&Expires=1801043965&Signature=MJr4xbWFg%2FIWN4oV2g1p69JT8sY%3D",6,12,0.315789473684211,0.490514905149051,0.498222447943118,0.422551618261632
283,"2JW45T","Scottsboro High School","Scottsboro","AL","Wildcat","25053 John T. Reid Parkway","https://cdn2buckets-live-s3dfaaws-1mlao80q0xoqe.s3.amazonaws.com/5f4e370e-28ce-4dcc-9c0d-2d5a0707b7ec?AWSAccessKeyId=AKIAIUQNYZUJLIOKKJ3A&Expires=1801043965&Signature=HwMYbTZsTB5cAoezz5yQnyj73UM%3D",5,11,0.3125,0.490521327014218,0.497968855788761,0.421174678402166
284,"6WY5WH","The Donoho School","Anniston","AL","Falcons","2501 Henry Rd","https://cdn2buckets-live-s3dfaaws-1mlao80q0xoqe.s3.amazonaws.com/8703dfa2-2e71-422c-cab7-80584566ad29?AWSAccessKeyId=AKIAIUQNYZUJLIOKKJ3A&Expires=1801043965&Signature=rtHscKb9Cee0X7EsqrrGc%2Bwg4YE%3D",5,11,0.3125,0.48936170212766,0.496993987975952,0.420525092738669
285,"Z5T82N","Alabama Christian Academy","Montgomery","AL","Eagles","4700 Wares Ferry Road","https://cdn2buckets-live-s3dfaaws-1mlao80q0xoqe.s3.amazonaws.com/bd755ae2-a6bb-480b-87ae-1f10f24d5bc9?AWSAccessKeyId=AKIAIUQNYZUJLIOKKJ3A&Expires=1801043963&Signature=37iQKq%2BBZU%2BfFCczYuSAr%2FJdEB8%3D",5,11,0.3125,0.486754966887417,0.498194945848375,0.41991297487269
286,"EFLLEL","LeFlore Magnet High School	","Mobile","AL","Rattlers","700 Donald Street","https://cdn2buckets-live-s3dfaaws-1mlao80q0xoqe.s3.amazonaws.com/474f7f9c-ef29-4875-91ee-4aba7c0ed25b?AWSAccessKeyId=AKIAIUQNYZUJLIOKKJ3A&Expires=1801043964&Signature=dMyEbwthyo6zCQQa%2FeUqu9AztaE%3D",4,9,0.307692307692308,0.492447129909366,0.49753154141525,0.419816303899013
287,"CZQC6A","Shelby County High School","Columbiana","AL","Wildcats","101 Washington St.","https://cdn2buckets-live-s3dfaaws-1mlao80q0xoqe.s3.amazonaws.com/a3f41dc1-b6a9-4b59-dc60-c84242625970?AWSAccessKeyId=AKIAIUQNYZUJLIOKKJ3A&Expires=1801043965&Signature=67Z5%2B43OBwFsvDoXnkEBx1PAwps%3D",4,9,0.307692307692308,0.490666666666667,0.498606133014735,0.41946178966394
288,"UXTFHV","Chelsea High School","Chelsea","AL",NA,"10510 HWY 11","https://cdn2buckets-live-s3dfaaws-1mlao80q0xoqe.s3.amazonaws.com/19516aa5-2448-4b20-ecf4-5f37bd7a93a6?AWSAccessKeyId=AKIAIUQNYZUJLIOKKJ3A&Expires=1801043964&Signature=CRtod39kZbJQ%2F2ivTL40c2MczOA%3D",7,16,0.304347826086957,0.492281303602058,0.497927956646478,0.418519575857122
289,"8T3FZ3","B.B. Comer High School","Sylacauga","AL","Tigers","801 Seminole Ave","https://cdn2buckets-live-s3dfaaws-1mlao80q0xoqe.s3.amazonaws.com/7cec1cf9-884f-4ed8-fe93-393f67e2a9d8?AWSAccessKeyId=AKIAIUQNYZUJLIOKKJ3A&Expires=1801043963&Signature=6JsmpNqqiY3BUoC6Fy0DlLBCw4c%3D",4,9,0.307692307692308,0.488448844884488,0.49738219895288,0.418379568524714
290,"J6ABBY","Houston County High School","Columbia","AL","Lions","200 West Church Street","https://cdn2buckets-live-s3dfaaws-1mlao80q0xoqe.s3.amazonaws.com/4b41b808-8f44-4164-f050-596e7c738fa0?AWSAccessKeyId=AKIAIUQNYZUJLIOKKJ3A&Expires=1801043964&Signature=HDJdnaqdnGF0Qm6I8dCh%2Fnb8qNQ%3D",4,9,0.307692307692308,0.48605577689243,0.49814585908529,0.417732909760596
291,"UD6SVK","Geneva County High School","Hartford","AL","Bulldog","301 West Lily Street","https://cdn2buckets-live-s3dfaaws-1mlao80q0xoqe.s3.amazonaws.com/bf0a0141-412f-4a4f-e01d-de1b29f562de?AWSAccessKeyId=AKIAIUQNYZUJLIOKKJ3A&Expires=1801043964&Signature=XoKc%2BmtiDOnFjlz9ZbmV8CvcOT0%3D",4,9,0.307692307692308,0.48605577689243,0.496589358799454,0.417343784689137
292,"P6THE9","Faith Academy","Mobile","AL","Rams","8650 Tanner Williams Road","https://cdn2buckets-live-s3dfaaws-1mlao80q0xoqe.s3.amazonaws.com/6497c120-d289-4cfb-e8c3-f4af6c3624da?AWSAccessKeyId=AKIAIUQNYZUJLIOKKJ3A&Expires=1801043964&Signature=xXgKmysUp%2FW9UOwZMkVSgR37ucg%3D",6,14,0.3,0.488425925925926,0.496365524402908,0.415040455174801
293,"PYPWLJ","Baker High School","Mobile","AL","Hornet","8901 Airport Blvd.","https://cdn2buckets-live-s3dfaaws-1mlao80q0xoqe.s3.amazonaws.com/8db55ac1-e1c6-461c-b7a2-ee364da1d37f?AWSAccessKeyId=AKIAIUQNYZUJLIOKKJ3A&Expires=1801043963&Signature=CENtwWXynHJ%2FxsO36WbDpBl%2F2%2BI%3D",6,14,0.3,0.487113402061856,0.49667994687915,0.414659677441437
294,"Y5WX4G","Sulligent High School","Sulligent","AL","Blue Devils","P.O. Box 909","https://cdn2buckets-live-s3dfaaws-1mlao80q0xoqe.s3.amazonaws.com/3ce4eb1f-9cdf-43b1-af21-a7d09528dc93?AWSAccessKeyId=AKIAIUQNYZUJLIOKKJ3A&Expires=1801043965&Signature=xxGE7BaCD5XKXnYThLNVmv4zF5A%3D",5,12,0.294117647058824,0.490196078431373,0.496952908587258,0.413453913421324
295,"5DDXAE","Prattville High School","Prattville","AL","Lions","1315 Upper Kingston Road","https://cdn2buckets-live-s3dfaaws-1mlao80q0xoqe.s3.amazonaws.com/16d31b84-51c6-4afa-cbc4-c5442d53f16a?AWSAccessKeyId=AKIAIUQNYZUJLIOKKJ3A&Expires=1801043964&Signature=pVd%2FK0lKCMuac1u6HDFc7RwljsE%3D",5,12,0.294117647058824,0.489051094890511,0.497563136907399,0.413205726262058
296,"9ZFZLA","Saint James School","Montgomery","AL","Trojans","6010 Vaughn Road","https://cdn2buckets-live-s3dfaaws-1mlao80q0xoqe.s3.amazonaws.com/568bd349-d724-4e04-f742-da4185711c1b?AWSAccessKeyId=AKIAIUQNYZUJLIOKKJ3A&Expires=1801043965&Signature=XoUdtK4e3FsnqTcHmHEyOaGqcYg%3D",4,10,0.285714285714286,0.496875,0.497065727699531,0.412458396210597
297,"6G6ENE","Vigor High School","Prichard","AL","Wolves","913 North Wilson Ave","https://cdn2buckets-live-s3dfaaws-1mlao80q0xoqe.s3.amazonaws.com/371d9dbe-4d42-4088-fe99-8aae82f37477?AWSAccessKeyId=AKIAIUQNYZUJLIOKKJ3A&Expires=1801043965&Signature=YSn9JzjkoFvMu7Iv0ggXrtOhMoc%3D",4,10,0.285714285714286,0.48993288590604,0.496153846153846,0.40980068589129
298,"1L8YCV","Hanceville High School","Hanceville","AL","Bulldog","801 Commercial ST","https://cdn2buckets-live-s3dfaaws-1mlao80q0xoqe.s3.amazonaws.com/db2bf0d0-fe43-43ed-dbd2-3a7b7d818b2b?AWSAccessKeyId=AKIAIUQNYZUJLIOKKJ3A&Expires=1801043964&Signature=FAd89S1KnKGZqNxyNGG%2FwN8tgBI%3D",5,13,0.277777777777778,0.488700564971751,0.497357293868922,0.406495632318455
299,"Z3LDG5","Hueytown High School","Hueytown","AL","Gopher","4881 15th Street Road","https://cdn2buckets-live-s3dfaaws-1mlao80q0xoqe.s3.amazonaws.com/b2a90998-e358-4be1-eeab-269da8c1b9f7?AWSAccessKeyId=AKIAIUQNYZUJLIOKKJ3A&Expires=1801043964&Signature=1nYd9cw9KVBduSDcBPsCyT1lf8Y%3D",6,16,0.272727272727273,0.489583333333333,0.49770942408377,0.404872431778518
300,"YUP16U","Johnson Abernathy Graetz (JAG) High School","Montgomery","AL","Jaguars","3420 Carter Hill Road","https://cdn2buckets-live-s3dfaaws-1mlao80q0xoqe.s3.amazonaws.com/6f50dab2-1d64-4db6-b8f8-e9000eeb7372?AWSAccessKeyId=AKIAIUQNYZUJLIOKKJ3A&Expires=1801043964&Signature=6nPY6bu93P0PY7FwxrwomHVm6wk%3D",4,11,0.266666666666667,0.490463215258856,0.498349834983498,0.402916250753141
301,"ZU54PW","Linden High School","Linden","AL","Patriots","321 N Main St ","https://cdn2buckets-live-s3dfaaws-1mlao80q0xoqe.s3.amazonaws.com/c1eea4fe-a30e-41b3-c844-3872dea778da?AWSAccessKeyId=AKIAIUQNYZUJLIOKKJ3A&Expires=1801043964&Signature=A6lUFy5WyBygbTJbGNrDbSJWQ9c%3D",3,8,0.272727272727273,0.482993197278912,0.495274102079395,0.401957053658377
302,"8CDY4M","Stanhope Elmore High School","Millbrook","AL","Mustangs","4300 Main St","https://cdn2buckets-live-s3dfaaws-1mlao80q0xoqe.s3.amazonaws.com/8afd312b-9c0f-4588-d2c8-a2c88ae76e03?AWSAccessKeyId=AKIAIUQNYZUJLIOKKJ3A&Expires=1801043965&Signature=zlD3EVbg8Noa%2B3BqQZpTpF8c2Xg%3D",5,14,0.263157894736842,0.489260143198091,0.497763318422123,0.400945037619599
303,"E4BGL3","Spring Garden High School","Spring Garden","AL","Panthers","PO Box 31","https://cdn2buckets-live-s3dfaaws-1mlao80q0xoqe.s3.amazonaws.com/10642796-374c-4569-fa8f-a36135ee5aa4?AWSAccessKeyId=AKIAIUQNYZUJLIOKKJ3A&Expires=1801043965&Signature=VflB8oYrkfgo0RYs9NDD4Q7%2Fz2U%3D",4,11,0.266666666666667,0.486590038314176,0.494912118408881,0.400701209678849
304,"6XDBFW","Cornerstone Schools Of Alabama","Birmingham","AL",NA,"959 Huffman Rd","https://cdn2buckets-live-s3dfaaws-1mlao80q0xoqe.s3.amazonaws.com/3e69993a-5864-4d4f-b977-0e536b812f13?AWSAccessKeyId=AKIAIUQNYZUJLIOKKJ3A&Expires=1801043964&Signature=Mmx61fT3%2F3DnQDIfkETFqZOuf4k%3D",4,11,0.266666666666667,0.481848184818482,0.497186700767263,0.399610206544951
305,"QAQPMS","Clements High School ","Athens","AL","Colts","7730 US-72","https://cdn2buckets-live-s3dfaaws-1mlao80q0xoqe.s3.amazonaws.com/80692b9d-4a90-4473-a95e-c99220d629b8?AWSAccessKeyId=AKIAIUQNYZUJLIOKKJ3A&Expires=1801043964&Signature=y20dHTaQM56h2hM4iaslKcYZs%2BE%3D",6,17,0.25,0.488970588235294,0.495967741935484,0.395131641366224
306,"EER776","West Blocton High School","West Blocton","AL","Tiger","4734 Truman Aldrich Pkwy","https://cdn2buckets-live-s3dfaaws-1mlao80q0xoqe.s3.amazonaws.com/771a4607-f8e5-4e5e-e08d-feb92563fdd8?AWSAccessKeyId=AKIAIUQNYZUJLIOKKJ3A&Expires=1801043965&Signature=bREPONI4zo7i8w8AQSXILbXrYhI%3D",5,15,0.25,0.488425925925926,0.496546431312356,0.395085681902163
307,"ZWACWY","Demopolis High School","Demopolis","AL","Tigers","701 Highway 80 West","https://cdn2buckets-live-s3dfaaws-1mlao80q0xoqe.s3.amazonaws.com/945062d5-f8d0-4088-ca11-c193ebe76d84?AWSAccessKeyId=AKIAIUQNYZUJLIOKKJ3A&Expires=1801043964&Signature=eFpQ1KgljqUI%2FVKpqLdd0IzFXxM%3D",3,9,0.25,0.486842105263158,0.49718574108818,0.39469117211415
308,"HNBYCQ","Isabella High School","Maplesville","AL","Mustangs","11338 Co Rd 15","https://cdn2buckets-live-s3dfaaws-1mlao80q0xoqe.s3.amazonaws.com/cb24af1c-f7b4-432b-8ef4-adc87388fca3?AWSAccessKeyId=AKIAIUQNYZUJLIOKKJ3A&Expires=1801043964&Signature=S0deih0U%2BGy53XBpYbhxD53Nsd0%3D",3,9,0.25,0.4875,0.495461422087746,0.394490355521936
309,"43SUDS","Danville High School","Danville","AL","Hawks","9235 Danville Rd","https://cdn2buckets-live-s3dfaaws-1mlao80q0xoqe.s3.amazonaws.com/2cfb5104-5757-4c65-99e3-7d1a6a12878e?AWSAccessKeyId=AKIAIUQNYZUJLIOKKJ3A&Expires=1801043964&Signature=GIK4y9QoHsSUmWX3wKYrKXuBP0I%3D",5,15,0.25,0.486363636363636,0.496660305343511,0.394392349063151
310,"3SVM9D","Brindlee Mountain High School","Guntersville","AL","Lions","994 Scant City Rd.","https://cdn2buckets-live-s3dfaaws-1mlao80q0xoqe.s3.amazonaws.com/901c0b6c-ee96-49f9-886f-f629ed2d42e7?AWSAccessKeyId=AKIAIUQNYZUJLIOKKJ3A&Expires=1801043963&Signature=pSgnE9lJf8UAuxQalGwM%2FS4PCEQ%3D",5,15,0.25,0.485981308411215,0.496365524402908,0.394184839044652
311,"RGKHUP","Elberta High School","Elberta","AL","Warriors","13355 Main Street","https://cdn2buckets-live-s3dfaaws-1mlao80q0xoqe.s3.amazonaws.com/fa0c25a7-8e5d-4f31-b184-9232f24b776f?AWSAccessKeyId=AKIAIUQNYZUJLIOKKJ3A&Expires=1801043964&Signature=6nsVYctQGKGwRc7p9TbKWLstajE%3D",5,15,0.25,0.479768786127168,0.495720399429387,0.391849175001855
312,"QG6Q6X","Straughn High School","Andalusia","AL","Tigers","29448 Straughn School Road","https://cdn2buckets-live-s3dfaaws-1mlao80q0xoqe.s3.amazonaws.com/4e26dadb-c4d5-41bc-97d9-306eab980648?AWSAccessKeyId=AKIAIUQNYZUJLIOKKJ3A&Expires=1801043965&Signature=xYxGKCKUQtmfPS18CnmypOiJg%2B4%3D",5,15,0.25,0.478571428571429,0.491847826086957,0.390461956521739
313,"92YK4D","Etowah High School","Attalla","AL","Blue Devils","201 Case Ave SW","https://cdn2buckets-live-s3dfaaws-1mlao80q0xoqe.s3.amazonaws.com/86e02453-b382-4b79-c03c-c3ead51092a3?AWSAccessKeyId=AKIAIUQNYZUJLIOKKJ3A&Expires=1801043964&Signature=od9xhQtj9PkQSSxFstifydLHk0E%3D",5,16,0.238095238095238,0.487912087912088,0.496240601503759,0.390067476383266
314,"FAF46B","Mortimer Jordan High School","Kimberly","AL","Blue Devil","1920 Blue Devil Drive","https://cdn2buckets-live-s3dfaaws-1mlao80q0xoqe.s3.amazonaws.com/d18216da-315e-4bb1-9385-76ecec40288f?AWSAccessKeyId=AKIAIUQNYZUJLIOKKJ3A&Expires=1801043964&Signature=V6vzb1m7fAGE37ODlvz4I6apGHw%3D",4,13,0.235294117647059,0.489461358313817,0.498000727008361,0.38992930422075
315,"97LVA2","Shoals Christian School","Florence","AL","Flame","301 Heathrow Drive","https://cdn2buckets-live-s3dfaaws-1mlao80q0xoqe.s3.amazonaws.com/ea7365c4-09b9-43b8-e450-85f07499c5d0?AWSAccessKeyId=AKIAIUQNYZUJLIOKKJ3A&Expires=1801043965&Signature=wZbF4EPKPJg53cmvBNtg5GgtB5w%3D",5,16,0.238095238095238,0.484848484848485,0.494654312188168,0.388598642982107
316,"469AE7","Elmore County High School","Eclectic","AL","Panthers","155 North College Ave","https://cdn2buckets-live-s3dfaaws-1mlao80q0xoqe.s3.amazonaws.com/6243b7a8-835a-4f43-eb19-8c2746d5cc1e?AWSAccessKeyId=AKIAIUQNYZUJLIOKKJ3A&Expires=1801043964&Signature=fVGRsBU%2FggCu20QPUNvswJQuyog%3D",3,10,0.230769230769231,0.488188976377953,0.497485139460448,0.387545118905088
317,"HNGND2","Rogers High School","Florence","AL","Pirates","300 Rogers Lane","https://cdn2buckets-live-s3dfaaws-1mlao80q0xoqe.s3.amazonaws.com/57119f4b-39c1-440a-a5d3-66956b3a9a19?AWSAccessKeyId=AKIAIUQNYZUJLIOKKJ3A&Expires=1801043965&Signature=gTqgP3Q0TtYMihuhQ85o5i5N5UM%3D",4,14,0.222222222222222,0.486363636363636,0.496617050067659,0.383270424133076
318,"9N69L7","Cherokee County High School","Centre","AL","Warriors","910 Warrior Drive","https://cdn2buckets-live-s3dfaaws-1mlao80q0xoqe.s3.amazonaws.com/2a51208d-4e00-488e-eec6-5de7a96ab173?AWSAccessKeyId=AKIAIUQNYZUJLIOKKJ3A&Expires=1801043964&Signature=%2FvGOJyGUcGaDhlEeR8shimM3nbg%3D",2,8,0.2,0.486111111111111,0.496197718631179,0.374188318546684
319,"PHUXRK","Woodville High School","Woodville","AL","Panthers","290 Co. Rd. 63","https://cdn2buckets-live-s3dfaaws-1mlao80q0xoqe.s3.amazonaws.com/d9c11198-ad12-49e4-c549-d7fd371d4694?AWSAccessKeyId=AKIAIUQNYZUJLIOKKJ3A&Expires=1801043965&Signature=YhwNMpBuiAXOUxedSjXO%2BLlZLlQ%3D",4,16,0.2,0.484581497797357,0.496071829405163,0.373621481580366
320,"WTSHQ6","G.W. Carver-Birmingham High School","Birmingham","AL","Rams","3900 24th Street North ","https://cdn2buckets-live-s3dfaaws-1mlao80q0xoqe.s3.amazonaws.com/8b36c1cd-9e73-4499-93aa-368ab4c42ffa?AWSAccessKeyId=AKIAIUQNYZUJLIOKKJ3A&Expires=1801043964&Signature=4yDUKShVc4oT6ZKY8wsy6gxuYvA%3D",2,8,0.2,0.482758620689655,0.497670807453416,0.373383219104733
321,"PFMHS2","Sweet Water High School","Sweet Water","AL","Bulldogs","440 Main St.","https://cdn2buckets-live-s3dfaaws-1mlao80q0xoqe.s3.amazonaws.com/eec9965e-fef5-46c4-fe9e-18520efe9217?AWSAccessKeyId=AKIAIUQNYZUJLIOKKJ3A&Expires=1801043965&Signature=y1j78RvK5StY450ViqSxfpVFQjA%3D",2,8,0.2,0.475,0.492227979274611,0.369306994818653
322,"GQT9C7","St. Luke's Episcopal School","Mobile","AL","Wildcats","1400 S University Blvd","https://cdn2buckets-live-s3dfaaws-1mlao80q0xoqe.s3.amazonaws.com/a0bda94a-6dea-4e78-f78c-f85e45cee932?AWSAccessKeyId=AKIAIUQNYZUJLIOKKJ3A&Expires=1801043965&Signature=861uwH%2BDtRlVr%2BQqiWkNWx7zbZw%3D",4,16,0.2,0.471631205673759,0.493794326241135,0.368519503546099
323,"7TBVJQ","Bessemer City High School","Bessemer","AL","Purple Tigers","4950 Premire Parkway","https://cdn2buckets-live-s3dfaaws-1mlao80q0xoqe.s3.amazonaws.com/9cc796a3-87a4-4ee1-bd2d-92a099057bc2?AWSAccessKeyId=AKIAIUQNYZUJLIOKKJ3A&Expires=1801043963&Signature=N2KOBSLvOscaR11qP8RPDSfQhFc%3D",2,9,0.181818181818182,0.487272727272727,0.49811320754717,0.36780102915952
324,"MY9T33","Cottage Hill Christian Academy","Mobile","AL","Warriors","7355 Creekwood Dr","https://cdn2buckets-live-s3dfaaws-1mlao80q0xoqe.s3.amazonaws.com/8f23018d-070f-49f0-97f3-bff753f9e24f?AWSAccessKeyId=AKIAIUQNYZUJLIOKKJ3A&Expires=1801043964&Signature=kJaw0u54IiqJ1kmmUnm4d6BIE8I%3D",2,9,0.181818181818182,0.487272727272727,0.495213228894691,0.3670760344964
325,"EMGFJN","Vina High School","Vina","AL","Red Devils","8250 Highway 23 ","https://cdn2buckets-live-s3dfaaws-1mlao80q0xoqe.s3.amazonaws.com/b620d81a-c52b-4a5f-d42a-8fb565cfabcc?AWSAccessKeyId=AKIAIUQNYZUJLIOKKJ3A&Expires=1801043965&Signature=2UiFhMq2RASit1sA%2Fkg%2F0NRqz6A%3D",3,13,0.1875,0.480392156862745,0.49469696969697,0.366811497326203
326,"MYPTR3","Vincent Middle High School","Vincent","AL","Yellow Jackets","42505 Hwy 25","https://cdn2buckets-live-s3dfaaws-1mlao80q0xoqe.s3.amazonaws.com/d250cd3d-2b9c-4b5b-ea09-1e06480eec72?AWSAccessKeyId=AKIAIUQNYZUJLIOKKJ3A&Expires=1801043965&Signature=QmQ5NH7h3qwEkhVn8qstYziQqTE%3D",3,13,0.1875,0.478260869565217,0.496067415730337,0.36640815828041
327,"G6GUPE","Red Level School","Red Level","AL","Tigers","28551 Barrow Rd.","https://cdn2buckets-live-s3dfaaws-1mlao80q0xoqe.s3.amazonaws.com/bcd13b76-a305-485c-9659-d209ea9e7ea4?AWSAccessKeyId=AKIAIUQNYZUJLIOKKJ3A&Expires=1801043965&Signature=%2FqkBFFoemHNmhtyDR5wuh1BRWgE%3D",3,13,0.1875,0.478632478632479,0.491549295774648,0.36540869146503
328,"SD3Y7H","Russellville High School","Russellville","AL","Golden Tigers","1865 Waterloo Road","https://cdn2buckets-live-s3dfaaws-1mlao80q0xoqe.s3.amazonaws.com/62c5ca7c-2a1a-4552-92fc-dea787dc1fd9?AWSAccessKeyId=AKIAIUQNYZUJLIOKKJ3A&Expires=1801043965&Signature=oxk7y1WDkXjA97RoNUuaeCSEDnk%3D",3,14,0.176470588235294,0.487058823529412,0.496834107218236,0.365267350333971
329,"LL9C8Q","Barbour County High School","Clayton","AL","Jaguar","165 Midway Street","https://cdn2buckets-live-s3dfaaws-1mlao80q0xoqe.s3.amazonaws.com/f4b54fe0-ab1e-470c-9181-cc15531054fd?AWSAccessKeyId=AKIAIUQNYZUJLIOKKJ3A&Expires=1801043963&Signature=Dx8xCoTrwiKM0iYiwMks%2Fa5OEzg%3D",2,9,0.181818181818182,0.479289940828402,0.495915985997666,0.36445774851663
330,"XK9ZDP","Tallassee High School","Tallassee","AL","Tigers","502 Barrnet Blvd","https://cdn2buckets-live-s3dfaaws-1mlao80q0xoqe.s3.amazonaws.com/9184380a-d0a9-4a2d-945d-a3be6bfccbc5?AWSAccessKeyId=AKIAIUQNYZUJLIOKKJ3A&Expires=1801043965&Signature=tTmXIWHY7BXlke2Pi20Y6JLXthc%3D",2,8,0.181818181818182,0.479289940828402,0.495660559305689,0.364393891843636
331,"3BX2YT","Verbena High School","Verbena","AL","Red Devils",NA,"https://cdn2buckets-live-s3dfaaws-1mlao80q0xoqe.s3.amazonaws.com/4b53769c-71cd-47f4-948f-c87694a9fd36?AWSAccessKeyId=AKIAIUQNYZUJLIOKKJ3A&Expires=1801043965&Signature=f6G%2F3oeHRBiAHctitJQPJkafghY%3D",2,9,0.181818181818182,0.477707006369427,0.493444576877235,0.363285869175881
332,"Z8FJH6","Curry High School","Jasper","AL","Yellow Jacket","155 Yellow Jacket Dr.","https://cdn2buckets-live-s3dfaaws-1mlao80q0xoqe.s3.amazonaws.com/40b386c8-4c47-4d34-d92a-9256f24f3de8?AWSAccessKeyId=AKIAIUQNYZUJLIOKKJ3A&Expires=1801043964&Signature=DX7hTVNd%2Bx3Gdi%2Bj0gy5HOe6bjA%3D",3,15,0.166666666666667,0.486301369863014,0.496842936069455,0.361082880136085
333,"8TF8MQ","Ragland High School","Ragland","AL","Purple Devils","1060 Main Street","https://cdn2buckets-live-s3dfaaws-1mlao80q0xoqe.s3.amazonaws.com/c7c8f8da-cbfc-42d7-e768-5136085abebc?AWSAccessKeyId=AKIAIUQNYZUJLIOKKJ3A&Expires=1801043964&Signature=cRuFOWJbdoZg%2F3kPCReqBUpHgPg%3D",2,10,0.166666666666667,0.484615384615385,0.496584699453552,0.360428226145439
334,"BWMMSN","Daleville High School","Daleville","AL","Warhawks","626 North Daleville Avenue","https://cdn2buckets-live-s3dfaaws-1mlao80q0xoqe.s3.amazonaws.com/988dbcff-933c-4bc4-9758-3ee8be94948c?AWSAccessKeyId=AKIAIUQNYZUJLIOKKJ3A&Expires=1801043964&Signature=SuFE5NfM5zgyprjggy3ZhPy999w%3D",2,10,0.166666666666667,0.483050847457627,0.495024875621891,0.359490682182309
335,"E56DJL","Elba High School","Elba","AL","Tiger","371 Tiger Dr.","https://cdn2buckets-live-s3dfaaws-1mlao80q0xoqe.s3.amazonaws.com/2222fb6c-f158-478e-8cc8-2122d665c846?AWSAccessKeyId=AKIAIUQNYZUJLIOKKJ3A&Expires=1801043964&Signature=wcYei9gHbYrC286x1fdhL6tb1Jg%3D",2,10,0.166666666666667,0.478448275862069,0.492603550295858,0.357274450792355
336,"72XR4G","St. John Paul II Catholic High School","Huntsville","AL","Falcons","7301 Old Madison Pike","https://cdn2buckets-live-s3dfaaws-1mlao80q0xoqe.s3.amazonaws.com/17fb9205-b1e5-4009-d644-beb47867e00b?AWSAccessKeyId=AKIAIUQNYZUJLIOKKJ3A&Expires=1801043965&Signature=ZuhaxoqLuv7%2Fs8rCovLhzBDf4TE%3D",3,16,0.157894736842105,0.48512585812357,0.495660118775697,0.356866974774016
337,"BBF4GM","Billingsley High School","Billingsley","AL","Bears","2446 County Road 77","https://cdn2buckets-live-s3dfaaws-1mlao80q0xoqe.s3.amazonaws.com/fa6e4c55-b547-462f-fedf-78ba91496633?AWSAccessKeyId=AKIAIUQNYZUJLIOKKJ3A&Expires=1801043963&Signature=neDxcbp34E8rlVl8uPJFyIjJ1oU%3D",3,15,0.166666666666667,0.472868217054264,0.492600422832981,0.355320648343904
338,"8J8568","West End High School","Walnut Grove","AL","Patriots","4515 Elm Street","https://cdn2buckets-live-s3dfaaws-1mlao80q0xoqe.s3.amazonaws.com/405f3811-f13f-428a-824e-478033613853?AWSAccessKeyId=AKIAIUQNYZUJLIOKKJ3A&Expires=1801043965&Signature=Bt4E1Oh6J%2FXc7UoDGyuNxx1XRG8%3D",3,16,0.157894736842105,0.48,0.494864048338369,0.354873906821434
339,"UW3HVH","Jefferson Christian Academy","Irondale","AL","Eagles","1500 Heritage Place Drive","https://cdn2buckets-live-s3dfaaws-1mlao80q0xoqe.s3.amazonaws.com/91dac751-8a9b-4c09-ffc2-e1969e7d9652?AWSAccessKeyId=AKIAIUQNYZUJLIOKKJ3A&Expires=1801043964&Signature=gUYiWklYa0n7mA0Ny9G%2FcRZx%2BGE%3D",2,12,0.142857142857143,0.482142857142857,0.49800796812749,0.35039484917473
340,"A3GUCH","Woodland High School","Woodland","AL","Bobcats","24574 AL HWY 48","https://cdn2buckets-live-s3dfaaws-1mlao80q0xoqe.s3.amazonaws.com/eba827d9-423b-41ef-8046-5e2e25392fd8?AWSAccessKeyId=AKIAIUQNYZUJLIOKKJ3A&Expires=1801043965&Signature=LydywTAwRHasOFHFZGM%2Ff66NXBM%3D",2,12,0.142857142857143,0.472826086956522,0.492170022371365,0.345674493170481
341,"3V2QZX","Zion Chapel High School","Jack","AL","Rebels","29256 AL-87","https://cdn2buckets-live-s3dfaaws-1mlao80q0xoqe.s3.amazonaws.com/011ab320-4ab5-4790-9d50-90b7d4fe79e3?AWSAccessKeyId=AKIAIUQNYZUJLIOKKJ3A&Expires=1801043965&Signature=ou%2F534VCfp3cT7Z6e6mw0XqL3UQ%3D",2,12,0.142857142857143,0.468085106382979,0.49016393442623,0.343513627983457
342,"ARKSRQ","Baldwin County High School","Bay Minette","AL",NA,"1 Tiger Dr","https://cdn2buckets-live-s3dfaaws-1mlao80q0xoqe.s3.amazonaws.com/9a85678f-ec64-4b2c-87d2-0632a75d6c6e?AWSAccessKeyId=AKIAIUQNYZUJLIOKKJ3A&Expires=1801043963&Signature=VhdDGtii3ExHs5xzFM8b0eSfe7I%3D",2,14,0.125,0.480582524271845,0.497090203685742,0.342476434416581
343,"XD9FVZ","Washington County High School","Chatom","AL","Bulldogs","21 School Rd ","https://cdn2buckets-live-s3dfaaws-1mlao80q0xoqe.s3.amazonaws.com/da302b97-3ed9-4581-cca4-c364258616fa?AWSAccessKeyId=AKIAIUQNYZUJLIOKKJ3A&Expires=1801043965&Signature=71n07gOLOQHYb9ZTur6tLQgJX8g%3D",2,13,0.133333333333333,0.46927374301676,0.486910994764398,0.339306892080299
344,"ERT88J","A.H. Parker High School","Birmingham","AL","Bison","400 Reverend Abraham L. Woods Jr. Boulevard","https://cdn2buckets-live-s3dfaaws-1mlao80q0xoqe.s3.amazonaws.com/b986055a-34f3-4a75-c5ae-f5d7ecd259e9?AWSAccessKeyId=AKIAIUQNYZUJLIOKKJ3A&Expires=1801043963&Signature=9X0CN5SzmWNgojtzBIITbs9za4g%3D",1,9,0.1,0.486301369863014,0.498,0.334705479452055
345,"WKAEPX","A.P. Brewer High School","Somerville","AL","Patriots","59 Eva Road","https://cdn2buckets-live-s3dfaaws-1mlao80q0xoqe.s3.amazonaws.com/24d1db79-3496-45b2-fa8b-998e16b9f179?AWSAccessKeyId=AKIAIUQNYZUJLIOKKJ3A&Expires=1801043963&Signature=mYHxCUUd4R39gxuwdqmbzIr%2BN6I%3D",2,18,0.1,0.482283464566929,0.495921696574225,0.332779636741981
346,"SDKNBD","Holy Spirit Catholic School","Tuscaloosa","AL","Saints","601 JAMES I HARRISON JR PKWY E","https://cdn2buckets-live-s3dfaaws-1mlao80q0xoqe.s3.amazonaws.com/7e8c3681-2826-4ab0-f3b4-9e633a962353?AWSAccessKeyId=AKIAIUQNYZUJLIOKKJ3A&Expires=1801043964&Signature=pkNBC%2BQOHsDdonLWFZ%2BdE%2BQiFkM%3D",1,9,0.1,0.474025974025974,0.494515539305302,0.329537975735416
347,"QD6LWS","Holy Family Cristo Rey Catholic High School","Birmingham","AL","Tornadoes","1832 Center Way South","https://cdn2buckets-live-s3dfaaws-1mlao80q0xoqe.s3.amazonaws.com/342ffc64-38cd-491e-e4d8-500995288409?AWSAccessKeyId=AKIAIUQNYZUJLIOKKJ3A&Expires=1801043964&Signature=5lIREbV3KXeDmxojZJHGMe714hk%3D",1,9,0.1,0.46875,0.495826377295493,0.328019094323873
348,"A84FFU","Goshen High School","Goshen","AL","Eagles","286 Eagle Circle | P.O. Box 7","https://cdn2buckets-live-s3dfaaws-1mlao80q0xoqe.s3.amazonaws.com/60f14789-729a-4d73-b050-1a18f20b9705?AWSAccessKeyId=AKIAIUQNYZUJLIOKKJ3A&Expires=1801043964&Signature=d8LTrdq%2FxsrSUblkLPWRZpOA0zI%3D",1,10,0.0909090909090909,0.474418604651163,0.492975734355045,0.325654081580305
349,"KU8VWU","Booker T. Washington Magnet High School","Montgomery","AL","Yellow Jacket","4400 Bell Rd","https://cdn2buckets-live-s3dfaaws-1mlao80q0xoqe.s3.amazonaws.com/79cfac29-95b2-4d3f-b303-ea355a5e9f1c?AWSAccessKeyId=AKIAIUQNYZUJLIOKKJ3A&Expires=1801043963&Signature=xI4GkyKyhYpV1HWT%2B20%2Bp8WjTHY%3D",1,11,0.0833333333333333,0.479310344827586,0.496617050067659,0.325246216539903
350,"QB8EEJ","Ellwood Christian Academy","Selma","AL","Eagles","1 Bell Road","https://cdn2buckets-live-s3dfaaws-1mlao80q0xoqe.s3.amazonaws.com/1f4cacd0-b9c9-4123-9e17-37ae27a0bd84?AWSAccessKeyId=AKIAIUQNYZUJLIOKKJ3A&Expires=1801043964&Signature=clBh9vgjp654648TBmbJ0mYX5sI%3D",1,11,0.0833333333333333,0.479508196721311,0.494126284875184,0.324692773404588
351,"9HVX95","Central High School, Tuscaloosa","Tuscaloosa","AL","Falcons","905 15th Street","https://cdn2buckets-live-s3dfaaws-1mlao80q0xoqe.s3.amazonaws.com/2056c2ea-cc1e-47e2-b8ba-b08a944d9fed?AWSAccessKeyId=AKIAIUQNYZUJLIOKKJ3A&Expires=1801043964&Signature=ydICTmzWhgKwvrNqh3sS3E5%2FeL4%3D",1,12,0.0769230769230769,0.484507042253521,0.497022446174989,0.32460230710171
352,"N2XQZ5","Slocomb High School","Slocomb","AL","Redtops","591 S County Road 9","https://cdn2buckets-live-s3dfaaws-1mlao80q0xoqe.s3.amazonaws.com/5616264c-f0d4-4f4a-a386-6d481aebd160?AWSAccessKeyId=AKIAIUQNYZUJLIOKKJ3A&Expires=1801043965&Signature=loMg%2FcqFMn5zyYqtwu9rHD5dmXw%3D",1,11,0.0833333333333333,0.475409836065574,0.493297587131367,0.323051172739126
353,"P55DLG","Saks High School","Anniston","AL","Wildcat","4401 Saks Rd","https://cdn2buckets-live-s3dfaaws-1mlao80q0xoqe.s3.amazonaws.com/de64a201-f8da-420b-a048-db75406c8d3b?AWSAccessKeyId=AKIAIUQNYZUJLIOKKJ3A&Expires=1801043965&Signature=jPrTLUomkwPKO%2F4%2Ba%2B2COPs6DLc%3D",1,11,0.0833333333333333,0.470873786407767,0.491879350348028,0.321108996163059
354,"64EX8A","Cullman Christian School","Cullman","AL","Lions","1803 Beech Avenue Southeast","https://cdn2buckets-live-s3dfaaws-1mlao80q0xoqe.s3.amazonaws.com/e6507179-e16c-42a8-e5f3-60b85e2d192f?AWSAccessKeyId=AKIAIUQNYZUJLIOKKJ3A&Expires=1801043964&Signature=hFoGmc%2BLKRPvY%2BlWGo6ARH39Y6Y%3D",1,12,0.0769230769230769,0.474103585657371,0.495395948434622,0.320554472857966
355,"T5AZ8B","Emmanuel Christian School","Dothan","AL",NA,"178 EARLINE RD","https://cdn2buckets-live-s3dfaaws-1mlao80q0xoqe.s3.amazonaws.com/573aa6fe-e878-4d5a-dea3-e449c088b7b0?AWSAccessKeyId=AKIAIUQNYZUJLIOKKJ3A&Expires=1801043964&Signature=2OlBntzaGI0d%2FHnDXVee4uW81MY%3D",1,11,0.0833333333333333,0.469135802469136,0.489208633093525,0.319833022470912
356,"QGXXRY","Sylvania High School","Sylvania","AL","Rams","133 2nd Street N","https://cdn2buckets-live-s3dfaaws-1mlao80q0xoqe.s3.amazonaws.com/de5d4ae4-dc9a-4ec5-d37d-392d83a1128e?AWSAccessKeyId=AKIAIUQNYZUJLIOKKJ3A&Expires=1801043965&Signature=UodKdEl5WGymnEfzhubbMbm7mMA%3D",1,13,0.0714285714285714,0.478260869565217,0.49320882852292,0.319264940049985
357,"MKCB2D","Cherokee High School","Cherokee","AL","Indian","850 High School Drive","https://cdn2buckets-live-s3dfaaws-1mlao80q0xoqe.s3.amazonaws.com/c6750936-e986-4ebe-9598-039aaaa6e333?AWSAccessKeyId=AKIAIUQNYZUJLIOKKJ3A&Expires=1801043964&Signature=KpAIBSaDfpq2za3Di%2Fi1L2QDBnU%3D",1,14,0.0666666666666667,0.477341389728097,0.493975903614458,0.317230128975115
358,"X274L8","Ohatchee High School","Ohatchee","AL","Indians","100 Cherokee Trail","https://cdn2buckets-live-s3dfaaws-1mlao80q0xoqe.s3.amazonaws.com/9b1a5a72-2fe9-40b4-f42b-369139e9137c?AWSAccessKeyId=AKIAIUQNYZUJLIOKKJ3A&Expires=1801043964&Signature=oNOCvEqHUu5b5CZBDrMkGf622V4%3D",1,14,0.0666666666666667,0.474903474903475,0.494746895893028,0.31656960685614
359,"BQ2CAJ","Lynn High School","Lynn","AL","Bears","531 East Main Street","https://cdn2buckets-live-s3dfaaws-1mlao80q0xoqe.s3.amazonaws.com/c381d536-aad2-476e-b9b6-be43dff3386d?AWSAccessKeyId=AKIAIUQNYZUJLIOKKJ3A&Expires=1801043964&Signature=5JNhSHHc9EA6EJHuH6s0pWO1hkg%3D",1,14,0.0666666666666667,0.471615720524017,0.493193717277487,0.315030598169445
360,"6DWKZV","Hillcrest High School, Evergreen","Evergreen","AL","Jaguars","1989 Jaguar Dr.","https://cdn2buckets-live-s3dfaaws-1mlao80q0xoqe.s3.amazonaws.com/490ce545-ce80-4636-a5b7-d362adc178a6?AWSAccessKeyId=AKIAIUQNYZUJLIOKKJ3A&Expires=1801043964&Signature=WqT8YCvj7kBi5orKsM2epCQ9TtI%3D",1,15,0.0625,0.473484848484849,0.494943109987358,0.314455474466536
361,"EEJM4U","Dora High School","Dora","AL","Bulldogs","330 Glenn C. Gant Circle ","https://cdn2buckets-live-s3dfaaws-1mlao80q0xoqe.s3.amazonaws.com/0f27bd8f-7122-496b-d16d-d4f84e1bedba?AWSAccessKeyId=AKIAIUQNYZUJLIOKKJ3A&Expires=1801043964&Signature=VGfuB7S0RVA%2BK%2BePltA2TBQRONo%3D",1,16,0.0588235294117647,0.472727272727273,0.495930548019533,0.312966594224135
362,"M9PEJA","Amelia Love  Johnson High School","Thomaston","AL","Eagle","P. O Box 67","https://cdn2buckets-live-s3dfaaws-1mlao80q0xoqe.s3.amazonaws.com/73e85c72-51a8-4f8b-c708-90ce77e70d26?AWSAccessKeyId=AKIAIUQNYZUJLIOKKJ3A&Expires=1801043963&Signature=P7VTWxY6rpxb%2B6mtGihRYT7z1rA%3D",1,13,0.0714285714285714,0.458904109589041,0.488505747126437,0.311314303709202
363,"SUFJ43","Brilliant High School","Brilliant","AL","Tigers","690 Main Street","https://cdn2buckets-live-s3dfaaws-1mlao80q0xoqe.s3.amazonaws.com/ffb62e31-2a7e-4c9e-82d8-73af09c2b4d9?AWSAccessKeyId=AKIAIUQNYZUJLIOKKJ3A&Expires=1801043963&Signature=k4MWFBx6suK1B%2B9uzK09T%2B1gUks%3D",1,16,0.0588235294117647,0.470588235294118,0.491674828599412,0.3111540012675
364,"REM93W","B.C. Rain High School","Mobile","AL","Red Raiders","3125 Dauphin Island Parkway","https://cdn2buckets-live-s3dfaaws-1mlao80q0xoqe.s3.amazonaws.com/4fbe9de7-e714-4785-871e-b9e95c5c5a9e?AWSAccessKeyId=AKIAIUQNYZUJLIOKKJ3A&Expires=1801043963&Signature=AT0dsGyfr1U%2BMhuncij7O5IbAlM%3D",1,18,0.0526315789473684,0.472303206997085,0.49041095890411,0.308961493753954
365,"65X73S","J.B. Pennington High School","Blountsville","AL","Tigers","81 College Street","https://cdn2buckets-live-s3dfaaws-1mlao80q0xoqe.s3.amazonaws.com/a79f9708-7560-420d-b21d-d388e08c2b9d?AWSAccessKeyId=AKIAIUQNYZUJLIOKKJ3A&Expires=1801043964&Signature=QGdV2Z75kMTnfDq6WytlHS8GSdU%3D",0,15,0,0.479338842975207,0.493693693693694,0.291192018464746
366,"7MVGCG","Gaston High School","Gadsden","AL",NA,"4550 US Highway 411","https://cdn2buckets-live-s3dfaaws-1mlao80q0xoqe.s3.amazonaws.com/c3a64be7-39a0-4422-e2f6-f181c5c98443?AWSAccessKeyId=AKIAIUQNYZUJLIOKKJ3A&Expires=1801043964&Signature=8%2FuO%2FPLpDbpztYLtk9bRl4gpdoo%3D",0,15,0,0.479452054794521,0.493186242699546,0.291104779852969
367,"84BNG9","Valley Head High School","Valley Head","AL",NA,"PO Box 149","https://cdn2buckets-live-s3dfaaws-1mlao80q0xoqe.s3.amazonaws.com/7bc6713a-e4c9-4d76-97d8-01ee65738f5f?AWSAccessKeyId=AKIAIUQNYZUJLIOKKJ3A&Expires=1801043965&Signature=kp2oy8d%2BQ%2FaUFB%2FleOY%2BwS7ULkQ%3D",0,14,0,0.477011494252874,0.494897959183673,0.290678512784424
368,"VDAQMX","P.D. Jackson-Olin High School","Birmingham","AL","Mustangs","1300 Avenue F","https://cdn2buckets-live-s3dfaaws-1mlao80q0xoqe.s3.amazonaws.com/070708be-4072-4217-f280-63bc5c69c33e?AWSAccessKeyId=AKIAIUQNYZUJLIOKKJ3A&Expires=1801043964&Signature=c8sK5vCmXaZ8wr29s%2F7H9Hy6RT4%3D",0,12,0,0.476744186046512,0.494296577946768,0.290434609602971
369,"PYVJ9M","Saint Bernard Preparatory School","Cullman","AL","Saints","1600 Saint Bernard Dr. SE","https://cdn2buckets-live-s3dfaaws-1mlao80q0xoqe.s3.amazonaws.com/165bf34a-85e4-47be-a531-d8bb83cf6ca6?AWSAccessKeyId=AKIAIUQNYZUJLIOKKJ3A&Expires=1801043965&Signature=HflGnY5yOFWHyrRItwtnm9rdBQw%3D",0,11,0,0.476190476190476,0.494745351657235,0.290353004580975
370,"8VCWXC","Millry High School","Millry","AL","Wildcats","1 wildcat drive","https://cdn2buckets-live-s3dfaaws-1mlao80q0xoqe.s3.amazonaws.com/61259594-e2ff-436b-e8e9-98fed30cbee8?AWSAccessKeyId=AKIAIUQNYZUJLIOKKJ3A&Expires=1801043964&Signature=Cyx6IQAY69kD9xyv7sRLdIcf%2Fj0%3D",0,10,0,0.462686567164179,0.485477178423237,0.283309593113272
