"rank","school_id","school_name","city","state","mascot","address","logo_url","W","L","win_pct","opp_win_pct","opp_opp_win_pct","rpi"
1,"J942V5","Murphy High School","Mobile","AL","Panther","100 S Carlen Street","https://cdn2buckets-live-s3dfaaws-1mlao80q0xoqe.s3.amazonaws.com/b05143f5-34dc-4281-8560-ef601af3b1f9?AWSAccessKeyId=AKIAIUQNYZUJLIOKKJ3A&Expires=1801991780&Signature=ScomD8MukfOVFelYsefNtokgR0Q%3D",15,0,1,0.521172638436482,0.505664263645726,0.7088264893642
2,"2JW45T","Scottsboro High School","Scottsboro","AL","Wildcat","25053 John T. Reid Parkway","https://cdn2buckets-live-s3dfaaws-1mlao80q0xoqe.s3.amazonaws.com/5f4e370e-28ce-4dcc-9c0d-2d5a0707b7ec?AWSAccessKeyId=AKIAIUQNYZUJLIOKKJ3A&Expires=1801991780&Signature=e2Ij3nyLwR8ErN41sqQjuJUVTeg%3D",15,0,1,0.52442996742671,0.500748876684973,0.708737707770592
3,"Y3LG34","Meek High School","Arley","AL","Tiger","6615 County Road 41","https://cdn2buckets-live-s3dfaaws-1mlao80q0xoqe.s3.amazonaws.com/0ea67601-73b2-4ae4-89cc-3576ef5af9a4?AWSAccessKeyId=AKIAIUQNYZUJLIOKKJ3A&Expires=1801991780&Signature=3Ux3HyZ3lNlfe7fa8H5i4tcviy4%3D",12,0,1,0.515723270440252,0.501895734597156,0.705977078303377
4,"ZL2MJ6","Francis Marion School","Marion","AL","Rams","101 Hubbard Drive","https://cdn2buckets-live-s3dfaaws-1mlao80q0xoqe.s3.amazonaws.com/a8f92e05-0270-4c1c-962c-b551911bc880?AWSAccessKeyId=AKIAIUQNYZUJLIOKKJ3A&Expires=1801991780&Signature=lJj8xGCUdy%2FVRJFPwTu%2F4oscEHc%3D",20,1,0.952380952380952,0.53356890459364,0.506963788300836,0.694442444635364
5,"UQ86FJ","Hoover High School","Hoover","AL","Bucs","1000 Buccaneer Drive","https://cdn2buckets-live-s3dfaaws-1mlao80q0xoqe.s3.amazonaws.com/123cf38e-e6be-4910-8ae8-fdea7dcdf1d1?AWSAccessKeyId=AKIAIUQNYZUJLIOKKJ3A&Expires=1801991780&Signature=Vp7o8H9yRkiMTS%2BSHKem67V69EY%3D",25,1,0.961538461538462,0.526315789473684,0.502210433244916,0.694378519242403
6,"F8P4XV","West Point High School","Cullman","AL","Warriors","4314 County Road 1141","https://cdn2buckets-live-s3dfaaws-1mlao80q0xoqe.s3.amazonaws.com/113ff9f1-5b08-404b-9957-da962ce9707e?AWSAccessKeyId=AKIAIUQNYZUJLIOKKJ3A&Expires=1801991781&Signature=ItIqrPOHU1cMKDVSXuoKPdI7EhU%3D",23,1,0.958333333333333,0.517515923566879,0.500969618616677,0.68970631123591
7,"9N69L7","Cherokee County High School","Centre","AL","Warriors","910 Warrior Drive","https://cdn2buckets-live-s3dfaaws-1mlao80q0xoqe.s3.amazonaws.com/2a51208d-4e00-488e-eec6-5de7a96ab173?AWSAccessKeyId=AKIAIUQNYZUJLIOKKJ3A&Expires=1801991779&Signature=7dqNRyKzyWrbh5d32TRLw9La5do%3D",20,1,0.952380952380952,0.521444695259594,0.504092441020703,0.689481134548415
8,"SWA5TB","Clay-Chalkville High School	","Pinson","AL","Cougars","6623 Roe Chandler Rd","https://cdn2buckets-live-s3dfaaws-1mlao80q0xoqe.s3.amazonaws.com/c956fb9c-a4e1-4c36-d0c8-2e5c4675ba22?AWSAccessKeyId=AKIAIUQNYZUJLIOKKJ3A&Expires=1801991779&Signature=c%2FPHazrp7gx03BivWxINnU4jAl0%3D",22,1,0.956521739130435,0.517311608961303,0.502562081198266,0.689308279088196
9,"TXUSMQ","R.C. Hatch High School","Uniontown","AL",NA,"470 West Ave","https://cdn2buckets-live-s3dfaaws-1mlao80q0xoqe.s3.amazonaws.com/41c1397c-a74a-43b6-b851-145bd55b1763?AWSAccessKeyId=AKIAIUQNYZUJLIOKKJ3A&Expires=1801991780&Signature=a3y5v0BHMBZR1RLTiZxTAMLvbvo%3D",19,1,0.95,0.523684210526316,0.503138075313807,0.689073992512662
10,"EFDQS7","Charles Henderson High School","Troy","AL","Trojans","150 S. George Wallace Drive","https://cdn2buckets-live-s3dfaaws-1mlao80q0xoqe.s3.amazonaws.com/4afe4e5a-2471-4d3d-ddbe-eb3b0989f706?AWSAccessKeyId=AKIAIUQNYZUJLIOKKJ3A&Expires=1801991779&Signature=e2Pjbpt0n61%2BCWF72BKD7SbkNmY%3D",18,1,0.947368421052632,0.511156186612576,0.500649631875271,0.683014441704272
11,"J2GDLB","Albertville High School","Albertville","AL","Aggies","402 East McCord Avenue","https://cdn2buckets-live-s3dfaaws-1mlao80q0xoqe.s3.amazonaws.com/f8885bbc-5cd3-458b-b582-e66f075e9faa?AWSAccessKeyId=AKIAIUQNYZUJLIOKKJ3A&Expires=1801991779&Signature=gHAEujmysts%2BhOu2WrR6MtYyWHc%3D",17,1,0.944444444444444,0.513257575757576,0.501036627505183,0.682677086169225
12,"Y23G6Z","Geneva High School","Geneva","AL","Panthers","505 Panther Drive","https://cdn2buckets-live-s3dfaaws-1mlao80q0xoqe.s3.amazonaws.com/2d55f77a-2dfc-45c3-bea2-3d2ee66bf46d?AWSAccessKeyId=AKIAIUQNYZUJLIOKKJ3A&Expires=1801991780&Signature=n7f7tC7TjWy82rwcD%2BG5HnZCbE8%3D",22,2,0.916666666666667,0.517857142857143,0.506237006237006,0.674475918225918
13,"ELSY6V","Hazel Green High School","Hazel Green","AL","Trojans","14380 Hwy 231-431 N.","https://cdn2buckets-live-s3dfaaws-1mlao80q0xoqe.s3.amazonaws.com/b84cbb42-6173-4f6a-d7c5-ac7a434dc2fd?AWSAccessKeyId=AKIAIUQNYZUJLIOKKJ3A&Expires=1801991780&Signature=ssEmcQf%2FoZn37s1ZBVXQ%2F57BBEs%3D",22,2,0.916666666666667,0.517175572519084,0.501784439685939,0.673124226969831
14,"9ZFZLA","Saint James School","Montgomery","AL","Trojans","6010 Vaughn Road","https://cdn2buckets-live-s3dfaaws-1mlao80q0xoqe.s3.amazonaws.com/568bd349-d724-4e04-f742-da4185711c1b?AWSAccessKeyId=AKIAIUQNYZUJLIOKKJ3A&Expires=1801991780&Signature=2I%2Br6BOvcUhi9PxpcnjU7UYwX2M%3D",22,2,0.916666666666667,0.514900662251656,0.500601322910403,0.672032229182347
15,"6NSLNF","Plainview High School","Rainsville","AL","Bears","76 Chavies Road ","https://cdn2buckets-live-s3dfaaws-1mlao80q0xoqe.s3.amazonaws.com/b67e50b1-35ac-4e29-f01a-b9e73ce5e58e?AWSAccessKeyId=AKIAIUQNYZUJLIOKKJ3A&Expires=1801991780&Signature=T%2FYpJSnKMQTHr4uLg8j9YJ7V3b8%3D",23,2,0.92,0.510015408320493,0.501721439749609,0.671935752849575
16,"SJM6BA","Winterboro High School","Alpine","AL","Bulldogs","22435 Alabama Highway 21","https://cdn2buckets-live-s3dfaaws-1mlao80q0xoqe.s3.amazonaws.com/dc9ba984-a8eb-4324-a191-b1308353b3cc?AWSAccessKeyId=AKIAIUQNYZUJLIOKKJ3A&Expires=1801991781&Signature=KCunhKiqQVnv%2BD4e85LAO%2ByPZwU%3D",21,2,0.91304347826087,0.515723270440252,0.501806503412284,0.671172161811507
17,"M74DXV","Deshler High School","Tuscumbia","AL","Tiger","598 North High Street","https://cdn2buckets-live-s3dfaaws-1mlao80q0xoqe.s3.amazonaws.com/44de40b5-9db6-4459-98ab-17e45148962e?AWSAccessKeyId=AKIAIUQNYZUJLIOKKJ3A&Expires=1801991779&Signature=D6bpPYg0JJkAaNGXyNUC6P2zKQw%3D",19,2,0.904761904761905,0.51434034416826,0.501267656646143,0.667240796525189
18,"5CFBBE","Park Crossing High School","Montgomery","AL","Thunderbirds","8000 Park Crossing Dr","https://cdn2buckets-live-s3dfaaws-1mlao80q0xoqe.s3.amazonaws.com/337e4b1a-9e98-4f22-d47d-4138acba1a9f?AWSAccessKeyId=AKIAIUQNYZUJLIOKKJ3A&Expires=1801991780&Signature=95Fa76QQY3kwsVjWrQy%2FHloFp0w%3D",19,1,0.904761904761905,0.514285714285714,0.500657606313021,0.667069163483017
19,"BQD9RA","Northside High School","Northport","AL","Rams","19230 Northside Parkway","https://cdn2buckets-live-s3dfaaws-1mlao80q0xoqe.s3.amazonaws.com/0bcfa8ea-fd28-4ba3-a1d1-42f7c404e7ff?AWSAccessKeyId=AKIAIUQNYZUJLIOKKJ3A&Expires=1801991780&Signature=gwPGtv%2FnbkK4wh2MPtm%2F6kF1CkQ%3D",17,2,0.894736842105263,0.517906336088154,0.501716527709662,0.664591086400375
20,"XMUPAA","Fairhope High School","Fairhope","AL","Pirates","1 Pirate Dr.","https://cdn2buckets-live-s3dfaaws-1mlao80q0xoqe.s3.amazonaws.com/33ea4137-3c4b-4a99-95b7-e88e5ed5b2df?AWSAccessKeyId=AKIAIUQNYZUJLIOKKJ3A&Expires=1801991779&Signature=Qto8burdybCxX%2Bzub9ANRIsj4K8%3D",24,3,0.888888888888889,0.5152,0.501980554555275,0.661370694194374
21,"YRH5YN","Guntersville High School","Guntersville","AL","Wildcats","14227 Highway 431 S","https://cdn2buckets-live-s3dfaaws-1mlao80q0xoqe.s3.amazonaws.com/2646f912-e65f-4483-80d5-ddf5e93d4cff?AWSAccessKeyId=AKIAIUQNYZUJLIOKKJ3A&Expires=1801991780&Signature=jWSeJ3AM9W7NsgRihmB34%2FsatKQ%3D",24,3,0.888888888888889,0.51233671988389,0.499863723085309,0.659839338286244
22,"6XXX7Z","Kinston High School","Kinston","AL","Bulldogs","201 College Street East","https://cdn2buckets-live-s3dfaaws-1mlao80q0xoqe.s3.amazonaws.com/59822cba-bc6e-40ef-905d-c056853c90c1?AWSAccessKeyId=AKIAIUQNYZUJLIOKKJ3A&Expires=1801991780&Signature=36Oh3Qlc5nkpuuoG7gMpJN5N568%3D",15,2,0.882352941176471,0.514195583596215,0.503250975292588,0.65872237455241
23,"8CDY4M","Stanhope Elmore High School","Millbrook","AL","Mustangs","4300 Main St","https://cdn2buckets-live-s3dfaaws-1mlao80q0xoqe.s3.amazonaws.com/8afd312b-9c0f-4588-d2c8-a2c88ae76e03?AWSAccessKeyId=AKIAIUQNYZUJLIOKKJ3A&Expires=1801991781&Signature=zDssGibHu4hutSgyTcPuhlUqHVk%3D",21,3,0.875,0.518,0.500771604938272,0.656492901234568
24,"MFYEX9","Alma Bryant High School","Irvington","AL",NA,"14001 Hurricane Blvd","https://cdn2buckets-live-s3dfaaws-1mlao80q0xoqe.s3.amazonaws.com/ebe4af62-1b6c-46ef-b6ca-c6a579931a01?AWSAccessKeyId=AKIAIUQNYZUJLIOKKJ3A&Expires=1801991779&Signature=184e8x9kzW1dLoEv%2FL%2BiXlDtneY%3D",20,3,0.869565217391304,0.520661157024793,0.504251144538914,0.656120278049928
25,"NCQQWT","West Morgan High School","Trinity","AL","Rebels","363 South Greenway Drive","https://cdn2buckets-live-s3dfaaws-1mlao80q0xoqe.s3.amazonaws.com/266b93b0-19eb-44c9-c9a7-84fb279ff71d?AWSAccessKeyId=AKIAIUQNYZUJLIOKKJ3A&Expires=1801991781&Signature=emeOxmlNhPMvzzwRmsYQuYH0MxA%3D",19,3,0.863636363636364,0.513671875,0.501588983050847,0.650636947467257
26,"889VCG","McGill-Toolen Catholic High School","Mobile","AL","Yellow Jackets","1501 Old Shell Rd","https://cdn2buckets-live-s3dfaaws-1mlao80q0xoqe.s3.amazonaws.com/2e259943-e4c2-4b43-dd4c-6326de798d75?AWSAccessKeyId=AKIAIUQNYZUJLIOKKJ3A&Expires=1801991780&Signature=rWxrXqhe60%2FEf3Y10ARU%2Baa0ZCQ%3D",13,2,0.866666666666667,0.509240246406571,0.499732190680236,0.649833800579025
27,"C9KYVV","Valley High School","Valley","AL","Rams","501 US Hwy 29","https://cdn2buckets-live-s3dfaaws-1mlao80q0xoqe.s3.amazonaws.com/13bbfe9c-d235-4dd4-b8f3-b042fd3be7bd?AWSAccessKeyId=AKIAIUQNYZUJLIOKKJ3A&Expires=1801991781&Signature=lgY1LXIAYQpwNxNeHBfwXPt6nH0%3D",12,2,0.857142857142857,0.518018018018018,0.501043841336117,0.649424409497478
28,"VG3Q6C","Russell County High School","Seale","AL","Warriors","57 Warrior Way","https://cdn2buckets-live-s3dfaaws-1mlao80q0xoqe.s3.amazonaws.com/440b22c3-37e9-46f5-b109-b383054f821b?AWSAccessKeyId=AKIAIUQNYZUJLIOKKJ3A&Expires=1801991780&Signature=piDLxlG7KoS%2BBggqqF9p30irnIQ%3D",18,3,0.857142857142857,0.512064343163539,0.500806018269747,0.647281167531818
29,"6QH22H","Clarke County High School","Grove Hill","AL","Bulldog","P O Box 700","https://cdn2buckets-live-s3dfaaws-1mlao80q0xoqe.s3.amazonaws.com/666009f7-d4de-4899-d5fb-b4113f61672d?AWSAccessKeyId=AKIAIUQNYZUJLIOKKJ3A&Expires=1801991779&Signature=3OBAkppDySRd3QzowoCLAWsAIAU%3D",17,3,0.85,0.515243902439024,0.504347826086956,0.646422322375398
30,"L4HN83","Whitesburg Christian Academy","Huntsville","AL","Warrior","7290 Whitesburg Dr.","https://cdn2buckets-live-s3dfaaws-1mlao80q0xoqe.s3.amazonaws.com/68cb0548-a1f9-4095-f70b-1324fcf03d07?AWSAccessKeyId=AKIAIUQNYZUJLIOKKJ3A&Expires=1801991781&Signature=X0DpUeOga5zXy0KgReEauQDrvi8%3D",17,3,0.85,0.515021459227468,0.502587991718426,0.64590450865922
31,"97JFFH","Marengo High School","Dixons Mills","AL","Panthers","212 Panther Dr","https://cdn2buckets-live-s3dfaaws-1mlao80q0xoqe.s3.amazonaws.com/d4297683-7a40-4339-ba5d-6741a743ab3a?AWSAccessKeyId=AKIAIUQNYZUJLIOKKJ3A&Expires=1801991780&Signature=viODGUUGhxCecTQioajNjT5r%2B1Q%3D",10,2,0.833333333333333,0.525974025974026,0.505016722408027,0.643678423026249
32,"Q4SDT3","Northridge High School","Tuscaloosa","AL","Jaguars","2901 Northridge Road","https://cdn2buckets-live-s3dfaaws-1mlao80q0xoqe.s3.amazonaws.com/713b61bc-db77-4733-92ea-aad305f7527c?AWSAccessKeyId=AKIAIUQNYZUJLIOKKJ3A&Expires=1801991780&Signature=Ldf4S2gn8yT2YN%2FyRLZB1%2Bv1jrc%3D",22,4,0.846153846153846,0.511041009463722,0.500324464633355,0.64240700793218
33,"UTPVKU","East Limestone High School","Athens","AL","Indians","15641 East Limestone Road","https://cdn2buckets-live-s3dfaaws-1mlao80q0xoqe.s3.amazonaws.com/ed120340-0966-4917-c34c-a3a46a181ec6?AWSAccessKeyId=AKIAIUQNYZUJLIOKKJ3A&Expires=1801991779&Signature=i4xEkE7LGmZsSeT7%2BEVz6IXWskI%3D",16,3,0.842105263157895,0.51508120649652,0.500774393391843,0.6423141258849
34,"283J9Q","Jacksonville Christian Academy","Jacksonville","AL","Thunder","831 Alexandria Rd. SW","https://cdn2buckets-live-s3dfaaws-1mlao80q0xoqe.s3.amazonaws.com/d67eb8e7-5d39-4f99-ce54-6a5d7baa911a?AWSAccessKeyId=AKIAIUQNYZUJLIOKKJ3A&Expires=1801991780&Signature=gbgsNWhzjOBQ2uaXHqjj7KWkSas%3D",10,2,0.833333333333333,0.517241379310345,0.502958579881657,0.640107461062368
35,"3XSZV4","Decatur High School","Decatur","AL","Red Raiders","910 Somerville Road Southeast, Decatur, AL 35601","https://cdn2buckets-live-s3dfaaws-1mlao80q0xoqe.s3.amazonaws.com/ed792048-3eae-40ad-a383-fedf2d29542c?AWSAccessKeyId=AKIAIUQNYZUJLIOKKJ3A&Expires=1801991779&Signature=xuOtH7iltJS9apAJ2KQoFIq60ME%3D",24,5,0.827586206896552,0.511318242343542,0.501075929910851,0.635264850056573
36,"APW28H","St. Paul's Episcopal School","Mobile","AL","Saints","161 Dogwood lane","https://cdn2buckets-live-s3dfaaws-1mlao80q0xoqe.s3.amazonaws.com/81743ef7-86e2-44c1-c86e-57ddff684261?AWSAccessKeyId=AKIAIUQNYZUJLIOKKJ3A&Expires=1801991781&Signature=u2hlla%2F%2BaHaEfQL%2BmLt9KheNhmI%3D",17,4,0.80952380952381,0.517711171662125,0.504071058475204,0.631026198510069
37,"5YUJPP","Lauderdale County High School","Rogersville","AL","Tiger","201 Cedar Street","https://cdn2buckets-live-s3dfaaws-1mlao80q0xoqe.s3.amazonaws.com/95aecc26-2cdc-4eb2-93f2-130bc037f19e?AWSAccessKeyId=AKIAIUQNYZUJLIOKKJ3A&Expires=1801991780&Signature=PRzrGBJAk%2BfbYqZPJmMCFZZRZqA%3D",9,2,0.818181818181818,0.509505703422053,0.500946372239748,0.630836316530383
38,"DFZ6ZM","Highland Home High School","Highland Home","AL","Flying Squadron","18434 Montgomery Hwy","https://cdn2buckets-live-s3dfaaws-1mlao80q0xoqe.s3.amazonaws.com/38afe7aa-cfb9-4868-a7e7-34befe62364c?AWSAccessKeyId=AKIAIUQNYZUJLIOKKJ3A&Expires=1801991780&Signature=jIdaHC87NwqX%2BDIY7aEE%2BQgAXBQ%3D",13,3,0.8125,0.514880952380952,0.5,0.630208333333333
39,"HYLLYZ","Georgiana High School","Georgiana","AL","Panthers","866 Highway 31 South","https://cdn2buckets-live-s3dfaaws-1mlao80q0xoqe.s3.amazonaws.com/b005eae3-9a3c-4b18-847c-bc0b9e8e3b48?AWSAccessKeyId=AKIAIUQNYZUJLIOKKJ3A&Expires=1801991780&Signature=75olqVCutenlk08RCpNwvuwooOs%3D",8,2,0.8,0.516666666666667,0.502832861189802,0.626541548630784
40,"YXLTJS","Athens Bible School","Athens","AL","Trojans","700 US Hwy 31 North","https://cdn2buckets-live-s3dfaaws-1mlao80q0xoqe.s3.amazonaws.com/375b4b20-db5f-447d-c460-71c59a74056a?AWSAccessKeyId=AKIAIUQNYZUJLIOKKJ3A&Expires=1801991779&Signature=C8z%2FuG0mp7g%2BOE2VjgQK8%2Bp4rzY%3D",20,5,0.8,0.516129032258065,0.502319416832339,0.626225015498407
41,"M4GUUY","Midfield High School","Midfield","AL","Patriot",NA,"https://cdn2buckets-live-s3dfaaws-1mlao80q0xoqe.s3.amazonaws.com/b87a1dfe-2833-451d-ce30-6bb501128e59?AWSAccessKeyId=AKIAIUQNYZUJLIOKKJ3A&Expires=1801991780&Signature=oq7s0tOW3MBoRDqNZTpuPErqH1I%3D",12,3,0.8,0.511688311688312,0.500179533213645,0.62413579239432
42,"5DDXAE","Prattville High School","Prattville","AL","Lions","1315 Upper Kingston Road","https://cdn2buckets-live-s3dfaaws-1mlao80q0xoqe.s3.amazonaws.com/16d31b84-51c6-4afa-cbc4-c5442d53f16a?AWSAccessKeyId=AKIAIUQNYZUJLIOKKJ3A&Expires=1801991780&Signature=2QNhiJSPcgI8SyK4QZAeHQLh30k%3D",16,4,0.8,0.509920634920635,0.499258160237389,0.623286762281569
43,"6QPQLT","South Lamar High School","Millport","AL","Stallions","300 SLS Road","https://cdn2buckets-live-s3dfaaws-1mlao80q0xoqe.s3.amazonaws.com/3755af34-64a0-43a1-e093-cd127943ea37?AWSAccessKeyId=AKIAIUQNYZUJLIOKKJ3A&Expires=1801991780&Signature=O2cCgIZIy0tp5rlj90l44n9S%2BN4%3D",11,3,0.785714285714286,0.524096385542169,0.502169197396963,0.623261748574714
44,"MMP3FG","Auburn High School","Auburn","AL","Tigers","1701 East Samford Avenue","https://cdn2buckets-live-s3dfaaws-1mlao80q0xoqe.s3.amazonaws.com/d7e02dbe-f138-4ec4-f455-7faf5a42e119?AWSAccessKeyId=AKIAIUQNYZUJLIOKKJ3A&Expires=1801991779&Signature=D1CpKp0HkqIYef7DYGA8dcrCoRQ%3D",8,2,0.8,0.507142857142857,0.498327759197324,0.622081939799331
45,"XFEZPT","Good Hope High School","Cullman","AL","Raider","210 Good Hope School Rd","https://cdn2buckets-live-s3dfaaws-1mlao80q0xoqe.s3.amazonaws.com/231b0404-1b82-4122-adec-58adc7945066?AWSAccessKeyId=AKIAIUQNYZUJLIOKKJ3A&Expires=1801991780&Signature=l0xT%2BS5nd5GWibA%2BNIfLLeJH3Ag%3D",19,5,0.791666666666667,0.511764705882353,0.500334001336005,0.620867814059491
46,"EEJM4U","Dora High School","Dora","AL","Bulldogs","330 Glenn C. Gant Circle ","https://cdn2buckets-live-s3dfaaws-1mlao80q0xoqe.s3.amazonaws.com/0f27bd8f-7122-496b-d16d-d4f84e1bedba?AWSAccessKeyId=AKIAIUQNYZUJLIOKKJ3A&Expires=1801991779&Signature=3IGFHfC1fBbJRE%2BiOi0BHZ4xCeg%3D",18,5,0.782608695652174,0.51380042462845,0.500162707452001,0.617914303743827
47,"XXAFCA","Jasper High School","Jasper","AL","Vikings","1501 Viking Drive","https://cdn2buckets-live-s3dfaaws-1mlao80q0xoqe.s3.amazonaws.com/74f2bbf6-574c-499f-9129-d7c69fe85caf?AWSAccessKeyId=AKIAIUQNYZUJLIOKKJ3A&Expires=1801991780&Signature=%2F1I1B5CqwTNzG5oHkM0j9LYRz%2FA%3D",15,4,0.789473684210526,0.505529225908373,0.499375156210947,0.617568491804878
48,"QDXR7Z","St. Michael Catholic High School","Fairhope","AL","Cardinal","11732 St. Michael Way","https://cdn2buckets-live-s3dfaaws-1mlao80q0xoqe.s3.amazonaws.com/346d4d15-8a2d-4d13-993f-043420cd9387?AWSAccessKeyId=AKIAIUQNYZUJLIOKKJ3A&Expires=1801991781&Signature=yk6Sy%2BXqP%2BXSPSJJLINHmuO%2BsfA%3D",11,3,0.785714285714286,0.507142857142857,0.499440715883669,0.616645893256631
49,"F8LKP2","Thomasville High School","Thomasville","AL","Tigers","777 GATES DR","https://cdn2buckets-live-s3dfaaws-1mlao80q0xoqe.s3.amazonaws.com/2cf6a8f2-5ba4-43fb-aa03-6275bad2686e?AWSAccessKeyId=AKIAIUQNYZUJLIOKKJ3A&Expires=1801991781&Signature=uJfn10dp5G%2BsxTP1zRRkEmPtn5Q%3D",10,3,0.769230769230769,0.509293680297398,0.501355013550135,0.611283849183931
50,"7YNP6M","Victory Christian School","Pell City","AL","Lions","PO Box 710","https://cdn2buckets-live-s3dfaaws-1mlao80q0xoqe.s3.amazonaws.com/63110432-ad40-4430-eeec-693d0eac5747?AWSAccessKeyId=AKIAIUQNYZUJLIOKKJ3A&Expires=1801991781&Signature=OO4o2FOUxvGYWFMO1xChppjjTIY%3D",13,4,0.764705882352941,0.513432835820895,0.502077151335312,0.611103133312318
51,"K4KFTK","Horseshoe Bend High School","New Site","AL","Generals","10684 AL-22","https://cdn2buckets-live-s3dfaaws-1mlao80q0xoqe.s3.amazonaws.com/13172da1-198e-4ebb-a997-4b19d440c652?AWSAccessKeyId=AKIAIUQNYZUJLIOKKJ3A&Expires=1801991780&Signature=pfwAevaELqku5oJoFPBbTYhk9ww%3D",16,5,0.761904761904762,0.516417910447761,0.50237933378654,0.611103006865256
52,"WXX895","Cedar Bluff High School","Cedar Bluff","AL","Tigers","3655 Old Hwy 9","https://cdn2buckets-live-s3dfaaws-1mlao80q0xoqe.s3.amazonaws.com/cd8ece00-a73a-45ba-f07f-648ec61f932f?AWSAccessKeyId=AKIAIUQNYZUJLIOKKJ3A&Expires=1801991779&Signature=PWRoLJq1QsqlLlRZekLtQaCfVR0%3D",16,5,0.761904761904762,0.514285714285714,0.50275566442131,0.610450820867232
53,"YKS72H","Glencoe High School","Glencoe","AL","Yellow Jacket","803 Lonesomebend Road","https://cdn2buckets-live-s3dfaaws-1mlao80q0xoqe.s3.amazonaws.com/be1c97e0-4d98-4ac3-fa0d-3a1d5e16e148?AWSAccessKeyId=AKIAIUQNYZUJLIOKKJ3A&Expires=1801991780&Signature=JG8pFFKZEqgky7nSBtl%2Fx2VXW1g%3D",16,5,0.761904761904762,0.513513513513513,0.502846299810247,0.610203209444196
54,"7SW5VW","Marion County High School","Guin","AL","Red Raiders","8115 US Hwy 43","https://cdn2buckets-live-s3dfaaws-1mlao80q0xoqe.s3.amazonaws.com/091e53b2-42ac-4fab-ad2d-bfbde1615745?AWSAccessKeyId=AKIAIUQNYZUJLIOKKJ3A&Expires=1801991780&Signature=EQ7NvmJiTQudK%2FDuChL%2FZfCSVG0%3D",10,3,0.769230769230769,0.504702194357367,0.499214248297538,0.609141637791771
55,"U33X87","Hartselle High School","Hartselle","AL","Tigers","1000 Bethel Road NE","https://cdn2buckets-live-s3dfaaws-1mlao80q0xoqe.s3.amazonaws.com/a8e9be08-db34-4149-be30-964a32d5e9e9?AWSAccessKeyId=AKIAIUQNYZUJLIOKKJ3A&Expires=1801991780&Signature=R1NLUmnfopr8SR5%2Fi5bBJO6osv4%3D",16,5,0.761904761904762,0.509031198686371,0.499844382197323,0.607883919851466
56,"QVVN4Q","Monroe County High School","Monroeville","AL","Tigers","212 Tiger Drive","https://cdn2buckets-live-s3dfaaws-1mlao80q0xoqe.s3.amazonaws.com/e13c5c35-475f-4461-8124-a9f399854799?AWSAccessKeyId=AKIAIUQNYZUJLIOKKJ3A&Expires=1801991780&Signature=Q6Gnx8S7ve2WU8lUmpNnQZDMl9k%3D",12,4,0.75,0.514851485148515,0.503205128205128,0.605999301853262
57,"QG6Q6X","Straughn High School","Andalusia","AL","Tigers","29448 Straughn School Road","https://cdn2buckets-live-s3dfaaws-1mlao80q0xoqe.s3.amazonaws.com/4e26dadb-c4d5-41bc-97d9-306eab980648?AWSAccessKeyId=AKIAIUQNYZUJLIOKKJ3A&Expires=1801991781&Signature=W3%2BdKUle5ZgxJV5%2BLVZ6qtZFG80%3D",15,5,0.75,0.514619883040936,0.500965250965251,0.60535827180564
58,"8JHSTB","Lincoln High School","Lincoln","AL","Golden Bears","78989 AL-77","https://cdn2buckets-live-s3dfaaws-1mlao80q0xoqe.s3.amazonaws.com/b99d04a4-121e-421a-d0e4-d103e457682c?AWSAccessKeyId=AKIAIUQNYZUJLIOKKJ3A&Expires=1801991780&Signature=02FJrKlkHMe%2FOeqVbKCWffZvYF8%3D",15,5,0.75,0.513966480446927,0.500544662309368,0.605024433733767
59,"NHJ3SK","Brantley High School","Brantley","AL","Bulldog","8879 North Main Street","https://cdn2buckets-live-s3dfaaws-1mlao80q0xoqe.s3.amazonaws.com/ecda6ed8-bb30-4734-dc85-d4de57d5be61?AWSAccessKeyId=AKIAIUQNYZUJLIOKKJ3A&Expires=1801991779&Signature=LBPzTPoPV7fVvlf5ZLqevRrQPD4%3D",12,4,0.75,0.511278195488722,0.499186991869919,0.603744116388532
60,"QAQPMS","Clements High School ","Athens","AL","Colts","7730 US-72","https://cdn2buckets-live-s3dfaaws-1mlao80q0xoqe.s3.amazonaws.com/80692b9d-4a90-4473-a95e-c99220d629b8?AWSAccessKeyId=AKIAIUQNYZUJLIOKKJ3A&Expires=1801991779&Signature=nDOFxU5D%2FR4E89LneKzGmKlqZzg%3D",15,5,0.75,0.508510638297872,0.501818181818182,0.603433268858801
61,"ZALS9T","Anniston High School","Anniston","AL","Bulldogs","1301 Woodstock Ave","https://cdn2buckets-live-s3dfaaws-1mlao80q0xoqe.s3.amazonaws.com/58bd62c3-eafe-41f1-9c49-f7b8ec7c5156?AWSAccessKeyId=AKIAIUQNYZUJLIOKKJ3A&Expires=1801991779&Signature=0DdhXYzWDyr84bRyvG7QuB4Db48%3D",15,5,0.75,0.509259259259259,0.5,0.603240740740741
62,"X8A4UL","Bob Jones High School","Madison","AL","Patriots","650 Hughes Road","https://cdn2buckets-live-s3dfaaws-1mlao80q0xoqe.s3.amazonaws.com/a86acc9c-e1db-4d75-8bad-ce0815aad9fc?AWSAccessKeyId=AKIAIUQNYZUJLIOKKJ3A&Expires=1801991779&Signature=TiBOgycjgA19AUApb5aMTu9%2BkG0%3D",9,3,0.75,0.509036144578313,0.5,0.60316265060241
63,"Y5WX4G","Sulligent High School","Sulligent","AL","Blue Devils","P.O. Box 909","https://cdn2buckets-live-s3dfaaws-1mlao80q0xoqe.s3.amazonaws.com/3ce4eb1f-9cdf-43b1-af21-a7d09528dc93?AWSAccessKeyId=AKIAIUQNYZUJLIOKKJ3A&Expires=1801991781&Signature=v5DVgzuOkdifUfojKDC9CEhAsRk%3D",12,4,0.75,0.508620689655172,0.5,0.60301724137931
64,"MULQW8","Pleasant Grove High School","Pleasant Grove","AL","Spartans","100 Spartan Drive","https://cdn2buckets-live-s3dfaaws-1mlao80q0xoqe.s3.amazonaws.com/db01fdfa-754e-49a9-fa4a-ed748a6f582c?AWSAccessKeyId=AKIAIUQNYZUJLIOKKJ3A&Expires=1801991780&Signature=YrcFUnCtKicGcsJ4tHFGbvFzVPw%3D",15,5,0.75,0.507246376811594,0.5,0.602536231884058
65,"SPEUXT","Dothan High School","Dothan","AL","Wolves","3209 Reeves Street","https://cdn2buckets-live-s3dfaaws-1mlao80q0xoqe.s3.amazonaws.com/62037132-efdf-4860-9233-51a599f93c49?AWSAccessKeyId=AKIAIUQNYZUJLIOKKJ3A&Expires=1801991779&Signature=qzUEefy0Bd0BiUixq5P5Hx61wFU%3D",15,5,0.75,0.508064516129032,0.498685075608153,0.602493849547199
66,"UE5RMZ","Fort Payne High School","Fort Payne","AL","Wildcats","201 45th Street NE","https://cdn2buckets-live-s3dfaaws-1mlao80q0xoqe.s3.amazonaws.com/71080902-d90f-4631-a5c3-b1760a768d30?AWSAccessKeyId=AKIAIUQNYZUJLIOKKJ3A&Expires=1801991780&Signature=i6BDZxyu8SpS8Xd9f7TM6TN8R6g%3D",9,3,0.75,0.507462686567164,0.498897869213813,0.602336407601961
67,"GQT9C7","St. Luke's Episcopal School","Mobile","AL","Wildcats","1400 S University Blvd","https://cdn2buckets-live-s3dfaaws-1mlao80q0xoqe.s3.amazonaws.com/a0bda94a-6dea-4e78-f78c-f85e45cee932?AWSAccessKeyId=AKIAIUQNYZUJLIOKKJ3A&Expires=1801991781&Signature=vZBN6GingQIMzdgbyBXH29hP15c%3D",20,7,0.740740740740741,0.51413881748072,0.504221028396009,0.602300139513551
68,"5Q4WNC","Minor High School","Adamsville","AL","Tigers","2285 Minor Parkway","https://cdn2buckets-live-s3dfaaws-1mlao80q0xoqe.s3.amazonaws.com/c821bd67-ee6f-4187-91b5-c23ed297f034?AWSAccessKeyId=AKIAIUQNYZUJLIOKKJ3A&Expires=1801991780&Signature=M%2FKkyr4lM9fA67q4PMByUZWNIdc%3D",15,5,0.75,0.505084745762712,0.500372300819062,0.601872736221715
69,"42XLF4","Abbeville High School","Abbeville","AL",NA,"411 Graball Cutoff ","https://cdn2buckets-live-s3dfaaws-1mlao80q0xoqe.s3.amazonaws.com/68902448-a206-407e-9ea6-4508b440b072?AWSAccessKeyId=AKIAIUQNYZUJLIOKKJ3A&Expires=1801991779&Signature=Vu2hvr1rCUrENiYRerqEfJDv9Hg%3D",14,4,0.736842105263158,0.511705685618729,0.501466275659824,0.599200400986774
70,"6VNQO4","Priceville High School","Decatur","AL","Bulldogs","2650 North Bethel Rd.","https://cdn2buckets-live-s3dfaaws-1mlao80q0xoqe.s3.amazonaws.com/2ee310ed-9ded-440e-fe87-ec357e82ca63?AWSAccessKeyId=AKIAIUQNYZUJLIOKKJ3A&Expires=1801991780&Signature=AhH2dcioJbIjjAPXAtRxJXlEt%2F8%3D",17,6,0.739130434782609,0.508943089430894,0.49983979493752,0.598742203948237
71,"SDKNBD","Holy Spirit Catholic School","Tuscaloosa","AL","Saints","601 JAMES I HARRISON JR PKWY E","https://cdn2buckets-live-s3dfaaws-1mlao80q0xoqe.s3.amazonaws.com/7e8c3681-2826-4ab0-f3b4-9e633a962353?AWSAccessKeyId=AKIAIUQNYZUJLIOKKJ3A&Expires=1801991780&Signature=W6qElo721Rp6p1W7lFwkODmk0ts%3D",8,3,0.727272727272727,0.51937984496124,0.503467406380028,0.598558888240532
72,"BBF4GM","Billingsley High School","Billingsley","AL","Bears","2446 County Road 77","https://cdn2buckets-live-s3dfaaws-1mlao80q0xoqe.s3.amazonaws.com/fa6e4c55-b547-462f-fedf-78ba91496633?AWSAccessKeyId=AKIAIUQNYZUJLIOKKJ3A&Expires=1801991779&Signature=rFmJy%2F60hUQAfcsyff%2BOFEUGdrI%3D",16,6,0.727272727272727,0.510695187165775,0.50226586102719,0.59521887167391
73,"LZJKPY","Westbrook Christian School","Rainbow City","AL","Warrior","100 westminster drive","https://cdn2buckets-live-s3dfaaws-1mlao80q0xoqe.s3.amazonaws.com/a616e7ea-da11-4a59-e326-92a50e9de60c?AWSAccessKeyId=AKIAIUQNYZUJLIOKKJ3A&Expires=1801991781&Signature=eRl74Fq5wepklIG%2BOq30p5Urcek%3D",16,6,0.727272727272727,0.508810572687225,0.501948051948052,0.594479804336633
74,"423H5V","Cullman High School","Cullman","AL","Bearcats","510 13th St NE","https://cdn2buckets-live-s3dfaaws-1mlao80q0xoqe.s3.amazonaws.com/0b3f8fcc-0438-4bf4-cde8-78adc65999eb?AWSAccessKeyId=AKIAIUQNYZUJLIOKKJ3A&Expires=1801991779&Signature=SfQak84PvE1nci4SPmuqlDEU5LE%3D",11,4,0.733333333333333,0.504258943781942,0.498174670036507,0.59436763116614
75,"EQC292","Southern Choctaw High School","Gilbertown","AL",NA,"10941 Highway 17","https://cdn2buckets-live-s3dfaaws-1mlao80q0xoqe.s3.amazonaws.com/3a86bf3b-9665-450e-eefa-b18786df9e7f?AWSAccessKeyId=AKIAIUQNYZUJLIOKKJ3A&Expires=1801991780&Signature=Mqr95U3Co3Rtc6RwvooZinZ2800%3D",8,3,0.727272727272727,0.50920245398773,0.500693481276006,0.594303320123798
76,"92YK4D","Etowah High School","Attalla","AL","Blue Devils","201 Case Ave SW","https://cdn2buckets-live-s3dfaaws-1mlao80q0xoqe.s3.amazonaws.com/86e02453-b382-4b79-c03c-c3ead51092a3?AWSAccessKeyId=AKIAIUQNYZUJLIOKKJ3A&Expires=1801991779&Signature=ZXshyRFrZ0c9r7PlkDopYedDoHo%3D",16,6,0.727272727272727,0.509009009009009,0.500919963201472,0.594292234862612
77,"SQM35W","Locust Fork High School","Locust Fork","AL","Hornets","77 School Rd","https://cdn2buckets-live-s3dfaaws-1mlao80q0xoqe.s3.amazonaws.com/c26190bc-63e8-4790-9d8e-0897ceae245f?AWSAccessKeyId=AKIAIUQNYZUJLIOKKJ3A&Expires=1801991780&Signature=oWARfTJZ5UujO%2BAiEnV0%2FMnegOo%3D",16,6,0.727272727272727,0.509009009009009,0.500415973377704,0.59416623740667
78,"BXY926","Escambia County High School","Atmore","AL","Blue Devils","1215 S. Presley St","https://cdn2buckets-live-s3dfaaws-1mlao80q0xoqe.s3.amazonaws.com/73fa0e8a-5339-4c58-b1e4-4c7325d843cb?AWSAccessKeyId=AKIAIUQNYZUJLIOKKJ3A&Expires=1801991779&Signature=XuVjU46WO3AltzQq2xHNgEtCtfM%3D",8,3,0.727272727272727,0.505791505791506,0.501040943789035,0.593196353883377
79,"PVPEJS","Wilson High School","Florence","AL","Warriors","7601 HIGHWAY 17 NORTH","https://cdn2buckets-live-s3dfaaws-1mlao80q0xoqe.s3.amazonaws.com/3124c16c-cfb7-456c-d8a5-0f8a6755b35a?AWSAccessKeyId=AKIAIUQNYZUJLIOKKJ3A&Expires=1801991781&Signature=YJocjCCC32cyFGBudUOATdNY54g%3D",16,6,0.727272727272727,0.505747126436782,0.501007049345418,0.593172347498319
80,"9HVX95","Central High School, Tuscaloosa","Tuscaloosa","AL","Falcons","905 15th Street","https://cdn2buckets-live-s3dfaaws-1mlao80q0xoqe.s3.amazonaws.com/2056c2ea-cc1e-47e2-b8ba-b08a944d9fed?AWSAccessKeyId=AKIAIUQNYZUJLIOKKJ3A&Expires=1801991779&Signature=Msk6alBea%2Fz48%2BremafuSW6DSPA%3D",16,6,0.727272727272727,0.506514657980456,0.499404761904762,0.593040411678441
81,"MUUAEV","Pisgah High School","Pisgah","AL","Eagles","60 Metcalf Street","https://cdn2buckets-live-s3dfaaws-1mlao80q0xoqe.s3.amazonaws.com/f673874d-66c0-4e2b-a9a1-cda6c796d7e9?AWSAccessKeyId=AKIAIUQNYZUJLIOKKJ3A&Expires=1801991780&Signature=pbXdzdtVQN71UXnd5K2qM3QLs7M%3D",13,5,0.722222222222222,0.510928961748634,0.5,0.592714025500911
82,"4KUEC4","Paul W. Bryant High School","Cottondale","AL","Stampede","6315 Mary Harrmon-Bryant Drive","https://cdn2buckets-live-s3dfaaws-1mlao80q0xoqe.s3.amazonaws.com/8cd28591-d227-4824-fd71-e6be49e31e04?AWSAccessKeyId=AKIAIUQNYZUJLIOKKJ3A&Expires=1801991780&Signature=Kaj6gmYIGnJ%2FabOH7kivz5l3dTY%3D",13,5,0.722222222222222,0.509478672985782,0.5,0.592206424433913
83,"SUFJ43","Brilliant High School","Brilliant","AL","Tigers","690 Main Street","https://cdn2buckets-live-s3dfaaws-1mlao80q0xoqe.s3.amazonaws.com/ffb62e31-2a7e-4c9e-82d8-73af09c2b4d9?AWSAccessKeyId=AKIAIUQNYZUJLIOKKJ3A&Expires=1801991779&Signature=LL%2BCsA6fdq4gBXLzQRv39fKdsEE%3D",18,6,0.72,0.50958904109589,0.503345724907063,0.592192595610327
84,"QT6XAE","UMS-Wright Preparatory School","Mobile","AL","Bulldogs","65 Mobile St","https://cdn2buckets-live-s3dfaaws-1mlao80q0xoqe.s3.amazonaws.com/1065573c-c58c-402d-b96b-d9b222ea2140?AWSAccessKeyId=AKIAIUQNYZUJLIOKKJ3A&Expires=1801991781&Signature=a7XkTLE7Es3XyfB26Dv3XcqXhRY%3D",18,7,0.72,0.50761421319797,0.501903208265362,0.59114077668563
85,"XGNYJ4","Asbury High School","Albertville","AL","Rams","1990 Asbury Rd","https://cdn2buckets-live-s3dfaaws-1mlao80q0xoqe.s3.amazonaws.com/811d5e7b-3508-4a57-e971-88b427fbd2bf?AWSAccessKeyId=AKIAIUQNYZUJLIOKKJ3A&Expires=1801991779&Signature=NNIcRqvqqxWbBAJ5AlgwDynRzTg%3D",10,4,0.714285714285714,0.508474576271186,0.500560538116592,0.588820521938349
86,"NG6A4W","Wetumpka High School","Wetumpka","AL","Indians","1251 Coosa River Parkway","https://cdn2buckets-live-s3dfaaws-1mlao80q0xoqe.s3.amazonaws.com/8f5ab0e1-f3e2-44bb-aa07-f4bcebf84831?AWSAccessKeyId=AKIAIUQNYZUJLIOKKJ3A&Expires=1801991781&Signature=GU7IhqKbz9G6cY%2FoO2JqhRatOfY%3D",15,6,0.714285714285714,0.50752688172043,0.498349834983498,0.587936153062311
87,"NHFMHN","Wenonah High School","Birmingham","AL","Dragons","2800 Wilson Road SW","https://cdn2buckets-live-s3dfaaws-1mlao80q0xoqe.s3.amazonaws.com/42c27aec-c55f-4ce4-dc02-2cdaca831517?AWSAccessKeyId=AKIAIUQNYZUJLIOKKJ3A&Expires=1801991781&Signature=deuw7TCQSmq2XzCYbChH0gp8DgM%3D",12,5,0.705882352941177,0.509915014164306,0.499198289684661,0.585622768555143
88,"FYHTQE","Thorsby High School","Thorsby","AL","Rebels","54 Opportunity Drive","https://cdn2buckets-live-s3dfaaws-1mlao80q0xoqe.s3.amazonaws.com/27bc4870-2d8f-4b4a-8d1b-8f92aceb96e5?AWSAccessKeyId=AKIAIUQNYZUJLIOKKJ3A&Expires=1801991781&Signature=rXpOCP18dajKhelotP7cOO%2FGtN4%3D",14,6,0.7,0.509803921568627,0.50050916496945,0.583558663791382
89,"KCEYC6","Daphne High School","Daphne","AL","Trojans","9300 Champions Way","https://cdn2buckets-live-s3dfaaws-1mlao80q0xoqe.s3.amazonaws.com/e53cc359-f1a4-46b8-ac60-54cc72dd3ce4?AWSAccessKeyId=AKIAIUQNYZUJLIOKKJ3A&Expires=1801991779&Signature=EpiMCjpo92BnWjNbNZJvLp55bI4%3D",14,6,0.7,0.509036144578313,0.501225490196078,0.583469023151429
90,"B8CHF9","Jackson High School","Jackson","AL","Aggies","321 Stanley Drive","https://cdn2buckets-live-s3dfaaws-1mlao80q0xoqe.s3.amazonaws.com/c534e72c-75ad-4537-aa98-81f563d60288?AWSAccessKeyId=AKIAIUQNYZUJLIOKKJ3A&Expires=1801991780&Signature=qn9TnwP2dviBqG576e5omOYnZNs%3D",16,6,0.695652173913043,0.51219512195122,0.50210970464135,0.583056588408482
91,"VDAQMX","P.D. Jackson-Olin High School","Birmingham","AL","Mustangs","1300 Avenue F","https://cdn2buckets-live-s3dfaaws-1mlao80q0xoqe.s3.amazonaws.com/070708be-4072-4217-f280-63bc5c69c33e?AWSAccessKeyId=AKIAIUQNYZUJLIOKKJ3A&Expires=1801991780&Signature=%2BCI3Qdabyooy4gz%2F1EcqubB%2FJis%3D",16,7,0.695652173913043,0.511056511056511,0.500250125062531,0.582193179700629
92,"6ZRF39","T.R. Miller High School","Brewton","AL","Tigers","1835 Douglas Avenue","https://cdn2buckets-live-s3dfaaws-1mlao80q0xoqe.s3.amazonaws.com/e072d787-f342-4204-9ae5-fe730b5375ca?AWSAccessKeyId=AKIAIUQNYZUJLIOKKJ3A&Expires=1801991781&Signature=Wib7RQTP3BWKFnW19WmWjNyO6FY%3D",7,3,0.7,0.505376344086022,0.5,0.581881720430107
93,"PMVGLX","Sand Rock High School","Sand Rock","AL","Wildcats","1950 Sand Rock Ave.","https://cdn2buckets-live-s3dfaaws-1mlao80q0xoqe.s3.amazonaws.com/0bbf7dcf-5bfd-4a52-9ff4-050eb67fc1aa?AWSAccessKeyId=AKIAIUQNYZUJLIOKKJ3A&Expires=1801991780&Signature=rRh9GtVVEj1vV%2BenHGxPdhDHeRE%3D",18,8,0.692307692307692,0.510593220338983,0.501805054151625,0.581081967579627
94,"M9PEJA","Amelia Love  Johnson High School","Thomaston","AL","Eagle","P. O Box 67","https://cdn2buckets-live-s3dfaaws-1mlao80q0xoqe.s3.amazonaws.com/73e85c72-51a8-4f8b-c708-90ce77e70d26?AWSAccessKeyId=AKIAIUQNYZUJLIOKKJ3A&Expires=1801991779&Signature=ffJOWmCrIFbD8it07X%2BGqAnjN7g%3D",11,5,0.6875,0.514851485148515,0.502724795640327,0.580879218712062
95,"TJPRKH","Spain Park High School","Birmingham","AL","Jaguar","4700 Jaguar Drive","https://cdn2buckets-live-s3dfaaws-1mlao80q0xoqe.s3.amazonaws.com/87d53303-98eb-4562-fb75-1f44c6c866d0?AWSAccessKeyId=AKIAIUQNYZUJLIOKKJ3A&Expires=1801991780&Signature=kSqLHm7RorLdLjXTpT3Ms02sz4w%3D",16,7,0.695652173913043,0.506216696269982,0.500456621004566,0.580550868510853
96,"ZP7KJC","Springville High School","Springville","AL","Tigers","8295 US Hwy 11","https://cdn2buckets-live-s3dfaaws-1mlao80q0xoqe.s3.amazonaws.com/ac7453ae-d41d-4681-e1f8-14957a35e198?AWSAccessKeyId=AKIAIUQNYZUJLIOKKJ3A&Expires=1801991781&Signature=KK3XVrZCAPXbHhqey6Ew21Wm%2FuM%3D",16,7,0.695652173913043,0.506261180679785,0.499842915488533,0.580413011675275
97,"FAQRG4","Benjamin Russell High School","Alexander City","AL","Wildcats","225 Heard Blvd","https://cdn2buckets-live-s3dfaaws-1mlao80q0xoqe.s3.amazonaws.com/a2d6dfa0-5ecd-4d29-d1e0-0f7325cc7cab?AWSAccessKeyId=AKIAIUQNYZUJLIOKKJ3A&Expires=1801991779&Signature=S5M9JsuReKJ0pM9ksdXXV%2B0xRXE%3D",9,4,0.692307692307692,0.508710801393728,0.49808847624249,0.579493976471504
98,"STK2MR","Buckhorn High School","New Market","AL","Bucks","4123 Winchester Road","https://cdn2buckets-live-s3dfaaws-1mlao80q0xoqe.s3.amazonaws.com/6d803327-a5bd-485e-b7e1-1894099dcd32?AWSAccessKeyId=AKIAIUQNYZUJLIOKKJ3A&Expires=1801991779&Signature=ZGUS6LC2DeT7gLvzNMzNyvXsYeA%3D",18,8,0.692307692307692,0.507220216606498,0.498305084745763,0.579026423921792
99,"9VSJYV","North Sand Mtn. High School","Higdon","AL","Bison","29333 AL HWY 71","https://cdn2buckets-live-s3dfaaws-1mlao80q0xoqe.s3.amazonaws.com/113ef02e-9bf2-48b4-ac3d-fed1bb9a7c7d?AWSAccessKeyId=AKIAIUQNYZUJLIOKKJ3A&Expires=1801991780&Signature=z9wpQOPtTWbOHf864sITDDshu4A%3D",9,4,0.692307692307692,0.506493506493506,0.498853736817973,0.578909238400298
100,"FQ6D7M","Carbon Hill High School","Carbon Hill","AL","Bulldog","217 Bulldog Boulevard","https://cdn2buckets-live-s3dfaaws-1mlao80q0xoqe.s3.amazonaws.com/e8f7395e-3864-4377-b9a0-ff00cf17c78e?AWSAccessKeyId=AKIAIUQNYZUJLIOKKJ3A&Expires=1801991779&Signature=9PvYu9X9thU9a0ypvzbTa6tnuZ4%3D",20,9,0.689655172413793,0.507462686567164,0.501222493887531,0.578779632735907
101,"U3PMQ3","Jacksonville High School","Jacksonville","AL","Golden Eagles","1000 George Douthit Dr SW","https://cdn2buckets-live-s3dfaaws-1mlao80q0xoqe.s3.amazonaws.com/58670a22-4f52-4892-d312-6b6a5c0d6109?AWSAccessKeyId=AKIAIUQNYZUJLIOKKJ3A&Expires=1801991780&Signature=h9TU3jfOO8IYKUfboXOILoWqD54%3D",11,4,0.6875,0.506726457399103,0.5,0.577354260089686
102,"LPKVK8","Northside Methodist Academy","Dothan","AL","Knights","2600 Redmond Rd","https://cdn2buckets-live-s3dfaaws-1mlao80q0xoqe.s3.amazonaws.com/40a7a546-e821-4b68-cc93-6ae95cc1fe61?AWSAccessKeyId=AKIAIUQNYZUJLIOKKJ3A&Expires=1801991780&Signature=fE1jInpxzliehU%2FtkteLFhLqRx8%3D",17,7,0.68,0.51044776119403,0.50269687162891,0.576330934325138
103,"H6QPLL","Mobile Christian School","Mobile","AL","Leopards","5900 Cottage Hill Road","https://cdn2buckets-live-s3dfaaws-1mlao80q0xoqe.s3.amazonaws.com/f7b8b5a8-1987-40e8-a960-10e319bd81a4?AWSAccessKeyId=AKIAIUQNYZUJLIOKKJ3A&Expires=1801991780&Signature=ENwS00pzru7TYzT2kzkN%2BBsA37M%3D",15,7,0.681818181818182,0.506,0.499472016895459,0.574695276951138
104,"ACXQTY","Montgomery Catholic Preparatory School","Montgomery","AL","Knights","5350 Vaughn Road","https://cdn2buckets-live-s3dfaaws-1mlao80q0xoqe.s3.amazonaws.com/de5229f3-870a-4190-8e32-9f9e6af7beb6?AWSAccessKeyId=AKIAIUQNYZUJLIOKKJ3A&Expires=1801991780&Signature=1Dtzc%2B5HcAyhYscNKvCe%2FUQLwLc%3D",11,5,0.6875,0.5,0.498111425873466,0.574527856468366
105,"65X73S","J.B. Pennington High School","Blountsville","AL","Tigers","81 College Street","https://cdn2buckets-live-s3dfaaws-1mlao80q0xoqe.s3.amazonaws.com/a79f9708-7560-420d-b21d-d388e08c2b9d?AWSAccessKeyId=AKIAIUQNYZUJLIOKKJ3A&Expires=1801991780&Signature=vOsES1wrPRxPjXPvXTSYAnBq9jE%3D",12,6,0.666666666666667,0.506535947712418,0.50126582278481,0.569270704062216
106,"QYXH5S","Waterloo School","Waterloo","AL","Cougar","311 School House Lane","https://cdn2buckets-live-s3dfaaws-1mlao80q0xoqe.s3.amazonaws.com/b0b91d95-e5af-4bfb-e41a-843660fd2d0a?AWSAccessKeyId=AKIAIUQNYZUJLIOKKJ3A&Expires=1801991781&Signature=iwPsHOJpN7IIxbwLu6MavsEMaGU%3D",14,7,0.666666666666667,0.506849315068493,0.500376789751319,0.569158124378469
107,"D63DSX","Weaver High School","Weaver","AL","Bearcats","917 Clairmont Drive","https://cdn2buckets-live-s3dfaaws-1mlao80q0xoqe.s3.amazonaws.com/600044d5-3853-4ee4-b094-0b1ef708a511?AWSAccessKeyId=AKIAIUQNYZUJLIOKKJ3A&Expires=1801991781&Signature=DB%2BfPI70gHuQ%2FsXgZYJqa3RFWIE%3D",10,5,0.666666666666667,0.505494505494505,0.501270110076207,0.568907271108795
108,"QGGRY7","Sardis High School","Sardis City","AL",NA,NA,"https://cdn2buckets-live-s3dfaaws-1mlao80q0xoqe.s3.amazonaws.com/d831122f-ab85-443e-c7c6-a324e0b83596?AWSAccessKeyId=AKIAIUQNYZUJLIOKKJ3A&Expires=1801991780&Signature=ye%2FrOTyXrZ3tykui%2BE3PD5s8has%3D",12,6,0.666666666666667,0.50635593220339,0.5,0.568891242937853
109,"GXQ5TR","Hatton High School","Town Creek","AL","Hornet","6909 Alabama Hwy 101","https://cdn2buckets-live-s3dfaaws-1mlao80q0xoqe.s3.amazonaws.com/3e3a1c7d-bd6f-4a84-e4a8-d11a6382a597?AWSAccessKeyId=AKIAIUQNYZUJLIOKKJ3A&Expires=1801991780&Signature=o%2BW7IVSxXNqc3%2FioM%2FBuSSAwtRg%3D",14,7,0.666666666666667,0.503685503685504,0.499674690956409,0.567875265695695
110,"BNGXBT","Hokes Bluff High School","Hokes Bluff","AL","Eagles","1865 Appalachian Highway","https://cdn2buckets-live-s3dfaaws-1mlao80q0xoqe.s3.amazonaws.com/2d3b8c8a-a3ba-433f-8a1e-769497cb5878?AWSAccessKeyId=AKIAIUQNYZUJLIOKKJ3A&Expires=1801991780&Signature=jBvJr4MVAmDS6BMFdJXeO1ET7Lk%3D",8,4,0.666666666666667,0.502824858757062,0.500576701268743,0.567799542548824
111,"H3GBW9","Calera High School","Calera","AL","Eagle","100 Eagle Drive ","https://cdn2buckets-live-s3dfaaws-1mlao80q0xoqe.s3.amazonaws.com/e9b7c419-89f2-4a19-ddb5-00673bb1c436?AWSAccessKeyId=AKIAIUQNYZUJLIOKKJ3A&Expires=1801991779&Signature=t42tDxjH9kN1v4LsfSPKngNMOD4%3D",14,7,0.666666666666667,0.50319829424307,0.499828237718997,0.56774312908149
112,"3M7UAH","Susan Moore High School","Blountsville","AL","Bulldogs","4040 Susan Moore Rd","https://cdn2buckets-live-s3dfaaws-1mlao80q0xoqe.s3.amazonaws.com/7c7e85cc-5a28-48ce-afe8-1f1ad0178cab?AWSAccessKeyId=AKIAIUQNYZUJLIOKKJ3A&Expires=1801991781&Signature=%2FsnUw1JIq70Xd9PmgUjA9fGeBgk%3D",11,6,0.647058823529412,0.504398826979472,0.500285225328009,0.560434425186582
113,"T3FGKJ","Mary G. Montgomery High School","Semmes","AL","Vikings","4275 Snow Road N ","https://cdn2buckets-live-s3dfaaws-1mlao80q0xoqe.s3.amazonaws.com/8f807357-544f-495b-d663-9a4cbf5eac7c?AWSAccessKeyId=AKIAIUQNYZUJLIOKKJ3A&Expires=1801991780&Signature=BQwUbCjyYQP%2Bx8%2FFjzwFWYOJrLc%3D",11,6,0.647058823529412,0.504109589041096,0.50047664442326,0.560381046681963
114,"2EKQXZ","New Brockton High School","New Brockton","AL","Gamecock","P.O. Box 399","https://cdn2buckets-live-s3dfaaws-1mlao80q0xoqe.s3.amazonaws.com/c80dbbde-f70b-42ac-8996-caee4e50c6cd?AWSAccessKeyId=AKIAIUQNYZUJLIOKKJ3A&Expires=1801991780&Signature=%2BoXzK53WGQvZIOueVMGOwL76vVw%3D",11,6,0.647058823529412,0.505226480836237,0.49843912591051,0.560262579182075
115,"8ELZNV","Vinemont High School","Vinemont","AL","Eagles","High School Road","https://cdn2buckets-live-s3dfaaws-1mlao80q0xoqe.s3.amazonaws.com/166eff38-0dd6-4fa3-c97f-9030f1ea59ca?AWSAccessKeyId=AKIAIUQNYZUJLIOKKJ3A&Expires=1801991781&Signature=BBXxca2OqM5yg11d3CBn7f5dREQ%3D",18,10,0.642857142857143,0.506666666666667,0.499281092739037,0.55929646366095
116,"UPFCRU","Lee-Scott Academy","Auburn","AL","Warriors","1601 Academy Drive","https://cdn2buckets-live-s3dfaaws-1mlao80q0xoqe.s3.amazonaws.com/09638045-bb25-4f06-c678-465bdde6c9de?AWSAccessKeyId=AKIAIUQNYZUJLIOKKJ3A&Expires=1801991780&Signature=p5Si2hVeGoDMUkHLjeCFWoJv6KY%3D",9,5,0.642857142857143,0.503759398496241,0.499193548387097,0.558257033713316
117,"UXTFHV","Chelsea High School","Chelsea","AL",NA,"10510 HWY 11","https://cdn2buckets-live-s3dfaaws-1mlao80q0xoqe.s3.amazonaws.com/19516aa5-2448-4b20-ecf4-5f37bd7a93a6?AWSAccessKeyId=AKIAIUQNYZUJLIOKKJ3A&Expires=1801991779&Signature=sUUCpxjvgb8GKRi2URsOZUXg%2BVQ%3D",9,4,0.642857142857143,0.502155172413793,0.499260355029586,0.557712256245081
118,"TD3HRV","Saraland High School","Saraland","AL","Spartans","1115 Industrial Parkway","https://cdn2buckets-live-s3dfaaws-1mlao80q0xoqe.s3.amazonaws.com/4210fc58-83dd-4dcc-ab37-98261283f6cc?AWSAccessKeyId=AKIAIUQNYZUJLIOKKJ3A&Expires=1801991780&Signature=XsjOvAwwGCzdd8tDQb%2F3VbwR8G0%3D",14,7,0.636363636363636,0.506147540983607,0.501984126984127,0.557193125635749
119,"45QMK2","Providence Christian School","Dothan","AL","Eagle","4847 Murphy Mill Road","https://cdn2buckets-live-s3dfaaws-1mlao80q0xoqe.s3.amazonaws.com/07d059ab-f9f8-43ad-e32d-7fb7e6b23393?AWSAccessKeyId=AKIAIUQNYZUJLIOKKJ3A&Expires=1801991780&Signature=xLuufkaHGVhot%2F9eBqe4EwUsYQ8%3D",16,9,0.64,0.501084598698482,0.500280112044818,0.556449637555673
120,"CXMKAY","Lanett High School	","Lanett","AL","Panthers","1301 South 8th Ave","https://cdn2buckets-live-s3dfaaws-1mlao80q0xoqe.s3.amazonaws.com/4c4a624f-5157-45e7-a2bc-a5be6fd13622?AWSAccessKeyId=AKIAIUQNYZUJLIOKKJ3A&Expires=1801991780&Signature=6bie4UFK2EnnYMIrpy0PINkugN8%3D",9,5,0.642857142857143,0.5,0.49680170575693,0.55634328358209
121,"CZQC6A","Shelby County High School","Columbiana","AL","Wildcats","101 Washington St.","https://cdn2buckets-live-s3dfaaws-1mlao80q0xoqe.s3.amazonaws.com/a3f41dc1-b6a9-4b59-dc60-c84242625970?AWSAccessKeyId=AKIAIUQNYZUJLIOKKJ3A&Expires=1801991780&Signature=r9XrlVEqrgVlNW7feCjRlZqksYw%3D",12,7,0.631578947368421,0.506393861892583,0.499751614505713,0.554807334236201
122,"YBYZNK","Fayette County High School","Fayette","AL","Tigers","202 Tiger Drive","https://cdn2buckets-live-s3dfaaws-1mlao80q0xoqe.s3.amazonaws.com/1cdbe9d1-5005-425a-cb0e-a78ccc4e0981?AWSAccessKeyId=AKIAIUQNYZUJLIOKKJ3A&Expires=1801991779&Signature=c205PPAVOp9csdvYGCYWSu62lv8%3D",12,7,0.631578947368421,0.504043126684636,0.499654457498272,0.553960287661559
123,"TGO8P9","Gulf Shores High School","Gulf Shores","AL","Dolphins","600 E. 15th Avenue","https://cdn2buckets-live-s3dfaaws-1mlao80q0xoqe.s3.amazonaws.com/9a85f701-4aa6-4f4f-fd18-9f91e4299fae?AWSAccessKeyId=AKIAIUQNYZUJLIOKKJ3A&Expires=1801991780&Signature=5edXwoV8OfQjP5X17heIHpk6j3U%3D",17,10,0.62962962962963,0.502415458937198,0.498257839721254,0.552261722410185
124,"26R2AP","Pleasant Home High School","Andalusia","AL","Eagles","12548 Falco Road","https://cdn2buckets-live-s3dfaaws-1mlao80q0xoqe.s3.amazonaws.com/6d09d434-d61c-4e3e-9d52-1ba432ef870a?AWSAccessKeyId=AKIAIUQNYZUJLIOKKJ3A&Expires=1801991780&Signature=NCyU63iEouJoIvw9S0AQ7L26d9E%3D",10,6,0.625,0.504237288135593,0.498868778280543,0.551200245417593
125,"XWD7CP","Carroll High School","Ozark","AL","Eagles","141 Eagle Way","https://cdn2buckets-live-s3dfaaws-1mlao80q0xoqe.s3.amazonaws.com/6a4b32d1-7334-4384-fad7-8341ff7ee532?AWSAccessKeyId=AKIAIUQNYZUJLIOKKJ3A&Expires=1801991779&Signature=H4omWw%2Fm%2BPaM7ANBcL3MqCtNwvE%3D",10,5,0.625,0.503048780487805,0.49933598937583,0.550901070514689
126,"GWGDUJ","Trinity Presbyterian School","Montgomery","AL","Wildcats","1700 E Trinity Blvd","https://cdn2buckets-live-s3dfaaws-1mlao80q0xoqe.s3.amazonaws.com/a4d8687b-e9ce-454f-ea16-1da31cf1045a?AWSAccessKeyId=AKIAIUQNYZUJLIOKKJ3A&Expires=1801991781&Signature=AvocxhrSIKWbSIsf%2Fqd3hI20JaE%3D",10,5,0.625,0.502762430939227,0.499493414387031,0.550840204425487
127,"SPM2YP","Beauregard High School","Opelika","AL","Hornets","7343 Alabama Highway 51","https://cdn2buckets-live-s3dfaaws-1mlao80q0xoqe.s3.amazonaws.com/1c582053-1ad2-4e89-f480-77278c7210bb?AWSAccessKeyId=AKIAIUQNYZUJLIOKKJ3A&Expires=1801991779&Signature=oEwpH4%2FszlVmmQmFK8azvlQ7E0s%3D",10,6,0.625,0.5,0.498552821997106,0.549638205499276
128,"CX8CJT","Belgreen High School","Russellville","AL","Bulldog","14220 Hwy 187","https://cdn2buckets-live-s3dfaaws-1mlao80q0xoqe.s3.amazonaws.com/e08f7002-345c-42f1-8fbb-dc9115505060?AWSAccessKeyId=AKIAIUQNYZUJLIOKKJ3A&Expires=1801991779&Signature=2EOkdpOcahhBn7FdNq5u88VFZ%2BU%3D",13,7,0.619047619047619,0.503092783505155,0.500303582270795,0.548777417413551
129,"YEUJWR","The Altamont School","Birmingham","AL","Knights","The Altamont School,4801 Altamont Rd. S.","https://cdn2buckets-live-s3dfaaws-1mlao80q0xoqe.s3.amazonaws.com/5a7d6399-cca8-4be1-dff9-f68e817dd4bc?AWSAccessKeyId=AKIAIUQNYZUJLIOKKJ3A&Expires=1801991781&Signature=eW%2FqJe2%2FzzR9xBQ2kB873NY9Srk%3D",8,5,0.615384615384615,0.506437768240343,0.50027041644132,0.548474669148296
130,"N2XQZ5","Slocomb High School","Slocomb","AL","Redtops","591 S County Road 9","https://cdn2buckets-live-s3dfaaws-1mlao80q0xoqe.s3.amazonaws.com/5616264c-f0d4-4f4a-a386-6d481aebd160?AWSAccessKeyId=AKIAIUQNYZUJLIOKKJ3A&Expires=1801991780&Signature=ruSame4UQpx3BJVsYX9z7qqG45U%3D",10,5,0.625,0.497076023391813,0.4979035639413,0.548452499172459
131,"ANW2EN","Tuscaloosa Academy","Tuscaloosa","AL","Knights","420 Rice Valley Road N","https://cdn2buckets-live-s3dfaaws-1mlao80q0xoqe.s3.amazonaws.com/54d1985e-d07b-48f1-8a57-9fe9d6556f8e?AWSAccessKeyId=AKIAIUQNYZUJLIOKKJ3A&Expires=1801991781&Signature=NZATefBzqDtsbFKGf5Wzk7%2FCb74%3D",8,5,0.615384615384615,0.505154639175258,0.50026525198939,0.548024282862534
132,"ESRTSZ","Briarwood Christian School","Birmingham","AL","Lion","6255 Cahaba Valley Road","https://cdn2buckets-live-s3dfaaws-1mlao80q0xoqe.s3.amazonaws.com/c3c1315f-e4f0-4d73-d856-fc8e21293eef?AWSAccessKeyId=AKIAIUQNYZUJLIOKKJ3A&Expires=1801991779&Signature=LJq%2BZkPssCNEfRH%2F4WXUfH3gU9U%3D",13,8,0.619047619047619,0.500910746812386,0.499832943534915,0.547896044887111
133,"GRSAGY","Bibb County High School","Centreville","AL","Choctaws","220 Birmingham Road","https://cdn2buckets-live-s3dfaaws-1mlao80q0xoqe.s3.amazonaws.com/21b14a72-0d02-428d-ecc8-b7be7be27482?AWSAccessKeyId=AKIAIUQNYZUJLIOKKJ3A&Expires=1801991779&Signature=ZtBEGDYDPla9dCkK5sdY0ZopBvk%3D",11,7,0.611111111111111,0.505847953216374,0.5,0.546491228070175
134,"CKQBNT","Foley High School","Foley","AL","Lions","1 Pride Place","https://cdn2buckets-live-s3dfaaws-1mlao80q0xoqe.s3.amazonaws.com/8d36c26d-8ba7-4795-805b-aa938aa83605?AWSAccessKeyId=AKIAIUQNYZUJLIOKKJ3A&Expires=1801991780&Signature=tIDyA1IE66jgbo7pD00u5hI6b1c%3D",11,7,0.611111111111111,0.505524861878453,0.5,0.546378146101903
135,"NYJ75M","Sparkman High School","Harvest","AL","Senators","2616 Jeff Road","https://cdn2buckets-live-s3dfaaws-1mlao80q0xoqe.s3.amazonaws.com/4323d381-656d-4ae8-8f09-8dbf84eb1b0f?AWSAccessKeyId=AKIAIUQNYZUJLIOKKJ3A&Expires=1801991781&Signature=NJyu%2ByVTYOSdOLl04L81o9sq9rw%3D",11,7,0.611111111111111,0.504081632653061,0.498421468034728,0.545478382881698
136,"BX4VKB","Central High School, Florence","Florence","AL","Wildcats","300 Co Rd 200","https://cdn2buckets-live-s3dfaaws-1mlao80q0xoqe.s3.amazonaws.com/35fe17cd-7fe3-4fd7-d1de-be409b6d07a2?AWSAccessKeyId=AKIAIUQNYZUJLIOKKJ3A&Expires=1801991779&Signature=vcB8b5krFl3QDNlgdYHJts3qECE%3D",14,9,0.608695652173913,0.505494505494505,0.499137435307648,0.545185696619554
137,"CK93GZ","Samson High School","Samson","AL","Tigers","209 North Broad St.","https://cdn2buckets-live-s3dfaaws-1mlao80q0xoqe.s3.amazonaws.com/716f859a-aaf2-4429-8532-64bd2d664723?AWSAccessKeyId=AKIAIUQNYZUJLIOKKJ3A&Expires=1801991780&Signature=bHZiQ%2BAekTMry2I5%2B6z1TTKMGHw%3D",11,7,0.611111111111111,0.502824858757062,0.497389033942559,0.544780403495056
138,"SANXCV","Prattville Christian Academy","Prattville","AL","Panthers","322 Old Farm Lane North","https://cdn2buckets-live-s3dfaaws-1mlao80q0xoqe.s3.amazonaws.com/ed7bfcaf-e79e-4eea-bf9e-8b4fee45a449?AWSAccessKeyId=AKIAIUQNYZUJLIOKKJ3A&Expires=1801991780&Signature=Dx0voZe8EKWiPOs15oa1RwyuvYI%3D",15,10,0.6,0.505263157894737,0.498009730207873,0.541344537815126
139,"F2654W","Childersburg High School","Childersburg","AL","Tiger","1325 Faye S. Perry Dr","https://cdn2buckets-live-s3dfaaws-1mlao80q0xoqe.s3.amazonaws.com/f66950b3-e34e-41af-fc8b-df7ec1fcd49e?AWSAccessKeyId=AKIAIUQNYZUJLIOKKJ3A&Expires=1801991779&Signature=Um06x2t9fbl9go1hrNfyNN5VlQ0%3D",6,4,0.6,0.503246753246753,0.5,0.541136363636364
140,"DQ3PJ2","Homewood High School","Homewood","AL","Patriots","1901 South Lakeshore Drive","https://cdn2buckets-live-s3dfaaws-1mlao80q0xoqe.s3.amazonaws.com/b161f43d-f21a-491f-eb06-2de87b4b0c40?AWSAccessKeyId=AKIAIUQNYZUJLIOKKJ3A&Expires=1801991780&Signature=4ZkyR5ts6Gc7FZ7lyyyMsV4Ab%2Bw%3D",12,8,0.6,0.503048780487805,0.499007279947055,0.540818893157495
141,"HF4UPN","Selma High School","Selma","AL","Saints","2180 Broad Street","https://cdn2buckets-live-s3dfaaws-1mlao80q0xoqe.s3.amazonaws.com/7b17809f-17cc-4477-b571-040a5126bf30?AWSAccessKeyId=AKIAIUQNYZUJLIOKKJ3A&Expires=1801991780&Signature=yitc6Rc5l%2B1prUyBCs1BOSCbSSU%3D",12,8,0.6,0.501845018450184,0.498602571268865,0.540296399274781
142,"SD3Y7H","Russellville High School","Russellville","AL","Golden Tigers","1865 Waterloo Road","https://cdn2buckets-live-s3dfaaws-1mlao80q0xoqe.s3.amazonaws.com/62c5ca7c-2a1a-4552-92fc-dea787dc1fd9?AWSAccessKeyId=AKIAIUQNYZUJLIOKKJ3A&Expires=1801991780&Signature=720U8Yj9QyOU41FikAGXdJgSc5M%3D",12,8,0.6,0.501831501831502,0.498482549317147,0.540261662970312
143,"V83L2S","Oxford High School","Oxford","AL","Yellow Jackets","1 YELLOW JACKET DRIVE","https://cdn2buckets-live-s3dfaaws-1mlao80q0xoqe.s3.amazonaws.com/ff032167-0f36-405b-a9d6-e91a05e3a012?AWSAccessKeyId=AKIAIUQNYZUJLIOKKJ3A&Expires=1801991780&Signature=lF1h3BJwKSY%2BOeYeJ0A8DhFyrJU%3D",12,8,0.6,0.501901140684411,0.498305084745763,0.540241670425984
144,"ES5KPN","North Jackson High School","Stevenson","AL","Chiefs","45549 Alabama Highway 277","https://cdn2buckets-live-s3dfaaws-1mlao80q0xoqe.s3.amazonaws.com/1b5b5201-f1eb-4123-baf2-3c415dfab613?AWSAccessKeyId=AKIAIUQNYZUJLIOKKJ3A&Expires=1801991780&Signature=tWlI%2Fa%2B50uzSNzPdZommPQakRho%3D",9,6,0.6,0.501557632398754,0.498516320474777,0.540174251458258
145,"DGMNAQ","Greenville High School","Greenville","AL","Tigers","100 TIGER DR","https://cdn2buckets-live-s3dfaaws-1mlao80q0xoqe.s3.amazonaws.com/08cfa05c-619d-418d-ca60-d0748b9ccbea?AWSAccessKeyId=AKIAIUQNYZUJLIOKKJ3A&Expires=1801991780&Signature=Mpw7P8dHj4%2FL79fO%2FA45BKjCA0E%3D",6,4,0.6,0.5,0.497590361445783,0.539397590361446
146,"FAF46B","Mortimer Jordan High School","Kimberly","AL","Blue Devil","1920 Blue Devil Drive","https://cdn2buckets-live-s3dfaaws-1mlao80q0xoqe.s3.amazonaws.com/d18216da-315e-4bb1-9385-76ecec40288f?AWSAccessKeyId=AKIAIUQNYZUJLIOKKJ3A&Expires=1801991780&Signature=9QqIIlk0lIAz5QFXyboBayBStS4%3D",9,6,0.6,0.49890590809628,0.498256735340729,0.53918125166888
147,"KF7XCW","Fyffe High School","Fyffe","AL","Red Devils","PO Box 7","https://cdn2buckets-live-s3dfaaws-1mlao80q0xoqe.s3.amazonaws.com/daee1bc3-1172-4b3c-e899-a365f72ec1d4?AWSAccessKeyId=AKIAIUQNYZUJLIOKKJ3A&Expires=1801991780&Signature=GhOVNU07jvFw2r%2BnL3e3CyrRqhk%3D",10,7,0.588235294117647,0.503740648379052,0.498824635637047,0.536309503488989
148,"T37ZR4","Calhoun High School","Letohatchee","AL","Tiger","8213 County Road 33","https://cdn2buckets-live-s3dfaaws-1mlao80q0xoqe.s3.amazonaws.com/a9bb0a73-e0ee-4c41-c96a-512313082819?AWSAccessKeyId=AKIAIUQNYZUJLIOKKJ3A&Expires=1801991779&Signature=qeBz0qLbSX8Rd1cBawj7lDojBuw%3D",10,7,0.588235294117647,0.504,0.49663735126746,0.535853455463924
149,"UXJLUC","Shades Valley High School","Irondale","AL","Mounties","6100 Old Leeds Road ","https://cdn2buckets-live-s3dfaaws-1mlao80q0xoqe.s3.amazonaws.com/cbdce46b-159d-4995-8b2b-449526e75608?AWSAccessKeyId=AKIAIUQNYZUJLIOKKJ3A&Expires=1801991780&Signature=F4Gj0rnrG2e5Xe4BoCzSWffh3Ug%3D",10,7,0.588235294117647,0.501187648456057,0.498989898989899,0.535457269354153
150,"XY96ZB","Carver Senior High School - Montgomery","Montgomery","AL","Wolverines","2001 W Fairview Ave","https://cdn2buckets-live-s3dfaaws-1mlao80q0xoqe.s3.amazonaws.com/62ad14c4-02de-4050-b09a-84a70dd9f3f9?AWSAccessKeyId=AKIAIUQNYZUJLIOKKJ3A&Expires=1801991779&Signature=oeB7j43LLsN1Dz0Oy4TyYMPbvMY%3D",7,4,0.583333333333333,0.503355704697987,0.498549323017408,0.534145160731981
151,"SZB95T","Cottonwood High School","Cottonwood","AL","Bears","663 Houston Street","https://cdn2buckets-live-s3dfaaws-1mlao80q0xoqe.s3.amazonaws.com/ef82c0ff-ac1d-4aed-9bec-f428f60cfb7c?AWSAccessKeyId=AKIAIUQNYZUJLIOKKJ3A&Expires=1801991779&Signature=OLdd%2FXKfrxe8icpKBVTeB%2F8QNPg%3D",7,5,0.583333333333333,0.5,0.496,0.532333333333333
152,"TL778G","Skyline High School","Scottsboro","AL","Vikings","897 County Road 25","https://cdn2buckets-live-s3dfaaws-1mlao80q0xoqe.s3.amazonaws.com/d5bf53e5-a428-478a-b71c-f2b9f016b4d3?AWSAccessKeyId=AKIAIUQNYZUJLIOKKJ3A&Expires=1801991780&Signature=miGcX6cZxlsA6jmO4wn94Hkmqhw%3D",11,8,0.578947368421053,0.501538461538461,0.500272479564033,0.532185528797891
153,"7L544T","Luverne High School","Luverne","AL","Tigers","194 1st Avenue","https://cdn2buckets-live-s3dfaaws-1mlao80q0xoqe.s3.amazonaws.com/f9e1d7e2-1e03-4b7a-ac40-da7b5c5f5d3b?AWSAccessKeyId=AKIAIUQNYZUJLIOKKJ3A&Expires=1801991780&Signature=%2B5lvUa%2BkbLNJJZKUes%2FwjtUzW9c%3D",11,8,0.578947368421053,0.50125313283208,0.497728747566515,0.531449730751278
154,"2Z2LN2","Hackleburg High School","Hackleburg","AL","Panthers","189 School Street","https://cdn2buckets-live-s3dfaaws-1mlao80q0xoqe.s3.amazonaws.com/93106b63-267e-42d4-fa1e-d81ce8c734f7?AWSAccessKeyId=AKIAIUQNYZUJLIOKKJ3A&Expires=1801991780&Signature=AkRSghcBoG0LXjbJHeeQk8gH3q4%3D",7,5,0.583333333333333,0.49390243902439,0.499231950844854,0.531007174703083
155,"WSMVWA","McIntosh High School (AL)","Mcintosh","AL","Demons","7010 Hwy 43 N","https://cdn2buckets-live-s3dfaaws-1mlao80q0xoqe.s3.amazonaws.com/1c9c5c5f-97ef-40c4-c1a5-85958c2e0a9a?AWSAccessKeyId=AKIAIUQNYZUJLIOKKJ3A&Expires=1801991780&Signature=enDGPjHOcsbLIgpG%2FmhKaxoWN9k%3D",11,8,0.578947368421053,0.498233215547703,0.499528746465598,0.530842759426517
156,"43HG2A","Coosa Christian School","Gadsden","AL","Conquerors","2736 Wills Creek Road","https://cdn2buckets-live-s3dfaaws-1mlao80q0xoqe.s3.amazonaws.com/31a9c82d-f6c1-4455-ff26-a7c456b9bfa5?AWSAccessKeyId=AKIAIUQNYZUJLIOKKJ3A&Expires=1801991779&Signature=Mbyrv9VeDduaYf7QhNF6m9ufwUQ%3D",12,9,0.571428571428571,0.503937007874016,0.499724821133737,0.529880586610768
157,"YBWRRJ","Central High School of Clay County","Lineville","AL","Volunteers","1 Bob Riley Dr","https://cdn2buckets-live-s3dfaaws-1mlao80q0xoqe.s3.amazonaws.com/ca8b6c65-e0d7-45ef-96ce-4b21508c47dc?AWSAccessKeyId=AKIAIUQNYZUJLIOKKJ3A&Expires=1801991779&Signature=F8chw5rtmCOI0s1OHoxahAHPXLg%3D",12,9,0.571428571428571,0.504373177842566,0.498836668217776,0.52981120787077
158,"J9W3H4","J.U. Blacksher High School","Uriah","AL","Bulldogs","15933 Highway 21 South","https://cdn2buckets-live-s3dfaaws-1mlao80q0xoqe.s3.amazonaws.com/e83edf33-72e5-4842-c8d4-981d44cf48d5?AWSAccessKeyId=AKIAIUQNYZUJLIOKKJ3A&Expires=1801991780&Signature=96jKIybF%2FsHcwpDzG4Tyo6h2x2k%3D",12,9,0.571428571428571,0.501510574018127,0.501138952164009,0.529384867518775
159,"6XDBFW","Cornerstone Schools Of Alabama","Birmingham","AL",NA,"959 Huffman Rd","https://cdn2buckets-live-s3dfaaws-1mlao80q0xoqe.s3.amazonaws.com/3e69993a-5864-4d4f-b977-0e536b812f13?AWSAccessKeyId=AKIAIUQNYZUJLIOKKJ3A&Expires=1801991779&Signature=%2FMrXTYkaEcvkaQE9PD5MsnA0xeE%3D",8,6,0.571428571428571,0.502551020408163,0.498893805309735,0.529187737041719
160,"BQ2CAJ","Lynn High School","Lynn","AL","Bears","531 East Main Street","https://cdn2buckets-live-s3dfaaws-1mlao80q0xoqe.s3.amazonaws.com/c381d536-aad2-476e-b9b6-be43dff3386d?AWSAccessKeyId=AKIAIUQNYZUJLIOKKJ3A&Expires=1801991780&Signature=AomIxDaxJE5Y3xwECr291we5tjo%3D",12,8,0.571428571428571,0.501960784313725,0.499575911789652,0.529151681028646
161,"NH64YJ","Pelham High School","Pelham","AL","Panthers","2500 Panther Circle","https://cdn2buckets-live-s3dfaaws-1mlao80q0xoqe.s3.amazonaws.com/d2b417b0-5626-4128-c0f2-dbe72be55a62?AWSAccessKeyId=AKIAIUQNYZUJLIOKKJ3A&Expires=1801991780&Signature=2zlBngqWGNm3DGNCzRSMMVni3gc%3D",8,6,0.571428571428571,0.5,0.498623537508603,0.528227312948579
162,"UZ2Z3E","Ider High School","Ider","AL","Hornets","1064 Crabapple Lane","https://cdn2buckets-live-s3dfaaws-1mlao80q0xoqe.s3.amazonaws.com/f9a7e154-e40f-4c1f-f7c4-8e239d2b45bf?AWSAccessKeyId=AKIAIUQNYZUJLIOKKJ3A&Expires=1801991780&Signature=Awdi42JKZXwOtbS6RXHlUjdB%2F54%3D",9,7,0.5625,0.502283105022831,0.498360655737705,0.525389250692417
163,"FHLPTH","Moody High School","Moody","AL","Blue Devils","714 High School Drive","https://cdn2buckets-live-s3dfaaws-1mlao80q0xoqe.s3.amazonaws.com/c5c37eea-ea76-4635-d2e8-1dc79517bea1?AWSAccessKeyId=AKIAIUQNYZUJLIOKKJ3A&Expires=1801991780&Signature=AdwWOFnu4VgaKmpJKLtGDHhsB1A%3D",9,7,0.5625,0.5,0.499,0.52475
164,"A279HX","Boaz High School","Boaz","AL","Pirates","907 Brown Street","https://cdn2buckets-live-s3dfaaws-1mlao80q0xoqe.s3.amazonaws.com/a97a1bce-da54-463c-c660-1db467c17fc8?AWSAccessKeyId=AKIAIUQNYZUJLIOKKJ3A&Expires=1801991779&Signature=FlXfqV69DS3ZwITGuFBLgV6yANk%3D",10,8,0.555555555555556,0.502024291497976,0.498229461756374,0.522488089685607
165,"Z8FJH6","Curry High School","Jasper","AL","Yellow Jacket","155 Yellow Jacket Dr.","https://cdn2buckets-live-s3dfaaws-1mlao80q0xoqe.s3.amazonaws.com/40b386c8-4c47-4d34-d92a-9256f24f3de8?AWSAccessKeyId=AKIAIUQNYZUJLIOKKJ3A&Expires=1801991779&Signature=n731%2FzoXb6htYV0xOfGjg%2BUy1Cc%3D",11,9,0.55,0.503676470588235,0.499398315282792,0.52113634352658
166,"Q3M3XQ","Collinsville High School","Collinsville","AL","Panthers","802 S. Valley Ave.","https://cdn2buckets-live-s3dfaaws-1mlao80q0xoqe.s3.amazonaws.com/a1ab9ed8-0c51-4849-dab0-5b474eaca999?AWSAccessKeyId=AKIAIUQNYZUJLIOKKJ3A&Expires=1801991779&Signature=W0twEknXwEylL4FuVEol2O28pzo%3D",11,9,0.55,0.502777777777778,0.5,0.520972222222222
167,"UA3HSQ","Appalachian High School","Oneonta","AL","Eagles","350 County Highway 12","https://cdn2buckets-live-s3dfaaws-1mlao80q0xoqe.s3.amazonaws.com/7d7e20f1-fc8b-49ea-fc82-abc754ae06f2?AWSAccessKeyId=AKIAIUQNYZUJLIOKKJ3A&Expires=1801991779&Signature=3SRO3PUJAd%2Fvt6xEqcui%2B0ESK%2Bg%3D",11,9,0.55,0.502762430939227,0.499480789200415,0.520837048128833
168,"QGXXRY","Sylvania High School","Sylvania","AL","Rams","133 2nd Street N","https://cdn2buckets-live-s3dfaaws-1mlao80q0xoqe.s3.amazonaws.com/de5d4ae4-dc9a-4ec5-d37d-392d83a1128e?AWSAccessKeyId=AKIAIUQNYZUJLIOKKJ3A&Expires=1801991781&Signature=z2U%2BoHKtNW3Aytg%2Ftdai5EgqCQk%3D",11,9,0.55,0.502392344497608,0.499413145539906,0.520690606959139
169,"UZ7SVY","Huntsville High School","Huntsville","AL","Panther","2304 Billie Watkins Avenue","https://cdn2buckets-live-s3dfaaws-1mlao80q0xoqe.s3.amazonaws.com/196c737c-e7bf-4e09-b6cf-e07fa4754935?AWSAccessKeyId=AKIAIUQNYZUJLIOKKJ3A&Expires=1801991780&Signature=Tw9LlLBQEALqWP2%2BMO3L%2F8Bts8o%3D",16,13,0.551724137931034,0.500570125427594,0.49842576895132,0.520495641309902
170,"TTXUJC","Woodlawn High School","Birmingham","AL","Colonels","5620 First Avenue North","https://cdn2buckets-live-s3dfaaws-1mlao80q0xoqe.s3.amazonaws.com/7148fc84-ac1c-46e8-870a-0a323937dff0?AWSAccessKeyId=AKIAIUQNYZUJLIOKKJ3A&Expires=1801991781&Signature=b0wVydXJJzsbH7ffHt%2B5vEsZmDQ%3D",11,9,0.55,0.5,0.498930099857347,0.519732524964337
171,"B2ZDQU","James Clemens High School","Madison","AL","Jets","11306 County Line Road","https://cdn2buckets-live-s3dfaaws-1mlao80q0xoqe.s3.amazonaws.com/4e28f1c6-46bc-40e5-aeea-00efc5d7f07d?AWSAccessKeyId=AKIAIUQNYZUJLIOKKJ3A&Expires=1801991780&Signature=Mto9MMxg18bSiGU3CoQkI2mei%2Bg%3D",6,5,0.545454545454545,0.501587301587302,0.499312242090784,0.51856543426007
172,"KC8GKK","Vestavia Hills High School","Vestavia Hills","AL","Rebels","2235 Lime Rock Road","https://cdn2buckets-live-s3dfaaws-1mlao80q0xoqe.s3.amazonaws.com/64c91490-88c4-4b83-b626-441ae3e6ddb6?AWSAccessKeyId=AKIAIUQNYZUJLIOKKJ3A&Expires=1801991781&Signature=IxFmuEwxoXUTZkfppxva%2BxUpAK8%3D",11,9,0.55,0.497101449275362,0.49798038084247,0.518480602456994
173,"2J3A5M","Reeltown High School","Notasulga","AL","Rebels","4090 AL HWY 120","https://cdn2buckets-live-s3dfaaws-1mlao80q0xoqe.s3.amazonaws.com/1a0d1a78-be26-4f8f-e7a7-ee216464d48e?AWSAccessKeyId=AKIAIUQNYZUJLIOKKJ3A&Expires=1801991780&Signature=5WLClhsRl35fW%2FfKbAJWtZdznqo%3D",6,4,0.545454545454545,0.497512437810945,0.499375780274657,0.517155116484313
174,"WXGZUY","Williamson High School","Mobile","AL","L","1567 E Dublin  Street ","https://cdn2buckets-live-s3dfaaws-1mlao80q0xoqe.s3.amazonaws.com/ad970851-b5b5-4869-abdc-889861c5c4d8?AWSAccessKeyId=AKIAIUQNYZUJLIOKKJ3A&Expires=1801991781&Signature=Al1wz6ZsBG6LDkGQbEagBhm%2BvqA%3D",7,6,0.538461538461538,0.501661129568106,0.499488229273286,0.515838068051774
175,"REKPEM","Southeastern High School","Remlap","AL","Mustangs","18770 Hwy. 75","https://cdn2buckets-live-s3dfaaws-1mlao80q0xoqe.s3.amazonaws.com/79d30525-8dcf-4a8b-fe8f-8d97f7b4de4f?AWSAccessKeyId=AKIAIUQNYZUJLIOKKJ3A&Expires=1801991780&Signature=ZyCtPWPTojZR2w59CfHsbykvBy8%3D",14,12,0.538461538461538,0.5,0.499491353001017,0.51525745363487
176,"LFLWZV","Athens High School","Athens","AL","Golden Eagles","655 U. S. Highway 31 North","https://cdn2buckets-live-s3dfaaws-1mlao80q0xoqe.s3.amazonaws.com/69f0bef8-a411-44f2-a719-cfaa153d7e83?AWSAccessKeyId=AKIAIUQNYZUJLIOKKJ3A&Expires=1801991779&Signature=ACfYJIcidl71TB1bgiZ8t2LKbb4%3D",14,12,0.538461538461538,0.498502994011976,0.498270893371758,0.514428386631747
177,"6G6ENE","Vigor High School","Prichard","AL","Wolves","913 North Wilson Ave","https://cdn2buckets-live-s3dfaaws-1mlao80q0xoqe.s3.amazonaws.com/371d9dbe-4d42-4088-fe99-8aae82f37477?AWSAccessKeyId=AKIAIUQNYZUJLIOKKJ3A&Expires=1801991781&Signature=yCfkjKc7ZXcWFGt7ruvdIshaPSE%3D",8,7,0.533333333333333,0.50197628458498,0.499521531100478,0.513905415713196
178,"A3GUCH","Woodland High School","Woodland","AL","Bobcats","24574 AL HWY 48","https://cdn2buckets-live-s3dfaaws-1mlao80q0xoqe.s3.amazonaws.com/eba827d9-423b-41ef-8046-5e2e25392fd8?AWSAccessKeyId=AKIAIUQNYZUJLIOKKJ3A&Expires=1801991781&Signature=B7SmERdl4jtiTEKc6QItdfJZvE8%3D",8,7,0.533333333333333,0.502040816326531,0.497978981406629,0.513542364399276
179,"C6423D","Southside High School","Southside","AL","Panthers","2361 School Drive ","https://cdn2buckets-live-s3dfaaws-1mlao80q0xoqe.s3.amazonaws.com/413a596c-1273-4ee5-8b5d-6df93a1d2174?AWSAccessKeyId=AKIAIUQNYZUJLIOKKJ3A&Expires=1801991780&Signature=bq3N5SSRbAk8Isxxe0W6lwg2cpA%3D",9,8,0.529411764705882,0.498989898989899,0.498799313893654,0.511110999002231
180,"SCZJJW","Bullock County High School","Union Springs","AL","Hornet","PO Box 5108","https://cdn2buckets-live-s3dfaaws-1mlao80q0xoqe.s3.amazonaws.com/30a6c57b-933a-4e2f-d5b0-9fdedca06697?AWSAccessKeyId=AKIAIUQNYZUJLIOKKJ3A&Expires=1801991779&Signature=hpo3L9t%2B4LY%2FQmtpN%2BseCUo%2Bs94%3D",10,9,0.526315789473684,0.501538461538461,0.497991967871486,0.510562769295807
181,"AMCBWL","Wicksburg High School","Newton","AL","Panthers","1172 South St Hwy 123","https://cdn2buckets-live-s3dfaaws-1mlao80q0xoqe.s3.amazonaws.com/17290cd4-5e31-4656-e16e-01b860b1b83d?AWSAccessKeyId=AKIAIUQNYZUJLIOKKJ3A&Expires=1801991781&Signature=dKU1TvpV21A5SvWyNoaGGpSoOno%3D",8,7,0.533333333333333,0.494339622641509,0.494920174165457,0.510082244799226
182,"SR7QJA","Lexington High School","Lexington","AL","Golden Bears","101 School St","https://cdn2buckets-live-s3dfaaws-1mlao80q0xoqe.s3.amazonaws.com/05fdc6ff-09ff-4b53-fe34-b5fb11e54135?AWSAccessKeyId=AKIAIUQNYZUJLIOKKJ3A&Expires=1801991780&Signature=ozx6qKqU0J9dUj4Ddpcg2S8o7LI%3D",10,9,0.526315789473684,0.498771498771499,0.498288843258042,0.509668551174009
183,"T7BRHF","Gardendale High School","Gardendale","AL","Rockets","800 Main Street","https://cdn2buckets-live-s3dfaaws-1mlao80q0xoqe.s3.amazonaws.com/4fc20f97-5a61-439d-f0ac-df2af5eeed1e?AWSAccessKeyId=AKIAIUQNYZUJLIOKKJ3A&Expires=1801991780&Signature=qErK9qBBB89DjMO9VNdgC1YQeKU%3D",10,9,0.526315789473684,0.498740554156171,0.497691984892992,0.509508505967382
184,"B9LYEB","Eufaula High School","Eufaula","AL","Tiger","530 Lake Drive","https://cdn2buckets-live-s3dfaaws-1mlao80q0xoqe.s3.amazonaws.com/a62217a6-7a67-4185-a348-ac09072806d9?AWSAccessKeyId=AKIAIUQNYZUJLIOKKJ3A&Expires=1801991779&Signature=sBDtqY4k1PDfl5eMvEdJEyl5GoU%3D",10,9,0.526315789473684,0.495297805642633,0.497822028624767,0.508336054920587
185,"LL8HVS","Kate Duncan Smith DAR High School","Grant","AL","Patriots","6077 Main St. ","https://cdn2buckets-live-s3dfaaws-1mlao80q0xoqe.s3.amazonaws.com/d4c05991-beda-4b8b-ab72-8282f0e205f0?AWSAccessKeyId=AKIAIUQNYZUJLIOKKJ3A&Expires=1801991780&Signature=eqm8xabWRZxo1wC6VUyAShL35L8%3D",11,10,0.523809523809524,0.497267759562842,0.498516320474777,0.508196605489498
186,"S2B22L","Ardmore High School","Ardmore","AL","Tigers","30285 Ardmore Avenue","https://cdn2buckets-live-s3dfaaws-1mlao80q0xoqe.s3.amazonaws.com/0264d193-d76c-4047-dc71-4a5b4c359997?AWSAccessKeyId=AKIAIUQNYZUJLIOKKJ3A&Expires=1801991779&Signature=Lv%2Bs0XwdmLU1jIWLsGlbX2LkKVs%3D",13,12,0.52,0.498989898989899,0.498808956646022,0.50734870380797
187,"8J8568","West End High School","Walnut Grove","AL","Patriots","4515 Elm Street","https://cdn2buckets-live-s3dfaaws-1mlao80q0xoqe.s3.amazonaws.com/405f3811-f13f-428a-824e-478033613853?AWSAccessKeyId=AKIAIUQNYZUJLIOKKJ3A&Expires=1801991781&Signature=oqS%2F8B1CEagLw1lr0Z%2FH9FArk80%3D",7,7,0.5,0.5,0.499372647427854,0.499843161856964
188,"CXKZ4H","Fayetteville High School","Sylacauga","AL","Wolves","Fayetteville School","https://cdn2buckets-live-s3dfaaws-1mlao80q0xoqe.s3.amazonaws.com/707f6844-c9cd-4848-83d7-f0843cf59f7d?AWSAccessKeyId=AKIAIUQNYZUJLIOKKJ3A&Expires=1801991779&Signature=uPva%2BCSFcITpSJ8XWlqsk%2F0%2B5Pg%3D",9,9,0.5,0.5,0.499319727891156,0.499829931972789
189,"ZU54PW","Linden High School","Linden","AL","Patriots","321 N Main St ","https://cdn2buckets-live-s3dfaaws-1mlao80q0xoqe.s3.amazonaws.com/c1eea4fe-a30e-41b3-c844-3872dea778da?AWSAccessKeyId=AKIAIUQNYZUJLIOKKJ3A&Expires=1801991780&Signature=y3sPRyejHewYOz4q03%2BpBr7UB48%3D",7,7,0.5,0.5,0.498850574712644,0.499712643678161
190,"64EX8A","Cullman Christian School","Cullman","AL","Lions","1803 Beech Avenue Southeast","https://cdn2buckets-live-s3dfaaws-1mlao80q0xoqe.s3.amazonaws.com/e6507179-e16c-42a8-e5f3-60b85e2d192f?AWSAccessKeyId=AKIAIUQNYZUJLIOKKJ3A&Expires=1801991779&Signature=Xzrel562WTU8U9fMc%2BMUaFxA%2Bx0%3D",10,10,0.5,0.5,0.498638838475499,0.499659709618875
191,"8TYQFD","Pell City High School","Pell City","AL","Panthers","1300 Cogswell Ave","https://cdn2buckets-live-s3dfaaws-1mlao80q0xoqe.s3.amazonaws.com/8f6930fe-9dc5-42c9-c2b4-37462eee3c54?AWSAccessKeyId=AKIAIUQNYZUJLIOKKJ3A&Expires=1801991780&Signature=bC8vNOsyA9sjm2NGA7kLK6Ddagk%3D",11,11,0.5,0.5,0.498578737919272,0.499644684479818
192,"5TCR5Z","Chilton County High School","Clanton","AL","Tigers","1214 7th Street South","https://cdn2buckets-live-s3dfaaws-1mlao80q0xoqe.s3.amazonaws.com/79f7c0ee-c2d7-41a6-a3a3-71d891a4456b?AWSAccessKeyId=AKIAIUQNYZUJLIOKKJ3A&Expires=1801991779&Signature=mq6yjVMHBRBpEiSDHDYwFKlYT2w%3D",11,11,0.5,0.5,0.498397435897436,0.499599358974359
193,"YRLBQC","Notasulga High School","Notasulga","AL","Blue Devil","500 East Main Street","https://cdn2buckets-live-s3dfaaws-1mlao80q0xoqe.s3.amazonaws.com/27e2fffe-fb73-4ded-ba96-4f7f23c15b60?AWSAccessKeyId=AKIAIUQNYZUJLIOKKJ3A&Expires=1801991780&Signature=jauh12SPQDOWZAviM8lbwrxzsgE%3D",6,6,0.5,0.5,0.498248686514886,0.499562171628722
194,"TGTNMC","Oak Mountain High School","Birmingham","AL","Eagles","5476 Caldwell Mill Road","https://cdn2buckets-live-s3dfaaws-1mlao80q0xoqe.s3.amazonaws.com/8b094709-6c63-4cc3-ffac-7650eeaea1e5?AWSAccessKeyId=AKIAIUQNYZUJLIOKKJ3A&Expires=1801991780&Signature=%2FGcYT9Sm%2Fdjzu%2FGdLZKECFk8wqM%3D",8,8,0.5,0.5,0.498185117967332,0.499546279491833
195,"ZWACWY","Demopolis High School","Demopolis","AL","Tigers","701 Highway 80 West","https://cdn2buckets-live-s3dfaaws-1mlao80q0xoqe.s3.amazonaws.com/945062d5-f8d0-4088-ca11-c193ebe76d84?AWSAccessKeyId=AKIAIUQNYZUJLIOKKJ3A&Expires=1801991779&Signature=b7oWS2vhDrrDnzNwzvqLX1gXwgo%3D",10,10,0.5,0.497630331753554,0.498651079136691,0.498833385897917
196,"VAHZBA","Theodore High School","Theodore","AL","Bobcat","6201 Swedetown Road","https://cdn2buckets-live-s3dfaaws-1mlao80q0xoqe.s3.amazonaws.com/1db8af57-dac2-4640-fadc-46d112c570e1?AWSAccessKeyId=AKIAIUQNYZUJLIOKKJ3A&Expires=1801991781&Signature=58DqgfcQUouCegQLcQLp2wfm4a8%3D",8,8,0.5,0.497126436781609,0.499267935578331,0.498811236768146
197,"DWJM58","Glenwood School","Smiths Station","AL","Gators","5801 SUMMERVILLE RD","https://cdn2buckets-live-s3dfaaws-1mlao80q0xoqe.s3.amazonaws.com/622fd916-0d10-4ff0-e71a-7262a4e84d7e?AWSAccessKeyId=AKIAIUQNYZUJLIOKKJ3A&Expires=1801991780&Signature=KwtgrzZA4avDC5xDF5t81vX%2Blm4%3D",6,6,0.5,0.5,0.494635193133047,0.498658798283262
198,"CZ9ZZ9","Satsuma High School","Satsuma","AL","Gators","1 Gator Circle","https://cdn2buckets-live-s3dfaaws-1mlao80q0xoqe.s3.amazonaws.com/8da1dd68-35f8-4cc9-d971-a42c7f4f72e5?AWSAccessKeyId=AKIAIUQNYZUJLIOKKJ3A&Expires=1801991780&Signature=F5aR3xo37R71%2FEc6ntzua3LEb1Y%3D",9,9,0.5,0.497252747252747,0.498310810810811,0.498616164241164
199,"TB8SG3","Colbert Heights High School","Tuscumbia","AL",NA,"6825 Woodmont Dr.","https://cdn2buckets-live-s3dfaaws-1mlao80q0xoqe.s3.amazonaws.com/7af3a392-c917-40e5-f686-43d3e0760fac?AWSAccessKeyId=AKIAIUQNYZUJLIOKKJ3A&Expires=1801991779&Signature=iaxIr%2BBjLaC4EGc9QsVGZvX15uY%3D",13,13,0.5,0.497474747474747,0.497709923664122,0.498543642532192
200,"34SBUV","Colbert County High School","Leighton","AL","Indians","2200 high school st","https://cdn2buckets-live-s3dfaaws-1mlao80q0xoqe.s3.amazonaws.com/7cfd5f61-c1a2-42aa-e5a7-fa41ca239886?AWSAccessKeyId=AKIAIUQNYZUJLIOKKJ3A&Expires=1801991779&Signature=fPcovedyERgxDb0RVbgiO2TNaHU%3D",8,8,0.5,0.496875,0.498498498498498,0.498530874624625
201,"99PDUH","J.F. Shields High School","Beatrice","AL","Panthers","17688 AL-21 N","https://cdn2buckets-live-s3dfaaws-1mlao80q0xoqe.s3.amazonaws.com/95301811-2336-47ce-e8c8-80ea079a2149?AWSAccessKeyId=AKIAIUQNYZUJLIOKKJ3A&Expires=1801991780&Signature=Oz9AFf6Z2AGDf8emeuWzWBLEamY%3D",7,7,0.5,0.495652173913044,0.498777506112469,0.498172637397683
202,"7HL2FY","Phil Campbell High School","Phil Campbell","AL","Bobcats","P.O. Box 849","https://cdn2buckets-live-s3dfaaws-1mlao80q0xoqe.s3.amazonaws.com/125465bf-e923-4432-ce02-d609901ae5ca?AWSAccessKeyId=AKIAIUQNYZUJLIOKKJ3A&Expires=1801991780&Signature=79mc8iZKvY0Tgz3G%2B3F09b5dru0%3D",8,8,0.5,0.495614035087719,0.498214285714286,0.498018483709273
203,"3KU9CQ","The Montgomery Academy","Montgomery","AL","Eagles","3240 Vaughn Road","https://cdn2buckets-live-s3dfaaws-1mlao80q0xoqe.s3.amazonaws.com/6715c2f3-b4cb-4a62-c8b4-2b2426f046b2?AWSAccessKeyId=AKIAIUQNYZUJLIOKKJ3A&Expires=1801991781&Signature=8CPj7ePNqXJtm23AHj2rCbBQ8Vo%3D",10,10,0.5,0.495833333333333,0.497782002534854,0.49798716730038
204,"ERT88J","A.H. Parker High School","Birmingham","AL","Bison","400 Reverend Abraham L. Woods Jr. Boulevard","https://cdn2buckets-live-s3dfaaws-1mlao80q0xoqe.s3.amazonaws.com/b986055a-34f3-4a75-c5ae-f5d7ecd259e9?AWSAccessKeyId=AKIAIUQNYZUJLIOKKJ3A&Expires=1801991779&Signature=%2BnB0oy1Fy7EPAOr17oeWjBjbRvU%3D",10,10,0.5,0.495495495495495,0.497506234413965,0.497799982026915
205,"UJ683V","Central High School, Phenix City","Phenix City","AL","Red Devils","2400 Dobbs Drive","https://cdn2buckets-live-s3dfaaws-1mlao80q0xoqe.s3.amazonaws.com/adb31e59-c295-46e2-e5a1-0fa78beb6c63?AWSAccessKeyId=AKIAIUQNYZUJLIOKKJ3A&Expires=1801991779&Signature=Racux3PEu048SW%2BxKQ3N2eJCfWM%3D",8,8,0.5,0.495283018867925,0.497284453496266,0.49767016997784
206,"3AQV8Y","Haleyville High School","Haleyville","AL","Lion","2001 20th street","https://cdn2buckets-live-s3dfaaws-1mlao80q0xoqe.s3.amazonaws.com/215fca9e-2d7b-4c53-bb0c-c0aaf9c76874?AWSAccessKeyId=AKIAIUQNYZUJLIOKKJ3A&Expires=1801991780&Signature=Q4YfT8S4B0qs9T%2B906b8yIKNcjE%3D",8,8,0.5,0.494791666666667,0.497655334114889,0.497590916862055
207,"3LP23D","GW Long High School","Skipperville","AL","Rebels","2565 County Road 60","https://cdn2buckets-live-s3dfaaws-1mlao80q0xoqe.s3.amazonaws.com/6bd91eb3-1af1-4880-f223-3c8a0da89fb0?AWSAccessKeyId=AKIAIUQNYZUJLIOKKJ3A&Expires=1801991780&Signature=etHmY2mmk6vK4t7thAS%2FtPZMU%2FU%3D",8,8,0.5,0.490625,0.497373029772329,0.496062007443082
208,"98NGSJ","Florence High School","Florence","AL","Falcon","1201 Bradshaw Drive","https://cdn2buckets-live-s3dfaaws-1mlao80q0xoqe.s3.amazonaws.com/ac4271cc-18de-4211-f32f-6e4f4776ab04?AWSAccessKeyId=AKIAIUQNYZUJLIOKKJ3A&Expires=1801991780&Signature=H%2Fdl5mz1mqqcxHGVOoeLbUx8iEo%3D",11,12,0.478260869565217,0.497478991596639,0.497535517541316,0.48980587427024
209,"2XREVV","Cleveland High School","Cleveland","AL","Panthers","71 High School Street","https://cdn2buckets-live-s3dfaaws-1mlao80q0xoqe.s3.amazonaws.com/a02849c6-3800-4943-cb48-9fd232e95c65?AWSAccessKeyId=AKIAIUQNYZUJLIOKKJ3A&Expires=1801991779&Signature=79EUankOC7mj1udnbxAvJ6tgejY%3D",10,11,0.476190476190476,0.496470588235294,0.499197431781701,0.489040254303969
210,"PXT7FY","Sylacauga High School","Sylacauga","AL","Aggie","701 North Broadway Ave","https://cdn2buckets-live-s3dfaaws-1mlao80q0xoqe.s3.amazonaws.com/d69c703d-342a-4990-91b7-7a000e8ae9a8?AWSAccessKeyId=AKIAIUQNYZUJLIOKKJ3A&Expires=1801991781&Signature=np%2B%2FbQDlUMrIr3KtVbwmZ3SgS3M%3D",9,10,0.473684210526316,0.498817966903073,0.497428705002338,0.488417148877186
211,"9F7KDR","Cold Springs High School","Bremen","AL","Eagles","9010 County Road 109","https://cdn2buckets-live-s3dfaaws-1mlao80q0xoqe.s3.amazonaws.com/7793fc7d-c659-4c8d-94f9-d7262abdae70?AWSAccessKeyId=AKIAIUQNYZUJLIOKKJ3A&Expires=1801991779&Signature=CfVAGAwXRTO9w6xJOpIgNUroqq8%3D",8,9,0.470588235294118,0.498910675381264,0.497699115044248,0.487278809262151
212,"8S5ZUT","West Limestone High School","Lester","AL","Wildcats","10945 West Schoolhouse Road","https://cdn2buckets-live-s3dfaaws-1mlao80q0xoqe.s3.amazonaws.com/dffdaabc-ca62-4127-c0ae-386d56a9bd5b?AWSAccessKeyId=AKIAIUQNYZUJLIOKKJ3A&Expires=1801991781&Signature=bUHgcPkOrut%2Bya%2BUGaTuU%2FY%2Bd40%3D",9,10,0.473684210526316,0.496402877697842,0.495195387572069,0.487013538297788
213,"3YXTPH","Breakthrough Charter School","Marion","AL","Broncos","1820 Prier Drive","https://cdn2buckets-live-s3dfaaws-1mlao80q0xoqe.s3.amazonaws.com/9807fbd2-d11d-4a7f-94c0-403963477f21?AWSAccessKeyId=AKIAIUQNYZUJLIOKKJ3A&Expires=1801991779&Signature=GHjZKNWZPbqATEDezCyPgwRInCE%3D",8,9,0.470588235294118,0.498575498575499,0.497049180327869,0.486999013701039
214,"N6J5ZH","Mattie T. Blount High School","Eight Mile","AL","Leopards","5450 Lott Rd","https://cdn2buckets-live-s3dfaaws-1mlao80q0xoqe.s3.amazonaws.com/6b94232e-426b-45a4-9f24-4088e2a04d32?AWSAccessKeyId=AKIAIUQNYZUJLIOKKJ3A&Expires=1801991780&Signature=qrnfCDOSak8zpB0tNQ0%2Fd2poF%2Bk%3D",8,9,0.470588235294118,0.49591280653951,0.49740932642487,0.486157108012693
215,"MN2FXY","Muscle Shoals High School","Muscle Shoals","AL",NA,NA,"https://cdn2buckets-live-s3dfaaws-1mlao80q0xoqe.s3.amazonaws.com/f2574ffd-b440-4a26-8b9f-aec0146b3bc6?AWSAccessKeyId=AKIAIUQNYZUJLIOKKJ3A&Expires=1801991780&Signature=jXK3kbOCIA%2B2uto3ujgZAeauPf8%3D",7,8,0.466666666666667,0.498630136986301,0.497909893172318,0.485664687904952
216,"WFWRMQ","Falkville High School","Falkville","AL","Blue Devils","43 Clark Drive","https://cdn2buckets-live-s3dfaaws-1mlao80q0xoqe.s3.amazonaws.com/ebb873ea-71b4-4873-dde2-637c488a5e7e?AWSAccessKeyId=AKIAIUQNYZUJLIOKKJ3A&Expires=1801991779&Signature=33a7KAxfHHZDAD92ZKr6zYLoZa8%3D",6,7,0.461538461538462,0.496143958868895,0.499089253187614,0.483038083516401
217,"9BN8PE","Dale County High School","Midland City","AL","Warriors","11740 S Co Rd 59","https://cdn2buckets-live-s3dfaaws-1mlao80q0xoqe.s3.amazonaws.com/1feec741-c609-4b19-b6cd-7d13c3d0075a?AWSAccessKeyId=AKIAIUQNYZUJLIOKKJ3A&Expires=1801991779&Signature=X7fYvAwiY%2Bxycr1qJsBtOaI4qKM%3D",8,9,0.470588235294118,0.487394957983193,0.495782567947516,0.482769171398644
218,"43RWTF","Madison Academy","Madison","AL","Mustang","325 Slaughter Road","https://cdn2buckets-live-s3dfaaws-1mlao80q0xoqe.s3.amazonaws.com/37479f3a-6157-4509-ea44-b67c6c3442ef?AWSAccessKeyId=AKIAIUQNYZUJLIOKKJ3A&Expires=1801991780&Signature=I5oNehM9xRJf0sHlzZk9eiaVnao%3D",6,7,0.461538461538462,0.494600431965443,0.496919173613628,0.481955329206697
219,"T6NAXL","Holly Pond High School","Holly Pond","AL","Broncos","160 New Hope Road","https://cdn2buckets-live-s3dfaaws-1mlao80q0xoqe.s3.amazonaws.com/59295408-fbca-460a-a4b5-34c3241c9b44?AWSAccessKeyId=AKIAIUQNYZUJLIOKKJ3A&Expires=1801991780&Signature=NAu72TdoNCRLlGMV9u%2BmqKOA7EM%3D",10,12,0.454545454545455,0.498263888888889,0.497669773635153,0.480627986338081
220,"PYPWLJ","Baker High School","Mobile","AL","Hornet","8901 Airport Blvd.","https://cdn2buckets-live-s3dfaaws-1mlao80q0xoqe.s3.amazonaws.com/8db55ac1-e1c6-461c-b7a2-ee364da1d37f?AWSAccessKeyId=AKIAIUQNYZUJLIOKKJ3A&Expires=1801991779&Signature=o%2FTOux1EZSF8D6UmC0omYxNPNuU%3D",10,12,0.454545454545455,0.495670995670996,0.497637795275591,0.479712479121928
221,"MYPTR3","Vincent Middle High School","Vincent","AL","Yellow Jackets","42505 Hwy 25","https://cdn2buckets-live-s3dfaaws-1mlao80q0xoqe.s3.amazonaws.com/d250cd3d-2b9c-4b5b-ea09-1e06480eec72?AWSAccessKeyId=AKIAIUQNYZUJLIOKKJ3A&Expires=1801991781&Signature=VMv1lhLUnCE80HzrjFOYe9jY5zM%3D",9,11,0.45,0.497641509433962,0.499043062200957,0.478935293852126
222,"GBVYT7","Hewitt-Trussville High School ","Trussville","AL","Huskies","6450 Husky Parkway","https://cdn2buckets-live-s3dfaaws-1mlao80q0xoqe.s3.amazonaws.com/1d54052b-6a48-45d0-f11f-a8992d33bd69?AWSAccessKeyId=AKIAIUQNYZUJLIOKKJ3A&Expires=1801991780&Signature=x9oWGD%2FGAQ4QREhyaUdGwMPClHQ%3D",5,6,0.454545454545455,0.492877492877493,0.496357455075279,0.478414668094124
223,"NCF3QK","Ashford High School","Ashford","AL","Yellow Jackets","607 Church Street","https://cdn2buckets-live-s3dfaaws-1mlao80q0xoqe.s3.amazonaws.com/479bb44a-e029-4297-d6d1-8027b90382a5?AWSAccessKeyId=AKIAIUQNYZUJLIOKKJ3A&Expires=1801991779&Signature=O5LF4ZZk%2BJ6F%2Bf79V35yJGsKaIc%3D",5,6,0.454545454545455,0.491039426523298,0.49618966977138,0.477729398544181
224,"PCFGYW","Booker T. Washington High School, Tuskegee","Tuskegee","AL","Golden Eagles","3803 West Martin Luther King Highway","https://cdn2buckets-live-s3dfaaws-1mlao80q0xoqe.s3.amazonaws.com/bdc754d7-f514-4766-8df6-48689d4eb837?AWSAccessKeyId=AKIAIUQNYZUJLIOKKJ3A&Expires=1801991779&Signature=DwHAn%2BcxwNnjgay1G%2F17GOq9jWo%3D",5,6,0.454545454545455,0.488789237668161,0.497689768976898,0.477316857246263
225,"FUX6KR","Hillcrest High School, Tuscaloosa","Tuscaloosa","AL","Patriots","300 Patriot Parkway ","https://cdn2buckets-live-s3dfaaws-1mlao80q0xoqe.s3.amazonaws.com/9b05794a-329d-4111-c4e5-0a73cbb530f0?AWSAccessKeyId=AKIAIUQNYZUJLIOKKJ3A&Expires=1801991780&Signature=rJnsA%2BPdOkWCDRx2%2BaAAPFD0Q8w%3D",8,10,0.444444444444444,0.495833333333333,0.497899159663866,0.475794234360411
226,"B6VHJK","Columbia High School","Huntsville","AL",NA,"300 Explorer Blvd","https://cdn2buckets-live-s3dfaaws-1mlao80q0xoqe.s3.amazonaws.com/591c338c-05b7-45d4-f981-cfaefe55a669?AWSAccessKeyId=AKIAIUQNYZUJLIOKKJ3A&Expires=1801991779&Signature=A1ZeRaL3K%2Bv5hEY2Z4yclJoT460%3D",11,13,0.44,0.497153700189753,0.499043977055449,0.474764789330276
227,"7J4W5V","McAdory High School","Mccalla","AL","Yellow Jackets","4800 McAdory School Road","https://cdn2buckets-live-s3dfaaws-1mlao80q0xoqe.s3.amazonaws.com/1eba55b7-6e3e-4f1c-a1c5-3bcf14aa41b4?AWSAccessKeyId=AKIAIUQNYZUJLIOKKJ3A&Expires=1801991780&Signature=RjKi9oKsDODsZBfp5PWFEaX008M%3D",11,14,0.44,0.495344506517691,0.497559143822756,0.473760363236881
228,"EJWAY5","Handley High School","Roanoke","AL","Tigers","100 Tiger Circle","https://cdn2buckets-live-s3dfaaws-1mlao80q0xoqe.s3.amazonaws.com/3b6f5dc4-06aa-4d0d-e888-70c55eac61e8?AWSAccessKeyId=AKIAIUQNYZUJLIOKKJ3A&Expires=1801991780&Signature=DBzZpre6GgLHzjVaEhcJ9yXSUrM%3D",7,9,0.4375,0.493788819875776,0.496296296296296,0.471900161030596
229,"72XR4G","St. John Paul II Catholic High School","Huntsville","AL","Falcons","7301 Old Madison Pike","https://cdn2buckets-live-s3dfaaws-1mlao80q0xoqe.s3.amazonaws.com/17fb9205-b1e5-4009-d644-beb47867e00b?AWSAccessKeyId=AKIAIUQNYZUJLIOKKJ3A&Expires=1801991781&Signature=9cLtRSEovgYLXGRPekNk2zg0hH0%3D",10,13,0.434782608695652,0.49554367201426,0.497354497354497,0.471691953021876
230,"P55DLG","Saks High School","Anniston","AL","Wildcat","4401 Saks Rd","https://cdn2buckets-live-s3dfaaws-1mlao80q0xoqe.s3.amazonaws.com/de64a201-f8da-420b-a048-db75406c8d3b?AWSAccessKeyId=AKIAIUQNYZUJLIOKKJ3A&Expires=1801991780&Signature=0TharttL2XlqJDu184ErhAQ2e0A%3D",10,13,0.434782608695652,0.493887530562347,0.497746297488732,0.471210253547265
231,"328W2S","Elkmont High School","Elkmont","AL","Red Devils","25630 Evans Ave.","https://cdn2buckets-live-s3dfaaws-1mlao80q0xoqe.s3.amazonaws.com/71387640-bc85-443e-cace-3a960a7059df?AWSAccessKeyId=AKIAIUQNYZUJLIOKKJ3A&Expires=1801991779&Signature=S1ogKutjMjoXckhSkpCuMIYU1IU%3D",10,13,0.434782608695652,0.494432071269488,0.496804183614178,0.471165314326126
232,"8388YD","Jemison High School","Jemison","AL","Panthers","25195 US HWY 31","https://cdn2buckets-live-s3dfaaws-1mlao80q0xoqe.s3.amazonaws.com/03f4cd71-1d2a-4236-a1a2-6635d2426f3c?AWSAccessKeyId=AKIAIUQNYZUJLIOKKJ3A&Expires=1801991780&Signature=038pieBSuKy5Si5nDhoyVgyIvJ0%3D",9,12,0.428571428571429,0.49620253164557,0.497406340057637,0.46945104251893
233,"6DWKZV","Hillcrest High School, Evergreen","Evergreen","AL","Jaguars","1989 Jaguar Dr.","https://cdn2buckets-live-s3dfaaws-1mlao80q0xoqe.s3.amazonaws.com/490ce545-ce80-4636-a5b7-d362adc178a6?AWSAccessKeyId=AKIAIUQNYZUJLIOKKJ3A&Expires=1801991780&Signature=bT84wBY6H0DAdqeXuitJHvwEM5c%3D",6,8,0.428571428571429,0.492,0.497663551401869,0.468044459279039
234,"TN7H7X","Orange Beach High School ","Orange Beach","AL","Makos","23908 Canal Rd.","https://cdn2buckets-live-s3dfaaws-1mlao80q0xoqe.s3.amazonaws.com/9f68339f-c2ee-4c34-d7cd-49c5d58a63ef?AWSAccessKeyId=AKIAIUQNYZUJLIOKKJ3A&Expires=1801991780&Signature=%2BeZTvSJhadO%2FEAQxrba3zRXHAcE%3D",11,15,0.423076923076923,0.495207667731629,0.497029702970297,0.466810878679414
235,"3SVM9D","Brindlee Mountain High School","Guntersville","AL","Lions","994 Scant City Rd.","https://cdn2buckets-live-s3dfaaws-1mlao80q0xoqe.s3.amazonaws.com/901c0b6c-ee96-49f9-886f-f629ed2d42e7?AWSAccessKeyId=AKIAIUQNYZUJLIOKKJ3A&Expires=1801991779&Signature=KskkYJJZlVRoq9Fzedwrn3JVjaM%3D",8,11,0.421052631578947,0.49584487534626,0.497504159733777,0.466342798936214
236,"YZZW3Z","Choctaw County High School","Butler","AL","Tigers","277 Tom Orr Drive","https://cdn2buckets-live-s3dfaaws-1mlao80q0xoqe.s3.amazonaws.com/ef659e5a-ca68-44d0-cbb3-875e0023dcc8?AWSAccessKeyId=AKIAIUQNYZUJLIOKKJ3A&Expires=1801991779&Signature=P%2B35rLgHDbm5eVf1VyunuRH31Ic%3D",8,11,0.421052631578947,0.492537313432836,0.495400788436268,0.464659309442138
237,"E9KKQY","Fairview High School","Cullman","AL","Aggies","841 Welcome Rd","https://cdn2buckets-live-s3dfaaws-1mlao80q0xoqe.s3.amazonaws.com/779bd0e9-8fc9-4743-86a0-19204119c7c1?AWSAccessKeyId=AKIAIUQNYZUJLIOKKJ3A&Expires=1801991779&Signature=ap8scu33Ov34DshWwRPLZ0ARB5Y%3D",7,10,0.411764705882353,0.49636803874092,0.497578159401145,0.462829235762549
238,"ZGBGHG","Sipsey Valley High School","Buhl","AL","Bears","15815 Romulus Road","https://cdn2buckets-live-s3dfaaws-1mlao80q0xoqe.s3.amazonaws.com/8da3025a-9b6c-468a-b39a-a254a0e649d3?AWSAccessKeyId=AKIAIUQNYZUJLIOKKJ3A&Expires=1801991780&Signature=rtrFSu0PxV07xkZ4gPtvxQG5h10%3D",7,10,0.411764705882353,0.496042216358839,0.497640497640498,0.462730782488659
239,"EEG6QD","Fultondale High School","Birmingham","AL","Wildcats","2023 Wildcat Parkway","https://cdn2buckets-live-s3dfaaws-1mlao80q0xoqe.s3.amazonaws.com/bbb043ed-6e47-4874-b2cb-213c687e7e65?AWSAccessKeyId=AKIAIUQNYZUJLIOKKJ3A&Expires=1801991780&Signature=5FJyUKlvS1kRUq66zYPsG%2BaphRc%3D",7,10,0.411764705882353,0.495145631067961,0.498073747936158,0.462525290210767
240,"HNGND2","Rogers High School","Florence","AL","Pirates","300 Rogers Lane","https://cdn2buckets-live-s3dfaaws-1mlao80q0xoqe.s3.amazonaws.com/57119f4b-39c1-440a-a5d3-66956b3a9a19?AWSAccessKeyId=AKIAIUQNYZUJLIOKKJ3A&Expires=1801991780&Signature=DGiEXY48cLC01ZPCa1wBoN5T06M%3D",7,9,0.411764705882353,0.495750708215297,0.497215592680986,0.462522528398542
241,"4NCSCM","Ashville High School","Ashville","AL","Bulldogs","33215 US 231","https://cdn2buckets-live-s3dfaaws-1mlao80q0xoqe.s3.amazonaws.com/bf41af34-e421-4c73-aaf7-ea645342416b?AWSAccessKeyId=AKIAIUQNYZUJLIOKKJ3A&Expires=1801991779&Signature=4rJvT1wnkhWBzvEjqt0J7d9qks0%3D",7,10,0.411764705882353,0.493857493857494,0.498069498069498,0.462073379720438
242,"G6GUPE","Red Level School","Red Level","AL","Tigers","28551 Barrow Rd.","https://cdn2buckets-live-s3dfaaws-1mlao80q0xoqe.s3.amazonaws.com/bcd13b76-a305-485c-9659-d209ea9e7ea4?AWSAccessKeyId=AKIAIUQNYZUJLIOKKJ3A&Expires=1801991780&Signature=EqWQQb%2FxUN2D7jLAIDlXm1C56bY%3D",7,10,0.411764705882353,0.49469964664311,0.49307774227902,0.461120194247785
243,"VCBW4Y","Headland High School","Headland","AL","Ram","8 Sporman Street","https://cdn2buckets-live-s3dfaaws-1mlao80q0xoqe.s3.amazonaws.com/abd3e160-0724-4700-a6ac-21a9d2b9c464?AWSAccessKeyId=AKIAIUQNYZUJLIOKKJ3A&Expires=1801991780&Signature=ZYjKzkevWk91bje4t4uYSqHTEKw%3D",7,10,0.411764705882353,0.487252124645892,0.495513459621137,0.459122490884288
244,"XXEZNX","Fruitdale High School","Fruitdale","AL","Pirates","13077 County Road 1 ","https://cdn2buckets-live-s3dfaaws-1mlao80q0xoqe.s3.amazonaws.com/94045c9e-ccda-41e2-96db-e5dcf6b928df?AWSAccessKeyId=AKIAIUQNYZUJLIOKKJ3A&Expires=1801991780&Signature=EXbzCrsuXjFCuuT0%2BesWNc7P0AU%3D",5,7,0.416666666666667,0.483333333333333,0.49238578680203,0.458929780033841
245,"EE9T6D","Loachapoka High School","Auburn","AL","Indian","685 Lee Rd 61","https://cdn2buckets-live-s3dfaaws-1mlao80q0xoqe.s3.amazonaws.com/2a7b613e-773d-460d-e87a-e1ab52c58d15?AWSAccessKeyId=AKIAIUQNYZUJLIOKKJ3A&Expires=1801991780&Signature=Vsw2RuzebEdzEIRjLmOwRgIojD8%3D",9,13,0.409090909090909,0.488439306358382,0.494949494949495,0.458327494599171
246,"6UZTNH","Thompson High School","Alabaster","AL","Warriors","1921 Warrior Parkway","https://cdn2buckets-live-s3dfaaws-1mlao80q0xoqe.s3.amazonaws.com/d31c018a-1431-4af4-c89a-49f2787aa781?AWSAccessKeyId=AKIAIUQNYZUJLIOKKJ3A&Expires=1801991781&Signature=KsygV%2BKzVzbKvtp6GCvTnOuOuIE%3D",8,12,0.4,0.496742671009772,0.497509339975093,0.458237269847194
247,"XEAVJ5","Alexandria High School","Alexandria","AL","Valley Cubs","353 Stadium Drive","https://cdn2buckets-live-s3dfaaws-1mlao80q0xoqe.s3.amazonaws.com/db65c50e-6cdd-4ccb-84ab-1e8af90a1992?AWSAccessKeyId=AKIAIUQNYZUJLIOKKJ3A&Expires=1801991779&Signature=DMGkfZTHsAZKNCbbiVr0F2iIxKs%3D",4,6,0.4,0.496240601503759,0.497894736842105,0.458157894736842
248,"K4N8VV","Phillips High School","Bear Creek","AL","Bears",NA,"https://cdn2buckets-live-s3dfaaws-1mlao80q0xoqe.s3.amazonaws.com/e1de4f8f-5597-4c02-a20d-5f381e03e9f1?AWSAccessKeyId=AKIAIUQNYZUJLIOKKJ3A&Expires=1801991780&Signature=7vEIkWAQXf15rXMv5jEnoJWXU7I%3D",8,11,0.4,0.493303571428571,0.498416050686378,0.457260262671595
249,"3CUVNJ","Leroy High School","Leroy","AL","Bears","26301 Highway 43","https://cdn2buckets-live-s3dfaaws-1mlao80q0xoqe.s3.amazonaws.com/5f613e50-cda7-4bf7-fa55-efcc565e7c74?AWSAccessKeyId=AKIAIUQNYZUJLIOKKJ3A&Expires=1801991780&Signature=mNqe8jFD61sj0g8kAlIIxQseE2E%3D",6,9,0.4,0.488888888888889,0.495716034271726,0.455040119679043
250,"UAV74N","Florala High School","Florala","AL","Wildcats","22114 Begonia St","https://cdn2buckets-live-s3dfaaws-1mlao80q0xoqe.s3.amazonaws.com/03910ecc-935b-45b0-9988-0817e272a4b6?AWSAccessKeyId=AKIAIUQNYZUJLIOKKJ3A&Expires=1801991779&Signature=urB0M73zHUdKt%2F2hNKpOgJbbQ8Y%3D",6,9,0.4,0.489878542510121,0.494178525226391,0.45500212118514
251,"4W9JMN","Decatur Heritage Christian Academy","Decatur","AL","Eagles","3802 Spring Ave","https://cdn2buckets-live-s3dfaaws-1mlao80q0xoqe.s3.amazonaws.com/2d648f93-5324-42aa-d6de-632bd9d99d78?AWSAccessKeyId=AKIAIUQNYZUJLIOKKJ3A&Expires=1801991779&Signature=S6r1H3g%2BXIX6SYXGvzMeNvxRuNs%3D",5,8,0.384615384615385,0.496598639455782,0.497714997922725,0.452084427136359
252,"XAAP39","Bayside Academy","Daphne","AL","Admirals","303 Dryer Av","https://cdn2buckets-live-s3dfaaws-1mlao80q0xoqe.s3.amazonaws.com/a9a7767e-5362-45cf-db42-4b859d00d2c5?AWSAccessKeyId=AKIAIUQNYZUJLIOKKJ3A&Expires=1801991779&Signature=1fX2nhrcJwMhbOFT74EqShcY7hY%3D",8,13,0.380952380952381,0.494432071269488,0.496275071633238,0.449500945233583
253,"E4BGL3","Spring Garden High School","Spring Garden","AL","Panthers","PO Box 31","https://cdn2buckets-live-s3dfaaws-1mlao80q0xoqe.s3.amazonaws.com/10642796-374c-4569-fa8f-a36135ee5aa4?AWSAccessKeyId=AKIAIUQNYZUJLIOKKJ3A&Expires=1801991781&Signature=zqU7gZOOHUu8fw7c%2Fg8gwXZ4KmI%3D",8,13,0.380952380952381,0.492012779552716,0.497124075595727,0.448866444123335
254,"FMWUYX","Huffman High School-Magnet","Birmingham","AL","Vikings","950 Springville Road","https://cdn2buckets-live-s3dfaaws-1mlao80q0xoqe.s3.amazonaws.com/2f4b392d-be23-4041-ba99-4e3c9bc81997?AWSAccessKeyId=AKIAIUQNYZUJLIOKKJ3A&Expires=1801991780&Signature=x598LwwsyfZK2gFZfYCvXoA05zg%3D",8,13,0.380952380952381,0.489977728285078,0.497117516629712,0.448152536438158
255,"EER776","West Blocton High School","West Blocton","AL","Tiger","4734 Truman Aldrich Pkwy","https://cdn2buckets-live-s3dfaaws-1mlao80q0xoqe.s3.amazonaws.com/771a4607-f8e5-4e5e-e08d-feb92563fdd8?AWSAccessKeyId=AKIAIUQNYZUJLIOKKJ3A&Expires=1801991781&Signature=3rILQVEK%2BX8PS4ILfMMx3JwUiN0%3D",6,10,0.375,0.492424242424242,0.497037037037037,0.446607744107744
256,"Z5T82N","Alabama Christian Academy","Montgomery","AL","Eagles","4700 Wares Ferry Road","https://cdn2buckets-live-s3dfaaws-1mlao80q0xoqe.s3.amazonaws.com/bd755ae2-a6bb-480b-87ae-1f10f24d5bc9?AWSAccessKeyId=AKIAIUQNYZUJLIOKKJ3A&Expires=1801991779&Signature=DK9Ahug2QQmlbLMFAvcpwOT2mvU%3D",6,10,0.375,0.491228070175439,0.497572815533981,0.446323028444899
257,"67G4EP","John Carroll Catholic High School","Birmingham","AL","Cavalier","300 Lakeshore Parkway","https://cdn2buckets-live-s3dfaaws-1mlao80q0xoqe.s3.amazonaws.com/567b6f2d-44cc-49bd-9d41-1f825ccb345e?AWSAccessKeyId=AKIAIUQNYZUJLIOKKJ3A&Expires=1801991780&Signature=9zqNZU6QjLoVLq1Zc5BDeRE4PeM%3D",7,12,0.368421052631579,0.494802494802495,0.496817988969028,0.444753791475762
258,"8RFRZX","Holtville High School","Deatsville","AL","Bulldog","10425 Holtville Road","https://cdn2buckets-live-s3dfaaws-1mlao80q0xoqe.s3.amazonaws.com/bbce9ff5-9441-41e5-e936-5b00455354fa?AWSAccessKeyId=AKIAIUQNYZUJLIOKKJ3A&Expires=1801991780&Signature=WHvSCExFymlGKzLB0zJ%2BiwI8pqM%3D",7,12,0.368421052631579,0.491048593350384,0.497345132743363,0.443571711911107
259,"8V3GX2","Arab High School","Arab","AL",NA,"511 Arabian Drive","https://cdn2buckets-live-s3dfaaws-1mlao80q0xoqe.s3.amazonaws.com/e9976b93-79ba-490f-f417-77463aa44958?AWSAccessKeyId=AKIAIUQNYZUJLIOKKJ3A&Expires=1801991779&Signature=eb0JakF6%2B899ohyfCBTU27iA2Ng%3D",8,14,0.363636363636364,0.494809688581315,0.496825396825397,0.442844285664355
260,"3J8SF2","Sumter Central High School","York","AL","Jaguars","13878 US Highway 11","https://cdn2buckets-live-s3dfaaws-1mlao80q0xoqe.s3.amazonaws.com/ee070005-163c-43e3-dc33-ea3fa7099571?AWSAccessKeyId=AKIAIUQNYZUJLIOKKJ3A&Expires=1801991781&Signature=IT4Tl4YHRh8OsE1IkCTDj8rgYJg%3D",4,7,0.363636363636364,0.492753623188406,0.49683257918552,0.442126458366868
261,"PRHADG","Enterprise High School","Enterprise","AL","Wildcats","1801 Boll Weevil Circle","https://cdn2buckets-live-s3dfaaws-1mlao80q0xoqe.s3.amazonaws.com/ba2e5526-a3aa-495f-960f-20f3a5f70924?AWSAccessKeyId=AKIAIUQNYZUJLIOKKJ3A&Expires=1801991779&Signature=qX6QXuqXeH2PyyY9w7dGRwvS5lQ%3D",7,12,0.368421052631579,0.487414187643021,0.496493170911776,0.442086679455633
262,"FFAHT8","Winfield High School","Winfield","AL","Pirate","232 Pirate Cove","https://cdn2buckets-live-s3dfaaws-1mlao80q0xoqe.s3.amazonaws.com/ebc62c43-f251-4772-b33b-6d6073f58224?AWSAccessKeyId=AKIAIUQNYZUJLIOKKJ3A&Expires=1801991781&Signature=IrM4TtCNjY4r%2Fl0ZGLcW5hBmfkU%3D",4,7,0.363636363636364,0.489270386266094,0.497165991902834,0.440990678623387
263,"NVAEEG","Mountain Brook High School","Mountain Brook","AL","Spartans","3650 Bethune Drive ","https://cdn2buckets-live-s3dfaaws-1mlao80q0xoqe.s3.amazonaws.com/450be57e-03d2-4ace-9ad4-9d936569f882?AWSAccessKeyId=AKIAIUQNYZUJLIOKKJ3A&Expires=1801991780&Signature=bOZe3Zd2IZ9V%2BBxorZaeX7xnrZY%3D",5,8,0.357142857142857,0.493055555555556,0.497936726272352,0.439910768869675
264,"7YZHTV","Maplesville High School","Maplesville","AL","Red Devils","1256 AL Hwy 139","https://cdn2buckets-live-s3dfaaws-1mlao80q0xoqe.s3.amazonaws.com/bf855484-12db-48a3-9127-9be85e003b0f?AWSAccessKeyId=AKIAIUQNYZUJLIOKKJ3A&Expires=1801991780&Signature=t64ddvaLMsEzKC9%2FMVnEqD244kE%3D",5,9,0.357142857142857,0.493055555555556,0.497206703910615,0.439728263279241
265,"REM93W","B.C. Rain High School","Mobile","AL","Red Raiders","3125 Dauphin Island Parkway","https://cdn2buckets-live-s3dfaaws-1mlao80q0xoqe.s3.amazonaws.com/4fbe9de7-e714-4785-871e-b9e95c5c5a9e?AWSAccessKeyId=AKIAIUQNYZUJLIOKKJ3A&Expires=1801991779&Signature=gAbXCLv5UgOArpRSEdYu7pBQv4k%3D",5,9,0.357142857142857,0.493055555555556,0.49618320610687,0.439472388828305
266,"47PAUC","Section High School","Section","AL","Lions","141 AL HWY 71","https://cdn2buckets-live-s3dfaaws-1mlao80q0xoqe.s3.amazonaws.com/40b6a33c-cc27-4ed9-9759-3191a5747494?AWSAccessKeyId=AKIAIUQNYZUJLIOKKJ3A&Expires=1801991780&Signature=4ce54KSSxpDvOZ5nWLslVQWPXqA%3D",6,11,0.352941176470588,0.492099322799097,0.497249724972497,0.437723664811044
267,"3W26DU","Westminster School At Oak Mountain","Birmingham","AL","Knights","5080 Cahaba Valley Trace","https://cdn2buckets-live-s3dfaaws-1mlao80q0xoqe.s3.amazonaws.com/ca5d014b-d56f-4bb5-e463-10b670bf1812?AWSAccessKeyId=AKIAIUQNYZUJLIOKKJ3A&Expires=1801991781&Signature=mO8uzC14jhtff9GffYsC4TG4qAg%3D",7,13,0.35,0.493421052631579,0.497530864197531,0.437080084470435
268,"3VGVSE","Tharptown High School","Russellville","AL","Wildcats","255 Highway 80","https://cdn2buckets-live-s3dfaaws-1mlao80q0xoqe.s3.amazonaws.com/4322a3a6-7d15-44dc-a940-4911a764ce6f?AWSAccessKeyId=AKIAIUQNYZUJLIOKKJ3A&Expires=1801991781&Signature=SuCDOmMhnZx7hHNf5dkgVjcJrKY%3D",6,11,0.352941176470588,0.487179487179487,0.495886312640239,0.435660869261116
269,"HBDQWR","Pike Road High School","Pike Road","AL","Patriots","696 Georgia Washington Rd","https://cdn2buckets-live-s3dfaaws-1mlao80q0xoqe.s3.amazonaws.com/0e0a7545-2688-4761-f79b-4ecd49cf8026?AWSAccessKeyId=AKIAIUQNYZUJLIOKKJ3A&Expires=1801991780&Signature=yJTtuTnVt0GQUpRGFxOaDFxIZwQ%3D",8,15,0.347826086956522,0.487985212569316,0.495734597156398,0.433858908470969
270,"74L9YR","Keith High School","Orrville","AL","Bear","1166 County Road 115","https://cdn2buckets-live-s3dfaaws-1mlao80q0xoqe.s3.amazonaws.com/f54ace3d-17b7-4925-8712-1e8f0612f7b4?AWSAccessKeyId=AKIAIUQNYZUJLIOKKJ3A&Expires=1801991780&Signature=FMpbNxwZuzKJ03vfDc4YuJr76a8%3D",4,8,0.333333333333333,0.493197278911565,0.497872340425532,0.430420466058764
271,"NCHWT2","Madison County High School","Gurley","AL",NA,"174 Brock Road ","https://cdn2buckets-live-s3dfaaws-1mlao80q0xoqe.s3.amazonaws.com/7c6f2039-4a79-4222-ac87-0a1854c328d7?AWSAccessKeyId=AKIAIUQNYZUJLIOKKJ3A&Expires=1801991780&Signature=MBPkzj6rUzCu2pMNcXJFJxlmZYY%3D",7,13,0.333333333333333,0.492099322799097,0.496915045087803,0.429796857584968
272,"872Q8Q","Sumiton Christian School","Sumiton","AL","Eagles","155 Hosanna Drive","https://cdn2buckets-live-s3dfaaws-1mlao80q0xoqe.s3.amazonaws.com/1ea9604d-7cda-40b2-a2c2-1a3f524a88c4?AWSAccessKeyId=AKIAIUQNYZUJLIOKKJ3A&Expires=1801991781&Signature=x4vh20jIyN8uqx7kMW8vBv6fl4A%3D",4,8,0.333333333333333,0.491071428571429,0.497912317327766,0.429686412665275
273,"7PCA46","Oakwood Adventist Academy","Huntsville","AL","Mustangs","7000 ADVENTIST BLVD NW","https://cdn2buckets-live-s3dfaaws-1mlao80q0xoqe.s3.amazonaws.com/f9af6798-8737-4925-b2d0-0d7eea6529bb?AWSAccessKeyId=AKIAIUQNYZUJLIOKKJ3A&Expires=1801991780&Signature=8JtCL0Ig3PUJG07PFEMnUrrcaKc%3D",5,10,0.333333333333333,0.490196078431373,0.497573886193207,0.429295432332615
274,"WTFF6B","Lawrence County High School","Moulton","AL","Red Devil","102 College Street","https://cdn2buckets-live-s3dfaaws-1mlao80q0xoqe.s3.amazonaws.com/edc2fa61-6a9a-4861-8d47-3fd0a453d2c7?AWSAccessKeyId=AKIAIUQNYZUJLIOKKJ3A&Expires=1801991780&Signature=e10A7wyPttpfxzt6iLWyQPHMsV0%3D",7,14,0.333333333333333,0.490644490644491,0.496723460026212,0.429239770065458
275,"NRYFWM","Dallas County High School","Plantersville","AL","Hornets","335 5th Avenue","https://cdn2buckets-live-s3dfaaws-1mlao80q0xoqe.s3.amazonaws.com/a9840f2c-04d6-4f76-8eea-275a44d59801?AWSAccessKeyId=AKIAIUQNYZUJLIOKKJ3A&Expires=1801991779&Signature=wUPGkC%2BMZnRxvDdMN0gerOC5gDg%3D",6,12,0.333333333333333,0.490196078431373,0.496523754345307,0.42903289937064
276,"KKYA5X","Opelika High School","Opelika","AL","Bulldogs","1700 Lafayette Parkway","https://cdn2buckets-live-s3dfaaws-1mlao80q0xoqe.s3.amazonaws.com/ae317f89-d138-456a-c2c8-672eb8fdcb9b?AWSAccessKeyId=AKIAIUQNYZUJLIOKKJ3A&Expires=1801991780&Signature=qEz%2FlEj%2FWU8K7BvVGFdCaV9FfjA%3D",7,14,0.333333333333333,0.482384823848238,0.494246575342466,0.425729665515833
277,"WKAEPX","A.P. Brewer High School","Somerville","AL","Patriots","59 Eva Road","https://cdn2buckets-live-s3dfaaws-1mlao80q0xoqe.s3.amazonaws.com/24d1db79-3496-45b2-fa8b-998e16b9f179?AWSAccessKeyId=AKIAIUQNYZUJLIOKKJ3A&Expires=1801991779&Signature=Cvi7CLvzEc7kisxHKfIMCi9ayWk%3D",9,19,0.321428571428571,0.490291262135922,0.496840442338073,0.42438348090352
278,"XUKN6F","Piedmont High School","Piedmont","AL","Bulldogs","750 Tom Bible Memorial Highway","https://cdn2buckets-live-s3dfaaws-1mlao80q0xoqe.s3.amazonaws.com/a3a9f76d-e3fd-4aa7-eae2-16fa90807a35?AWSAccessKeyId=AKIAIUQNYZUJLIOKKJ3A&Expires=1801991780&Signature=kV%2Fu33NuwNYik%2FTMnS%2BGYTVyrtA%3D",5,11,0.3125,0.492990654205608,0.49748743718593,0.421918588268445
279,"8DDWTX","Brooks High School","Killen","AL","Lions","4300 US- 72","https://cdn2buckets-live-s3dfaaws-1mlao80q0xoqe.s3.amazonaws.com/477d9b64-05c2-45e2-d50c-8dd6a14e41e7?AWSAccessKeyId=AKIAIUQNYZUJLIOKKJ3A&Expires=1801991779&Signature=fu%2FuzchOmfhvsfLzd49eOYKaang%3D",6,13,0.315789473684211,0.490196078431373,0.496007515265383,0.42188629574101
280,"PJQR2B","Hamilton High School","Hamilton","AL","Aggies","211 aggie ave.","https://cdn2buckets-live-s3dfaaws-1mlao80q0xoqe.s3.amazonaws.com/ae4c70d3-ac5e-43c4-f3b4-b99c60d4de35?AWSAccessKeyId=AKIAIUQNYZUJLIOKKJ3A&Expires=1801991780&Signature=zuflxtTW%2BI%2BLRlG%2B0Wj837vAmfM%3D",6,12,0.315789473684211,0.48910411622276,0.497121925693354,0.421782711574989
281,"F9G74Q","Spanish Fort High School","Spanish Fort","AL","Toros","1 Plaza De Toros","https://cdn2buckets-live-s3dfaaws-1mlao80q0xoqe.s3.amazonaws.com/4bfc1e35-6891-498b-dfc5-a22433c49749?AWSAccessKeyId=AKIAIUQNYZUJLIOKKJ3A&Expires=1801991781&Signature=ZPuVfnc1Afb7uIXbNW9ES%2FHNCK8%3D",6,13,0.315789473684211,0.489607390300231,0.494766224703419,0.42136993225462
282,"8TF8MQ","Ragland High School","Ragland","AL","Purple Devils","1060 Main Street","https://cdn2buckets-live-s3dfaaws-1mlao80q0xoqe.s3.amazonaws.com/c7c8f8da-cbfc-42d7-e768-5136085abebc?AWSAccessKeyId=AKIAIUQNYZUJLIOKKJ3A&Expires=1801991780&Signature=la7dQDEDy%2B2ZWqYeUb%2BuP40S%2F5Q%3D",5,11,0.3125,0.491279069767442,0.497297297297297,0.421271998742929
283,"MKCB2D","Cherokee High School","Cherokee","AL","Indian","850 High School Drive","https://cdn2buckets-live-s3dfaaws-1mlao80q0xoqe.s3.amazonaws.com/c6750936-e986-4ebe-9598-039aaaa6e333?AWSAccessKeyId=AKIAIUQNYZUJLIOKKJ3A&Expires=1801991779&Signature=QlkwZQrdAYlHGaBtS%2BMEPSUMkUQ%3D",5,11,0.3125,0.490384615384615,0.494727592267135,0.420316513451399
284,"9XJKWZ","Brewbaker Tech Magnet High School","Montgomery","AL","Rams","4405 Brewbaker Drive","https://cdn2buckets-live-s3dfaaws-1mlao80q0xoqe.s3.amazonaws.com/2f08b109-3275-4fc9-d993-910ba4c4ee2e?AWSAccessKeyId=AKIAIUQNYZUJLIOKKJ3A&Expires=1801991779&Signature=8RP1gqI35kC1qvkHKYDvn4cIW2c%3D",5,11,0.3125,0.486979166666667,0.495603517186251,0.419343587629896
285,"TPPH4T","Montevallo High School","Montevallo","AL","Bulldogs","980 Oak Street","https://cdn2buckets-live-s3dfaaws-1mlao80q0xoqe.s3.amazonaws.com/af65e46e-d5f0-479a-96bb-e9d0f0142615?AWSAccessKeyId=AKIAIUQNYZUJLIOKKJ3A&Expires=1801991780&Signature=4CcubfJlCr%2FqEXlFIs23sqB%2Bgn8%3D",8,18,0.307692307692308,0.489795918367347,0.496113074204947,0.418533763056731
286,"SAQCYC","Randolph County High School","Wedowee","AL","Tiger","465 Woodland Ave.","https://cdn2buckets-live-s3dfaaws-1mlao80q0xoqe.s3.amazonaws.com/3cd780a8-5bcb-4e48-a4b6-bf3d7465b6af?AWSAccessKeyId=AKIAIUQNYZUJLIOKKJ3A&Expires=1801991780&Signature=GHDMQxlCkoJiF787%2BG4HWwjgrJQ%3D",4,9,0.307692307692308,0.489270386266094,0.496707431796801,0.418498416219256
287,"EPMHFL","Oneonta High School","Oneonta","AL",NA,"27605 State Highway 75","https://cdn2buckets-live-s3dfaaws-1mlao80q0xoqe.s3.amazonaws.com/3378ad38-4bf4-4218-cbe0-cecb166928b1?AWSAccessKeyId=AKIAIUQNYZUJLIOKKJ3A&Expires=1801991780&Signature=l7OwzjDZnexNA4RPPpm5ByNOQsg%3D",6,13,0.3,0.491666666666667,0.498040752351097,0.416593521421108
288,"78TKCZ","Wadley High School","Wadley","AL","Bulldogs","105 Bailey St","https://cdn2buckets-live-s3dfaaws-1mlao80q0xoqe.s3.amazonaws.com/5a6f447f-2920-4348-db0b-c5c9870a6edb?AWSAccessKeyId=AKIAIUQNYZUJLIOKKJ3A&Expires=1801991781&Signature=BkruQohPzsWFgpt%2Fb%2FbRNh5Ey3U%3D",3,7,0.3,0.490384615384615,0.496402877697842,0.415735334809076
289,"TSWE3S","Davidson High School","Mobile","AL","Warrior","3900 Pleasant Valley Road","https://cdn2buckets-live-s3dfaaws-1mlao80q0xoqe.s3.amazonaws.com/0808b911-5aea-488c-a72f-b0010dad5855?AWSAccessKeyId=AKIAIUQNYZUJLIOKKJ3A&Expires=1801991779&Signature=1frS%2FPBO%2BD%2FB7LhAZHTpYOj4uMo%3D",7,16,0.304347826086957,0.486873508353222,0.494149414941494,0.415682212093784
290,"EMGFJN","Vina High School","Vina","AL","Red Devils","8250 Highway 23 ","https://cdn2buckets-live-s3dfaaws-1mlao80q0xoqe.s3.amazonaws.com/b620d81a-c52b-4a5f-d42a-8fb565cfabcc?AWSAccessKeyId=AKIAIUQNYZUJLIOKKJ3A&Expires=1801991781&Signature=OFRnEULQPork1HjSnNLOB0Iw9BY%3D",7,16,0.304347826086957,0.485587583148559,0.495817066369214,0.415649051129082
291,"286UE2","Pinson Valley High School","Pinson","AL","Indians","6895 Highway 75","https://cdn2buckets-live-s3dfaaws-1mlao80q0xoqe.s3.amazonaws.com/3a86144f-3b9b-46bf-eb15-fef6167cc602?AWSAccessKeyId=AKIAIUQNYZUJLIOKKJ3A&Expires=1801991780&Signature=el0TOqrYCSuvPH%2BYuF%2FEiQxRXSY%3D",5,12,0.294117647058824,0.492842535787321,0.497208783029401,0.414444142106442
292,"BKTUE5","East Lawrence High School ","Trinity","AL","Eagle","55 County Road 370","https://cdn2buckets-live-s3dfaaws-1mlao80q0xoqe.s3.amazonaws.com/7fd047de-d8f7-487f-cd00-45b91565fc4c?AWSAccessKeyId=AKIAIUQNYZUJLIOKKJ3A&Expires=1801991779&Signature=H6sExqkwGzGclFnidiNM6L1jsOw%3D",5,12,0.294117647058824,0.490981963927856,0.49618320610687,0.413536547724996
293,"VJ66N9","Rehobeth High School","Dothan","AL","Rebels","373 Malvern Road","https://cdn2buckets-live-s3dfaaws-1mlao80q0xoqe.s3.amazonaws.com/370ac070-7c95-4ce7-b418-53aba6d04f66?AWSAccessKeyId=AKIAIUQNYZUJLIOKKJ3A&Expires=1801991780&Signature=N7c94I5P%2FD5lZ%2BEg8PpmhelnwYU%3D",8,17,0.296296296296296,0.487684729064039,0.496541681834729,0.413343594149615
294,"C3PH8X","Opp High School","Opp","AL","Bobcats","502 N. Maloy Street","https://cdn2buckets-live-s3dfaaws-1mlao80q0xoqe.s3.amazonaws.com/5758646e-417f-4af2-b3e0-21ca9adc1a92?AWSAccessKeyId=AKIAIUQNYZUJLIOKKJ3A&Expires=1801991780&Signature=581WwDpgjh%2FhonnBTe4wBTRJh7A%3D",5,12,0.294117647058824,0.489096573208723,0.491821155943293,0.411786148432406
295,"V65K88","Beulah High School","Valley","AL","Bobcat","4848 Lee Road 270","https://cdn2buckets-live-s3dfaaws-1mlao80q0xoqe.s3.amazonaws.com/e60101d8-76f1-451a-af02-fabd65942aae?AWSAccessKeyId=AKIAIUQNYZUJLIOKKJ3A&Expires=1801991779&Signature=27lZfiD0fOPVrk%2FhJDXqlOdENwM%3D",6,14,0.3,0.477777777777778,0.494423791821561,0.410828170177613
296,"ZSSND5","Berry High School","Berry","AL","Wildcats","18242 Highway 18 East","https://cdn2buckets-live-s3dfaaws-1mlao80q0xoqe.s3.amazonaws.com/f9846204-6978-47e7-ef8e-ef47cea231fa?AWSAccessKeyId=AKIAIUQNYZUJLIOKKJ3A&Expires=1801991779&Signature=yx1uypgotOfEuLcNj92bzEpVi%2FY%3D",5,12,0.294117647058824,0.482315112540193,0.496214728148658,0.410511030249761
297,"A9FE3R","Chickasaw High School","Chickasaw","AL","Chieftains","50 Chieftain Way","https://cdn2buckets-live-s3dfaaws-1mlao80q0xoqe.s3.amazonaws.com/d384ecc1-0e87-46a5-911b-51a11d8325cc?AWSAccessKeyId=AKIAIUQNYZUJLIOKKJ3A&Expires=1801991779&Signature=YOrK%2FQOsGihWRTx8cs3xazcWiUU%3D",4,9,0.285714285714286,0.488188976377953,0.496323529411765,0.409232738370939
298,"MC62WV","Brookwood High School","Brookwood","AL","Panthers","12250 George Richmond Parkway","https://cdn2buckets-live-s3dfaaws-1mlao80q0xoqe.s3.amazonaws.com/ba15a354-374e-4e02-f4f6-47c03ffef769?AWSAccessKeyId=AKIAIUQNYZUJLIOKKJ3A&Expires=1801991779&Signature=n3iOP8y04NmHfwFQbk%2BjYESyw90%3D",6,15,0.285714285714286,0.48780487804878,0.496127562642369,0.40904931226338
299,"VLCC25","Geraldine High School","Geraldine","AL","Bulldogs","13011 AL Hwy 227","https://cdn2buckets-live-s3dfaaws-1mlao80q0xoqe.s3.amazonaws.com/6f381591-3ce1-4d06-d345-f8f6fc2c87e2?AWSAccessKeyId=AKIAIUQNYZUJLIOKKJ3A&Expires=1801991780&Signature=3gvGFPDDQA1Y%2FpAdcfra7KpiQvk%3D",8,20,0.285714285714286,0.486784140969163,0.496028243601059,0.408667224525186
300,"HMRZ7H","Marbury High School","Deatsville","AL","Bulldogs","2360 US Highway 31 North","https://cdn2buckets-live-s3dfaaws-1mlao80q0xoqe.s3.amazonaws.com/525dfa22-cd39-47b0-c70b-44159e8c9fb9?AWSAccessKeyId=AKIAIUQNYZUJLIOKKJ3A&Expires=1801991780&Signature=hCgI%2BM1eVJWtyTJsKjaVzq9bs5Y%3D",5,13,0.277777777777778,0.491031390134529,0.495836802664446,0.406931298324308
301,"8R8RQ4","Flomaton High School","Flomaton","AL","Hurricanes","21200 US Highway 31","https://cdn2buckets-live-s3dfaaws-1mlao80q0xoqe.s3.amazonaws.com/0cf83030-3e27-4101-cd37-405c5b9282ce?AWSAccessKeyId=AKIAIUQNYZUJLIOKKJ3A&Expires=1801991779&Signature=wIXDM5uw4lVmSp1abRyifLGB0rw%3D",4,10,0.285714285714286,0.483695652173913,0.493006993006993,0.406830940798332
302,"29UCN2","Lindsay Lane Christian Academy","Athens","AL","Lions","705 W Sanderfer Rd","https://cdn2buckets-live-s3dfaaws-1mlao80q0xoqe.s3.amazonaws.com/ef02baf7-d428-48a0-fd0e-d148da6f0866?AWSAccessKeyId=AKIAIUQNYZUJLIOKKJ3A&Expires=1801991780&Signature=yBxUohNPr%2BZakYe6hcpDZ9Uuq%2Fg%3D",7,18,0.28,0.4880174291939,0.494811578372474,0.406508994810983
303,"JYY8CN","Talladega High School","Talladega","AL","Tiger","1177 McMillan Street","https://cdn2buckets-live-s3dfaaws-1mlao80q0xoqe.s3.amazonaws.com/bd1acf6b-adbc-467c-d76a-f8f6cd988564?AWSAccessKeyId=AKIAIUQNYZUJLIOKKJ3A&Expires=1801991781&Signature=HXm5llNCWOHAYkVRMBqF9o0AsqI%3D",5,13,0.277777777777778,0.487113402061856,0.496888888888889,0.405823024054983
304,"YF3DFT","American Christian Academy","Tuscaloosa","AL","Patriots","2300 Veterans Memorial Parkway","https://cdn2buckets-live-s3dfaaws-1mlao80q0xoqe.s3.amazonaws.com/ee547cc4-af82-45db-e43b-dcd7a8243c49?AWSAccessKeyId=AKIAIUQNYZUJLIOKKJ3A&Expires=1801991779&Signature=xMMT35ibIk8KzNfPEWb24%2BhSU8I%3D",5,13,0.277777777777778,0.487341772151899,0.496399176954733,0.405780525602959
305,"97LVA2","Shoals Christian School","Florence","AL","Flame","301 Heathrow Drive","https://cdn2buckets-live-s3dfaaws-1mlao80q0xoqe.s3.amazonaws.com/ea7365c4-09b9-43b8-e450-85f07499c5d0?AWSAccessKeyId=AKIAIUQNYZUJLIOKKJ3A&Expires=1801991780&Signature=u1ozB3HGiM5pQSUREb0eZRkunYY%3D",5,13,0.277777777777778,0.487745098039216,0.494631901840491,0.405479870884959
306,"3V2QZX","Zion Chapel High School","Jack","AL","Rebels","29256 AL-87","https://cdn2buckets-live-s3dfaaws-1mlao80q0xoqe.s3.amazonaws.com/011ab320-4ab5-4790-9d50-90b7d4fe79e3?AWSAccessKeyId=AKIAIUQNYZUJLIOKKJ3A&Expires=1801991781&Signature=bD41spC6pkOtp4wXO3JR63DUIX4%3D",4,10,0.285714285714286,0.479838709677419,0.491916859122402,0.405208477453412
307,"YBVVGE","Helena High School","Helena","AL","Huskies","1310 Hillsboro Pkwy","https://cdn2buckets-live-s3dfaaws-1mlao80q0xoqe.s3.amazonaws.com/9ea16b9e-e502-4015-9533-50716d450b71?AWSAccessKeyId=AKIAIUQNYZUJLIOKKJ3A&Expires=1801991780&Signature=KRoWsl3P2sT3ZiAEEf5GoXvx2Lc%3D",6,16,0.272727272727273,0.490712074303406,0.496472097498396,0.4049581594717
308,"K8CCRJ","Hubbertville High School","Fayette","AL","Lions","7360 County Road 49","https://cdn2buckets-live-s3dfaaws-1mlao80q0xoqe.s3.amazonaws.com/7bc90fcb-6a97-44b3-9cec-54cb89279fc7?AWSAccessKeyId=AKIAIUQNYZUJLIOKKJ3A&Expires=1801991780&Signature=JAhkzdGg%2BgA8uVQLIPXYiZ%2F9EA4%3D",5,13,0.277777777777778,0.48314606741573,0.494736842105263,0.403896445232932
309,"C6PG4H","Red Bay High School","Red Bay","AL","Tigers","800  8th ST SE","https://cdn2buckets-live-s3dfaaws-1mlao80q0xoqe.s3.amazonaws.com/e3939368-cbde-4fb9-a6e1-bbc290671fb6?AWSAccessKeyId=AKIAIUQNYZUJLIOKKJ3A&Expires=1801991780&Signature=xtHUnSMIaBHt%2FnfmXMBWeOAJX3w%3D",3,8,0.272727272727273,0.485477178423237,0.496590204587725,0.403155472685973
310,"37JNNB","Robertsdale High School","Robertsdale","AL","Golden Bears","1 Golden Bear Dr","https://cdn2buckets-live-s3dfaaws-1mlao80q0xoqe.s3.amazonaws.com/26999825-af33-4a57-cb33-c780f421a182?AWSAccessKeyId=AKIAIUQNYZUJLIOKKJ3A&Expires=1801991780&Signature=EPj99p9t4rpMEWs7v3fp%2FYADmR8%3D",4,11,0.266666666666667,0.490909090909091,0.49592290585619,0.402465574948896
311,"8395UL","LaFayette High School","Lafayette","AL",NA,NA,"https://cdn2buckets-live-s3dfaaws-1mlao80q0xoqe.s3.amazonaws.com/3e1c2571-2ab5-49b5-e2b9-630bbd8890c6?AWSAccessKeyId=AKIAIUQNYZUJLIOKKJ3A&Expires=1801991780&Signature=JtHLWKX1US639xg1hQYyDlrUKlw%3D",3,7,0.272727272727273,0.484304932735426,0.494472361809045,0.402215726000569
312,"75BRL7","Leeds High School","Leeds","AL","Greenwave","1500 Greenwave Drive","https://cdn2buckets-live-s3dfaaws-1mlao80q0xoqe.s3.amazonaws.com/5ec0ffcc-8b1e-4a7e-f522-dd17462729bc?AWSAccessKeyId=AKIAIUQNYZUJLIOKKJ3A&Expires=1801991780&Signature=VFl0xRlZ%2BwIAelQdVdhD4BWIG9s%3D",4,11,0.266666666666667,0.48910411622276,0.49724692926726,0.402164839661448
313,"5D5D4E","Cordova High School","Cordova","AL","Devil","183 School Road","https://cdn2buckets-live-s3dfaaws-1mlao80q0xoqe.s3.amazonaws.com/e833608c-84e0-4114-c597-7e86e20091d1?AWSAccessKeyId=AKIAIUQNYZUJLIOKKJ3A&Expires=1801991779&Signature=xl%2FY5AHkfEGuaJ5ahReB4ZsrW7I%3D",4,11,0.266666666666667,0.488888888888889,0.496430532674355,0.401885410946366
314,"469AE7","Elmore County High School","Eclectic","AL","Panthers","155 North College Ave","https://cdn2buckets-live-s3dfaaws-1mlao80q0xoqe.s3.amazonaws.com/6243b7a8-835a-4f43-eb19-8c2746d5cc1e?AWSAccessKeyId=AKIAIUQNYZUJLIOKKJ3A&Expires=1801991779&Signature=Uc42HPq%2BzVFCVHxVllcWtUnb7Qk%3D",5,14,0.263157894736842,0.486215538847118,0.49590387766248,0.399414565906848
315,"1L8YCV","Hanceville High School","Hanceville","AL","Bulldog","801 Commercial ST","https://cdn2buckets-live-s3dfaaws-1mlao80q0xoqe.s3.amazonaws.com/db2bf0d0-fe43-43ed-dbd2-3a7b7d818b2b?AWSAccessKeyId=AKIAIUQNYZUJLIOKKJ3A&Expires=1801991780&Signature=DOlM8VSCF0by%2FIk0kaaQ%2FarlVds%3D",6,17,0.260869565217391,0.48735632183908,0.497062279670975,0.399188108648379
316,"4QAWD9","Tanner High School","Tanner","AL","Rattlers","12060 Sommers Rd","https://cdn2buckets-live-s3dfaaws-1mlao80q0xoqe.s3.amazonaws.com/392e2e36-b3bf-4643-e9e0-60bad6b9b80b?AWSAccessKeyId=AKIAIUQNYZUJLIOKKJ3A&Expires=1801991781&Signature=0gsEw%2BdEezTXrK1%2BOtUC8%2F93wAQ%3D",4,12,0.25,0.489247311827957,0.495575221238938,0.395130364449519
317,"P6THE9","Faith Academy","Mobile","AL","Rams","8650 Tanner Williams Road","https://cdn2buckets-live-s3dfaaws-1mlao80q0xoqe.s3.amazonaws.com/6497c120-d289-4cfb-e8c3-f4af6c3624da?AWSAccessKeyId=AKIAIUQNYZUJLIOKKJ3A&Expires=1801991779&Signature=Uvyx2u7UykLqbJurTP8wHJAm8tI%3D",4,12,0.25,0.488372093023256,0.494727592267135,0.394612130624923
318,"FF1BKX","Westminster Christian Academy","Huntsville","AL","Wildcats","PO Box 5287","https://cdn2buckets-live-s3dfaaws-1mlao80q0xoqe.s3.amazonaws.com/15f286d7-d4c4-43d1-f32f-8bc863da5225?AWSAccessKeyId=AKIAIUQNYZUJLIOKKJ3A&Expires=1801991781&Signature=0iZspFkFfAmDFtD3TVsv%2BB8S47w%3D",4,12,0.25,0.485380116959064,0.495187165775401,0.393679832379523
319,"GXX6TS","Pike County High School","Brundidge","AL","Bulldog","552 South Main Street","https://cdn2buckets-live-s3dfaaws-1mlao80q0xoqe.s3.amazonaws.com/ad34d574-ef21-46c5-ea52-81e8bd2ad637?AWSAccessKeyId=AKIAIUQNYZUJLIOKKJ3A&Expires=1801991780&Signature=WJ8AzKgBMMWzzIiYoVboVC4RJ3Y%3D",3,9,0.25,0.481981981981982,0.49375,0.392131193693694
320,"36Y33C","LAMP High School","Montgomery","AL","Golden Tigers","3440 McGehee Rd","https://cdn2buckets-live-s3dfaaws-1mlao80q0xoqe.s3.amazonaws.com/84e237c2-15ec-4539-de85-5656919a59f6?AWSAccessKeyId=AKIAIUQNYZUJLIOKKJ3A&Expires=1801991780&Signature=qtDSwUar%2F1JFwLT8Cnecw3CJk10%3D",4,11,0.25,0.48062015503876,0.495215311004785,0.392020882014762
321,"N3PQKJ","St. Clair County High School","Odenville","AL","Saints","16700 Hwy 411N","https://cdn2buckets-live-s3dfaaws-1mlao80q0xoqe.s3.amazonaws.com/f6272871-0c98-4c78-99ae-323d0491cae1?AWSAccessKeyId=AKIAIUQNYZUJLIOKKJ3A&Expires=1801991781&Signature=I6TowR2N7vCXo9PkwIWgLqJfJC0%3D",4,13,0.235294117647059,0.490683229813665,0.4970249900833,0.390113025014431
322,"BQJUYQ","Austin High School","Decatur","AL","Black Bears","3004 Modaus Road SW","https://cdn2buckets-live-s3dfaaws-1mlao80q0xoqe.s3.amazonaws.com/4b92f3b1-daf2-40bb-edeb-c03808a8e59a?AWSAccessKeyId=AKIAIUQNYZUJLIOKKJ3A&Expires=1801991779&Signature=pcU4AdWh0zw8XfXgm3R%2F6UDACLw%3D",3,10,0.230769230769231,0.491484184914842,0.497792051384986,0.388775169874133
323,"KJNAZV","Oakman High School","Oakman","AL",NA,"10699 Main Street","https://cdn2buckets-live-s3dfaaws-1mlao80q0xoqe.s3.amazonaws.com/13de5799-aaa2-468b-ae09-4930cc339930?AWSAccessKeyId=AKIAIUQNYZUJLIOKKJ3A&Expires=1801991780&Signature=k8uHE%2Boy7LgwLMd9ELLi7dFBxJA%3D",4,13,0.235294117647059,0.48586118251928,0.49587178241865,0.388137006545234
324,"JG3A7Z","Fairfield High Preparatory School","Fairfield","AL","Tigers","610 Valley Road","https://cdn2buckets-live-s3dfaaws-1mlao80q0xoqe.s3.amazonaws.com/c0e3bb2e-108f-474c-8ca8-8019d736b1c3?AWSAccessKeyId=AKIAIUQNYZUJLIOKKJ3A&Expires=1801991779&Signature=g61sTZB8CWWq0vkkTf5XtoLpFvI%3D",3,10,0.230769230769231,0.489164086687306,0.497480531378836,0.387885255492959
325,"PQ47ZV","Pleasant Valley High School","Jacksonville","AL","Raiders","4141 Pleasant Valley Road","https://cdn2buckets-live-s3dfaaws-1mlao80q0xoqe.s3.amazonaws.com/43ab0f7c-379f-4882-db35-417f66c4a094?AWSAccessKeyId=AKIAIUQNYZUJLIOKKJ3A&Expires=1801991780&Signature=Uo%2BhCDuyF9fmvg3Zy9P6Nb8iig4%3D",4,13,0.235294117647059,0.484429065743945,0.495374264087468,0.387511386091071
326,"2M7V72","Grissom High School","Huntsville","AL","Tigers","1001 Haysland Road","https://cdn2buckets-live-s3dfaaws-1mlao80q0xoqe.s3.amazonaws.com/034d96f5-327a-4534-fd59-ebd45bd6b77c?AWSAccessKeyId=AKIAIUQNYZUJLIOKKJ3A&Expires=1801991780&Signature=k0sX2xGgZc9O%2FdBZ7IyXwiIXomQ%3D",5,18,0.217391304347826,0.487603305785124,0.494926350245499,0.381349266325299
327,"84BNG9","Valley Head High School","Valley Head","AL",NA,"PO Box 149","https://cdn2buckets-live-s3dfaaws-1mlao80q0xoqe.s3.amazonaws.com/7bc6713a-e4c9-4d76-97d8-01ee65738f5f?AWSAccessKeyId=AKIAIUQNYZUJLIOKKJ3A&Expires=1801991781&Signature=W5rgbXRMnjQWsU9Y7T%2Bi4%2BJzvMM%3D",3,11,0.214285714285714,0.489071038251366,0.497291440953413,0.381212009340617
328,"43SUDS","Danville High School","Danville","AL","Hawks","9235 Danville Rd","https://cdn2buckets-live-s3dfaaws-1mlao80q0xoqe.s3.amazonaws.com/2cfb5104-5757-4c65-99e3-7d1a6a12878e?AWSAccessKeyId=AKIAIUQNYZUJLIOKKJ3A&Expires=1801991779&Signature=qUNbGersEo87qkiBGP5w2soqZig%3D",3,11,0.214285714285714,0.490243902439024,0.495351239669421,0.3811374614853
329,"GTYVU2","Douglas High School","Douglas","AL","Eagles","P.O. Box 300","https://cdn2buckets-live-s3dfaaws-1mlao80q0xoqe.s3.amazonaws.com/b4e7724c-f9f7-43c4-f4f2-7ff3a9ef2bac?AWSAccessKeyId=AKIAIUQNYZUJLIOKKJ3A&Expires=1801991779&Signature=i9GAcarHlu4XAu%2FS35CSTgQwEvQ%3D",5,18,0.217391304347826,0.485822306238185,0.495946590367191,0.380980976514293
330,"EFLLEL","LeFlore Magnet High School	","Mobile","AL","Rattlers","700 Donald Street","https://cdn2buckets-live-s3dfaaws-1mlao80q0xoqe.s3.amazonaws.com/474f7f9c-ef29-4875-91ee-4aba7c0ed25b?AWSAccessKeyId=AKIAIUQNYZUJLIOKKJ3A&Expires=1801991780&Signature=bN8jcGsSi%2FeM1K%2B%2B5E4jhzhiiJc%3D",3,11,0.214285714285714,0.488038277511962,0.496224832214765,0.380583890897164
331,"68B34C","Smiths Station High School","Smiths Station","AL","Panthers","4228 Panther Parkway","https://cdn2buckets-live-s3dfaaws-1mlao80q0xoqe.s3.amazonaws.com/f27792c8-2ee3-4036-a86f-926c21329e9c?AWSAccessKeyId=AKIAIUQNYZUJLIOKKJ3A&Expires=1801991780&Signature=9d2ql9K0znJxpr1xW7Qobjbuf3Y%3D",3,11,0.214285714285714,0.487012987012987,0.494068801897983,0.379686031643327
332,"6DL2UA","Covenant Christian School","Tuscumbia","AL","Eagle","1900 Covenant Drive","https://cdn2buckets-live-s3dfaaws-1mlao80q0xoqe.s3.amazonaws.com/96b755b3-a65f-446a-cbcb-00485738a52d?AWSAccessKeyId=AKIAIUQNYZUJLIOKKJ3A&Expires=1801991779&Signature=BbsVOGWMeXSk7rfWHg9arJmOrsQ%3D",4,15,0.210526315789474,0.483709273182957,0.494291470785762,0.377081639626265
333,"LK9MLN","Corner High School","Dora","AL","Yellow Jackets","4301 Warrior Jasper Rd","https://cdn2buckets-live-s3dfaaws-1mlao80q0xoqe.s3.amazonaws.com/99a66be0-16fa-4fb4-f747-1d4652349e90?AWSAccessKeyId=AKIAIUQNYZUJLIOKKJ3A&Expires=1801991779&Signature=mXDKW1WGTNpG8EsZbNPK3FY3Iko%3D",4,16,0.2,0.486842105263158,0.495873968492123,0.374363228965136
334,"GYN3NW","Percy Julian High School","Montgomery","AL","Phoenix","225 Ann Street","https://cdn2buckets-live-s3dfaaws-1mlao80q0xoqe.s3.amazonaws.com/863428db-0f29-4847-c97d-d7cd497417bf?AWSAccessKeyId=AKIAIUQNYZUJLIOKKJ3A&Expires=1801991780&Signature=wPCw0joSKU8CtSk0VG1KAf4t7t0%3D",4,16,0.2,0.481958762886598,0.495,0.372435567010309
335,"X274L8","Ohatchee High School","Ohatchee","AL","Indians","100 Cherokee Trail","https://cdn2buckets-live-s3dfaaws-1mlao80q0xoqe.s3.amazonaws.com/9b1a5a72-2fe9-40b4-f42b-369139e9137c?AWSAccessKeyId=AKIAIUQNYZUJLIOKKJ3A&Expires=1801991780&Signature=k5Z3K82scYgxXSh1ELlMA1%2F8xs0%3D",2,9,0.181818181818182,0.486166007905138,0.496103896103896,0.366911349520045
336,"FUBE3S","Gaylesville High School","Gaylesville","AL","Trojans","760 Trojan Way","https://cdn2buckets-live-s3dfaaws-1mlao80q0xoqe.s3.amazonaws.com/202b9a3a-3d50-4d36-856b-9b6af678872d?AWSAccessKeyId=AKIAIUQNYZUJLIOKKJ3A&Expires=1801991780&Signature=wD3Z753RWG5CWGEdhRGp6wWNcfc%3D",2,9,0.181818181818182,0.485477178423237,0.496364838070059,0.36673549469292
337,"ARKSRQ","Baldwin County High School","Bay Minette","AL",NA,"1 Tiger Dr","https://cdn2buckets-live-s3dfaaws-1mlao80q0xoqe.s3.amazonaws.com/9a85678f-ec64-4b2c-87d2-0632a75d6c6e?AWSAccessKeyId=AKIAIUQNYZUJLIOKKJ3A&Expires=1801991779&Signature=kXvt2658ug5FVz8AHRolkkjfUFM%3D",4,18,0.181818181818182,0.48406374501992,0.493975903614458,0.365643559387859
338,"HTAWDT","Tuscaloosa County High School","Northport","AL","Wildcat","12500 Wildcat Drive","https://cdn2buckets-live-s3dfaaws-1mlao80q0xoqe.s3.amazonaws.com/3d6f2416-34cd-4e1d-b200-c7432a9c9290?AWSAccessKeyId=AKIAIUQNYZUJLIOKKJ3A&Expires=1801991781&Signature=No%2BK92PGkFyWtwuN5Edqa6Q0wlQ%3D",3,14,0.176470588235294,0.488069414316703,0.495705521472393,0.365338910673062
339,"Z3LDG5","Hueytown High School","Hueytown","AL","Gopher","4881 15th Street Road","https://cdn2buckets-live-s3dfaaws-1mlao80q0xoqe.s3.amazonaws.com/b2a90998-e358-4be1-eeab-269da8c1b9f7?AWSAccessKeyId=AKIAIUQNYZUJLIOKKJ3A&Expires=1801991780&Signature=TBrinxnqPNxNCM3OqgdTKw4oAWE%3D",3,13,0.176470588235294,0.487179487179487,0.49647741400746,0.365220409308803
340,"XD9FVZ","Washington County High School","Chatom","AL","Bulldogs","21 School Rd ","https://cdn2buckets-live-s3dfaaws-1mlao80q0xoqe.s3.amazonaws.com/da302b97-3ed9-4581-cca4-c364258616fa?AWSAccessKeyId=AKIAIUQNYZUJLIOKKJ3A&Expires=1801991781&Signature=dUFTmAvqH%2FU7zneVL70F2oIWl5w%3D",3,12,0.1875,0.477064220183486,0.492042440318302,0.364983087143796
341,"JN44X5","Pickens County High School","Reform","AL","Tornadoes","815 7th Ave SW","https://cdn2buckets-live-s3dfaaws-1mlao80q0xoqe.s3.amazonaws.com/ffb981dc-b909-4e4f-8cc3-2530fb9d1120?AWSAccessKeyId=AKIAIUQNYZUJLIOKKJ3A&Expires=1801991780&Signature=jWGhOTsaf%2FJuIBEOIt%2Bscd%2FT9u4%3D",2,9,0.181818181818182,0.480446927374302,0.496023138105568,0.36488948183467
342,"A84FFU","Goshen High School","Goshen","AL","Eagles","286 Eagle Circle | P.O. Box 7","https://cdn2buckets-live-s3dfaaws-1mlao80q0xoqe.s3.amazonaws.com/60f14789-729a-4d73-b050-1a18f20b9705?AWSAccessKeyId=AKIAIUQNYZUJLIOKKJ3A&Expires=1801991780&Signature=WXJXGr%2BYX9Jo0gdIun63jrNl9MI%3D",3,14,0.176470588235294,0.48377581120944,0.491511721907842,0.362787699694382
343,"UD6SVK","Geneva County High School","Hartford","AL","Bulldog","301 West Lily Street","https://cdn2buckets-live-s3dfaaws-1mlao80q0xoqe.s3.amazonaws.com/bf0a0141-412f-4a4f-e01d-de1b29f562de?AWSAccessKeyId=AKIAIUQNYZUJLIOKKJ3A&Expires=1801991780&Signature=UDIEKXRjjbbMrdkaLyq%2FsVuc8ns%3D",3,13,0.1875,0.474452554744526,0.486363636363636,0.362649303251493
344,"5BNXKE","Pike Liberal Arts School","Troy","AL","Patriots","P.O. Drawer 329","https://cdn2buckets-live-s3dfaaws-1mlao80q0xoqe.s3.amazonaws.com/2bf064b7-f7e9-47d5-a0c3-7a2ba5657464?AWSAccessKeyId=AKIAIUQNYZUJLIOKKJ3A&Expires=1801991780&Signature=zopjhJ5CoW8Wwvis%2FA6i1ivZoKE%3D",3,14,0.176470588235294,0.479905437352246,0.491358024691358,0.361394644540243
345,"PHUXRK","Woodville High School","Woodville","AL","Panthers","290 Co. Rd. 63","https://cdn2buckets-live-s3dfaaws-1mlao80q0xoqe.s3.amazonaws.com/d9c11198-ad12-49e4-c549-d7fd371d4694?AWSAccessKeyId=AKIAIUQNYZUJLIOKKJ3A&Expires=1801991781&Signature=UujwHVJLBleCKOVYM45ddztfLyY%3D",3,15,0.166666666666667,0.485981308411215,0.494543650793651,0.360396037309005
346,"EEKTT2","White Plains High School","Anniston","AL","Wildcats","250 White Plains Road","https://cdn2buckets-live-s3dfaaws-1mlao80q0xoqe.s3.amazonaws.com/8c7d2174-7cdf-4424-da1c-f462c5d62878?AWSAccessKeyId=AKIAIUQNYZUJLIOKKJ3A&Expires=1801991781&Signature=cVSgffT1DweOtt33S83QJbaxWCA%3D",2,10,0.166666666666667,0.481651376146789,0.495674740484429,0.35916333343915
347,"V6NHFM","Alabama School for the Deaf","Talladega","AL","Silent Warriors","205 South Street East","https://cdn2buckets-live-s3dfaaws-1mlao80q0xoqe.s3.amazonaws.com/b8caf658-dea4-4693-91eb-0073c191eeba?AWSAccessKeyId=AKIAIUQNYZUJLIOKKJ3A&Expires=1801991779&Signature=ldTjrS4PBRSUAVczIeMoAK8P44s%3D",2,10,0.166666666666667,0.481651376146789,0.495176848874598,0.359038860536692
348,"ESKY47","Pickens Academy","Carrollton","AL",NA,"225 RAY BASS RD","https://cdn2buckets-live-s3dfaaws-1mlao80q0xoqe.s3.amazonaws.com/482ad14a-e3c5-4f7c-c140-96cfd175ac32?AWSAccessKeyId=AKIAIUQNYZUJLIOKKJ3A&Expires=1801991780&Signature=UfUH3salW2bYvCBBrJaLiv9Gb8w%3D",2,10,0.166666666666667,0.481132075471698,0.494800693240901,0.358763066391986
349,"ENXYRR","Ariton High School","Ariton","AL","Purple Cats","264 Creel Richardson Drive","https://cdn2buckets-live-s3dfaaws-1mlao80q0xoqe.s3.amazonaws.com/f10a443e-33d8-48d4-a787-8d0c417c9b23?AWSAccessKeyId=AKIAIUQNYZUJLIOKKJ3A&Expires=1801991779&Signature=Tfp8wq6YYN64ozqL%2FRqcYTaRZuw%3D",2,10,0.166666666666667,0.477848101265823,0.493282149712092,0.357234039537728
350,"7JMBFE","Center Point High School","Center Point","AL","Eagles","1000 Eagle Drive","https://cdn2buckets-live-s3dfaaws-1mlao80q0xoqe.s3.amazonaws.com/6e5e91ef-0b6b-4286-85e5-ee6ef9156e38?AWSAccessKeyId=AKIAIUQNYZUJLIOKKJ3A&Expires=1801991779&Signature=02Vj4p7yVMXJVUdr2YaJYlgkGwU%3D",3,16,0.157894736842105,0.484184914841849,0.496167809600645,0.356664567331651
351,"FMLFGY","Oak Grove High School","Bessemer","AL","Tigers","9494 Oak Grove Parkway","https://cdn2buckets-live-s3dfaaws-1mlao80q0xoqe.s3.amazonaws.com/a3a562bc-d77d-46ea-cece-29e6109c9997?AWSAccessKeyId=AKIAIUQNYZUJLIOKKJ3A&Expires=1801991780&Signature=gxwgrJnhpjCGLPf%2BmIZ9bMhQzXk%3D",2,11,0.153846153846154,0.485436893203884,0.496919917864476,0.35567135362594
352,"QB8EEJ","Ellwood Christian Academy","Selma","AL","Eagles","1 Bell Road","https://cdn2buckets-live-s3dfaaws-1mlao80q0xoqe.s3.amazonaws.com/1f4cacd0-b9c9-4123-9e17-37ae27a0bd84?AWSAccessKeyId=AKIAIUQNYZUJLIOKKJ3A&Expires=1801991779&Signature=lPN014VwRKcHdgICqvN41QibPXQ%3D",3,16,0.157894736842105,0.48,0.494809688581315,0.354860316882171
353,"LHDU8R","Houston Academy","Dothan","AL","Raiders","901 Buena Vista Drive","https://cdn2buckets-live-s3dfaaws-1mlao80q0xoqe.s3.amazonaws.com/83ca3548-d187-48ad-a5c1-1f1753c83733?AWSAccessKeyId=AKIAIUQNYZUJLIOKKJ3A&Expires=1801991780&Signature=P6ViluDdr9BBIj8Ef7MDZ05wCKc%3D",2,11,0.153846153846154,0.476923076923077,0.487874465049929,0.350430154724021
354,"CNFAB2","W.S. Neal High School","East Brewton","AL","Eagles","801 Andrew Jackson St.","https://cdn2buckets-live-s3dfaaws-1mlao80q0xoqe.s3.amazonaws.com/9e9b4984-e695-46aa-d184-22ff03d2ad26?AWSAccessKeyId=AKIAIUQNYZUJLIOKKJ3A&Expires=1801991781&Signature=8jBJcOJ2DtuL7GPz%2Fh6IGb1Ek7o%3D",2,12,0.142857142857143,0.480519480519481,0.495157384987893,0.349114021571649
355,"5QMJFC","Lamar County High School","Vernon","AL","Bulldogs",NA,"https://cdn2buckets-live-s3dfaaws-1mlao80q0xoqe.s3.amazonaws.com/877a62b8-6263-479f-df17-710c393afac2?AWSAccessKeyId=AKIAIUQNYZUJLIOKKJ3A&Expires=1801991780&Signature=78DBh8FAcmxjbKxaMD3dqwZ0rhE%3D",2,12,0.142857142857143,0.481481481481481,0.493788819875776,0.34910858063032
356,"MA9S7G","Gadsden City High School","Gadsden","AL","Clash","1917 Black Creek Parkway","https://cdn2buckets-live-s3dfaaws-1mlao80q0xoqe.s3.amazonaws.com/6514d5b5-25d6-44bf-b122-3a2f50e8069e?AWSAccessKeyId=AKIAIUQNYZUJLIOKKJ3A&Expires=1801991780&Signature=u28q8wYvaOP0%2B%2F0vEBTw7wb4pXY%3D",3,19,0.136363636363636,0.485074626865672,0.494943109987358,0.348057351445279
357,"F5PP54","Munford High School","Munford","AL","Lions","300 Cedars Road","https://cdn2buckets-live-s3dfaaws-1mlao80q0xoqe.s3.amazonaws.com/b647f13c-abfd-497e-93f4-55e2437e5f98?AWSAccessKeyId=AKIAIUQNYZUJLIOKKJ3A&Expires=1801991780&Signature=WSk9N2PK2F0ZEYJWiq89TN%2Fu9tk%3D",2,13,0.133333333333333,0.481727574750831,0.494901427600272,0.345663341396192
358,"88WIKG","Gordo High School","Gordo","AL","Greenwave","630 4th St NW","https://cdn2buckets-live-s3dfaaws-1mlao80q0xoqe.s3.amazonaws.com/c49caa67-5a75-4fe7-a972-c27426087e87?AWSAccessKeyId=AKIAIUQNYZUJLIOKKJ3A&Expires=1801991780&Signature=FGVOiKxTYjoHe8Xq3VCnTD7NVZA%3D",2,13,0.133333333333333,0.48122866894198,0.494540783558125,0.345398563352557
359,"VCQVN3","Wilcox Central High School","Camden","AL","Jaguars","1310 T. L.  Threadgill Rd.","https://cdn2buckets-live-s3dfaaws-1mlao80q0xoqe.s3.amazonaws.com/79cb1b6a-583f-49bd-cd19-af528b366899?AWSAccessKeyId=AKIAIUQNYZUJLIOKKJ3A&Expires=1801991781&Signature=YplJimrp0TItm%2F%2FJbzp5GhLoLVc%3D",3,19,0.136363636363636,0.477777777777778,0.493757802746567,0.345207127454318
360,"PFMHS2","Sweet Water High School","Sweet Water","AL","Bulldogs","440 Main St.","https://cdn2buckets-live-s3dfaaws-1mlao80q0xoqe.s3.amazonaws.com/eec9965e-fef5-46c4-fe9e-18520efe9217?AWSAccessKeyId=AKIAIUQNYZUJLIOKKJ3A&Expires=1801991781&Signature=3VQFF0sz4xlKeMQDurPcjKTvuOg%3D",2,13,0.133333333333333,0.476987447698745,0.491103202846975,0.343054740739638
361,"9MGD7V","Holt High School","Tuscaloosa","AL","Ironmen","301 44th Court NE","https://cdn2buckets-live-s3dfaaws-1mlao80q0xoqe.s3.amazonaws.com/c66123dc-24fe-46b9-fbae-3320071d6a83?AWSAccessKeyId=AKIAIUQNYZUJLIOKKJ3A&Expires=1801991780&Signature=NxdzLDvkwW84NVEvlT6tQEvLbMQ%3D",2,14,0.125,0.477099236641221,0.495512820512821,0.340862937952633
362,"E56DJL","Elba High School","Elba","AL","Tiger","371 Tiger Dr.","https://cdn2buckets-live-s3dfaaws-1mlao80q0xoqe.s3.amazonaws.com/2222fb6c-f158-478e-8cc8-2122d665c846?AWSAccessKeyId=AKIAIUQNYZUJLIOKKJ3A&Expires=1801991779&Signature=6m8oIq492EQ%2Bz88fFREQgr6R%2FsE%3D",2,14,0.125,0.47196261682243,0.487935656836461,0.337170830096966
363,"7MVGCG","Gaston High School","Gadsden","AL",NA,"4550 US Highway 411","https://cdn2buckets-live-s3dfaaws-1mlao80q0xoqe.s3.amazonaws.com/c3a64be7-39a0-4422-e2f6-f181c5c98443?AWSAccessKeyId=AKIAIUQNYZUJLIOKKJ3A&Expires=1801991780&Signature=4l9Mr2vVcQLNtc4Cu2K1qpUT65U%3D",2,16,0.111111111111111,0.482412060301508,0.495133819951338,0.337072120537807
364,"W5EU77","Crossville High School","Crossville","AL","Lions","5405 County Road 28","https://cdn2buckets-live-s3dfaaws-1mlao80q0xoqe.s3.amazonaws.com/7fbf774c-4ded-42af-894c-09520d252bb8?AWSAccessKeyId=AKIAIUQNYZUJLIOKKJ3A&Expires=1801991779&Signature=dMNxwb%2BpIaUBAIPV6FYR6Hr%2BWk4%3D",2,17,0.105263157894737,0.481012658227848,0.49412965798877,0.333992108034834
365,"HNBYCQ","Isabella High School","Maplesville","AL","Mustangs","11338 Co Rd 15","https://cdn2buckets-live-s3dfaaws-1mlao80q0xoqe.s3.amazonaws.com/cb24af1c-f7b4-432b-8ef4-adc87388fca3?AWSAccessKeyId=AKIAIUQNYZUJLIOKKJ3A&Expires=1801991780&Signature=zMeJV5TSliePw1UCnQh8%2BBCdkMY%3D",2,17,0.105263157894737,0.47787610619469,0.494697442295696,0.33303626089996
366,"7TBVJQ","Bessemer City High School","Bessemer","AL","Purple Tigers","4950 Premire Parkway","https://cdn2buckets-live-s3dfaaws-1mlao80q0xoqe.s3.amazonaws.com/9cc796a3-87a4-4ee1-bd2d-92a099057bc2?AWSAccessKeyId=AKIAIUQNYZUJLIOKKJ3A&Expires=1801991779&Signature=DG7iwe40eq%2Fa46AlfdUFudFrq5c%3D",1,9,0.1,0.478813559322034,0.495768688293371,0.331526917836055
367,"Q5D6RH","Autauga Academy","Prattville","AL","Generals","497 GOLSON RD","https://cdn2buckets-live-s3dfaaws-1mlao80q0xoqe.s3.amazonaws.com/e613a513-6673-49af-ed9d-72b82837acf4?AWSAccessKeyId=AKIAIUQNYZUJLIOKKJ3A&Expires=1801991779&Signature=fbd7K4UiHThVweZZkaAZ0xDTq6s%3D",2,17,0.105263157894737,0.472843450479233,0.492819349962207,0.330805308316178
368,"J6ABBY","Houston County High School","Columbia","AL","Lions","200 West Church Street","https://cdn2buckets-live-s3dfaaws-1mlao80q0xoqe.s3.amazonaws.com/4b41b808-8f44-4164-f050-596e7c738fa0?AWSAccessKeyId=AKIAIUQNYZUJLIOKKJ3A&Expires=1801991780&Signature=wXa1KhQa31Ep79znOmEtbvrVw0s%3D",2,16,0.111111111111111,0.464788732394366,0.484756097560976,0.328309525172716
369,"PYVJ9M","Saint Bernard Preparatory School","Cullman","AL","Saints","1600 Saint Bernard Dr. SE","https://cdn2buckets-live-s3dfaaws-1mlao80q0xoqe.s3.amazonaws.com/165bf34a-85e4-47be-a531-d8bb83cf6ca6?AWSAccessKeyId=AKIAIUQNYZUJLIOKKJ3A&Expires=1801991780&Signature=2vHAtalsKyk0sGo9lKaoaf9%2BJxg%3D",1,10,0.0909090909090909,0.481012658227848,0.494226327944573,0.328274648729526
370,"RGKHUP","Elberta High School","Elberta","AL","Warriors","13355 Main Street","https://cdn2buckets-live-s3dfaaws-1mlao80q0xoqe.s3.amazonaws.com/fa0c25a7-8e5d-4f31-b184-9232f24b776f?AWSAccessKeyId=AKIAIUQNYZUJLIOKKJ3A&Expires=1801991779&Signature=01JLej9AGglMhkojL5WDNLhL%2Fsg%3D",2,18,0.1,0.469465648854962,0.489690721649485,0.326735657511608
371,"7LHCMH","Randolph School ","Huntsville","AL","Raiders","4915 Garth Rd SE","https://cdn2buckets-live-s3dfaaws-1mlao80q0xoqe.s3.amazonaws.com/f714f84c-874d-4495-8981-03134cc7cf41?AWSAccessKeyId=AKIAIUQNYZUJLIOKKJ3A&Expires=1801991780&Signature=gGqWiHHrECmaw71rw2O1RRrxSV4%3D",1,11,0.0833333333333333,0.480978260869565,0.495557749259625,0.325565161952587
372,"YUP16U","Johnson Abernathy Graetz (JAG) High School","Montgomery","AL","Jaguars","3420 Carter Hill Road","https://cdn2buckets-live-s3dfaaws-1mlao80q0xoqe.s3.amazonaws.com/6f50dab2-1d64-4db6-b8f8-e9000eeb7372?AWSAccessKeyId=AKIAIUQNYZUJLIOKKJ3A&Expires=1801991780&Signature=7Tnw3UyaADfLY8lIWceEblk2Zn4%3D",1,12,0.0769230769230769,0.481894150417827,0.495687468290208,0.323354050488022
373,"BWMMSN","Daleville High School","Daleville","AL","Warhawks","626 North Daleville Avenue","https://cdn2buckets-live-s3dfaaws-1mlao80q0xoqe.s3.amazonaws.com/988dbcff-933c-4bc4-9758-3ee8be94948c?AWSAccessKeyId=AKIAIUQNYZUJLIOKKJ3A&Expires=1801991779&Signature=3XWEXSj%2FYrfjSW3ChsYJ2pGAti4%3D",1,10,0.0833333333333333,0.477272727272727,0.491400491400491,0.323228910728911
374,"MY9T33","Cottage Hill Christian Academy","Mobile","AL","Warriors","7355 Creekwood Dr","https://cdn2buckets-live-s3dfaaws-1mlao80q0xoqe.s3.amazonaws.com/8f23018d-070f-49f0-97f3-bff753f9e24f?AWSAccessKeyId=AKIAIUQNYZUJLIOKKJ3A&Expires=1801991779&Signature=RWPgdHAQlmtgKaoNhoyO6lfbdQE%3D",1,12,0.0769230769230769,0.482084690553746,0.492618492618493,0.322653495617665
375,"JKN2KK","Addison High School","Addison","AL","Bulldog","PO Box 240","https://cdn2buckets-live-s3dfaaws-1mlao80q0xoqe.s3.amazonaws.com/7499e25f-56f4-49a8-e705-bf15efd223d5?AWSAccessKeyId=AKIAIUQNYZUJLIOKKJ3A&Expires=1801991779&Signature=LGi7FJPTSvVnuw6GbpejAOOPojw%3D",1,12,0.0769230769230769,0.479623824451411,0.496033844526705,0.322646030458901
376,"JBSNBN","Lee High School","Huntsville","AL","Generals","2500 Meridian Street","https://cdn2buckets-live-s3dfaaws-1mlao80q0xoqe.s3.amazonaws.com/38a0cde0-4f55-4d8a-f2bd-51f6b13029ae?AWSAccessKeyId=AKIAIUQNYZUJLIOKKJ3A&Expires=1801991780&Signature=c3qICnQ%2BTD89QRap7%2FyxjIN1kWc%3D",1,13,0.0714285714285714,0.484581497797357,0.495964783565664,0.322166148691919
377,"A3GUDP","Central High School, Hayneville","Hayneville","AL","Lions","145 Main Street","https://cdn2buckets-live-s3dfaaws-1mlao80q0xoqe.s3.amazonaws.com/409f6df9-2ab0-432f-95ec-c8081fd2b40b?AWSAccessKeyId=AKIAIUQNYZUJLIOKKJ3A&Expires=1801991779&Signature=KEwCz95z%2FYB71UVj7kg6mJDrTyg%3D",1,12,0.0769230769230769,0.47985347985348,0.493602693602694,0.322118622118622
378,"RQ5GEV","Faith Christian School","Anniston","AL","Lion","4100 RONNAKI RD","https://cdn2buckets-live-s3dfaaws-1mlao80q0xoqe.s3.amazonaws.com/483a256d-9b8e-4460-f374-82cbd0aa2396?AWSAccessKeyId=AKIAIUQNYZUJLIOKKJ3A&Expires=1801991779&Signature=W%2BzfA3Nyqeff784qHUVADa4yDDI%3D",1,12,0.0769230769230769,0.475770925110132,0.494634146341463,0.320947591143143
379,"3BX2YT","Verbena High School","Verbena","AL","Red Devils",NA,"https://cdn2buckets-live-s3dfaaws-1mlao80q0xoqe.s3.amazonaws.com/4b53769c-71cd-47f4-948f-c87694a9fd36?AWSAccessKeyId=AKIAIUQNYZUJLIOKKJ3A&Expires=1801991781&Signature=Cc9WMjXEMv6H41L%2BNK9ODIOsKKQ%3D",1,12,0.0769230769230769,0.475555555555556,0.493827160493827,0.320670465337132
380,"A9JFUD","University Charter School","Livingston","AL","Trail Blazers","P.O. Box 1053","https://cdn2buckets-live-s3dfaaws-1mlao80q0xoqe.s3.amazonaws.com/6fadc082-1e84-47ef-e89d-7d17950eedfe?AWSAccessKeyId=AKIAIUQNYZUJLIOKKJ3A&Expires=1801991781&Signature=FbxX7d0UM6X30wyFpr2eDcysdl0%3D",1,12,0.0769230769230769,0.473429951690821,0.493532338308458,0.319852798438133
381,"AJ94XG","Mae Jemison High School","Huntsville","AL","Jaguar","5000 Pulaski Pike","https://cdn2buckets-live-s3dfaaws-1mlao80q0xoqe.s3.amazonaws.com/bb9edf8a-0f16-46a5-e9f1-f5a7dbf359a4?AWSAccessKeyId=AKIAIUQNYZUJLIOKKJ3A&Expires=1801991780&Signature=4Qqu4iYbQRpYq6IP5XN%2FspgW7rM%3D",1,14,0.0666666666666667,0.481296758104738,0.496,0.319120532003325
382,"3774DZ","Tarrant High School","Tarrant","AL","Wildcats","91 Black Creek Road","https://cdn2buckets-live-s3dfaaws-1mlao80q0xoqe.s3.amazonaws.com/6a997fcf-25c0-42a2-d286-ea808bec5ed8?AWSAccessKeyId=AKIAIUQNYZUJLIOKKJ3A&Expires=1801991781&Signature=Ngi6dGAxQhCaJKGQl6HEc3yGn%2FQ%3D",1,14,0.0666666666666667,0.480825958702065,0.495798319327731,0.318905332044322
383,"8VCWXC","Millry High School","Millry","AL","Wildcats","1 wildcat drive","https://cdn2buckets-live-s3dfaaws-1mlao80q0xoqe.s3.amazonaws.com/61259594-e2ff-436b-e8e9-98fed30cbee8?AWSAccessKeyId=AKIAIUQNYZUJLIOKKJ3A&Expires=1801991780&Signature=5KNDiOKQLU7OL%2Ft8XuNZAuBk5OE%3D",1,12,0.0769230769230769,0.472573839662447,0.490196078431373,0.31871909425893
384,"VARS2E","Citronelle High School","Citronelle","AL","Wildcat","8200 Lebaron Ave.","https://cdn2buckets-live-s3dfaaws-1mlao80q0xoqe.s3.amazonaws.com/cb0df446-7c2a-4a7c-a880-c5fdf4bd7e9a?AWSAccessKeyId=AKIAIUQNYZUJLIOKKJ3A&Expires=1801991779&Signature=5VYMxbCvGfsSHwX4MJAaXzKMnkg%3D",1,13,0.0714285714285714,0.477443609022556,0.491701244813278,0.318602002932643
385,"WTSHQ6","G.W. Carver-Birmingham High School","Birmingham","AL","Rams","3900 24th Street North ","https://cdn2buckets-live-s3dfaaws-1mlao80q0xoqe.s3.amazonaws.com/8b36c1cd-9e73-4499-93aa-368ab4c42ffa?AWSAccessKeyId=AKIAIUQNYZUJLIOKKJ3A&Expires=1801991780&Signature=TmEgErOgM0q6QWN3vbkFJvVtrjM%3D",1,14,0.0666666666666667,0.474048442906574,0.495739348370927,0.3165184587767
386,"8T3FZ3","B.B. Comer High School","Sylacauga","AL","Tigers","801 Seminole Ave","https://cdn2buckets-live-s3dfaaws-1mlao80q0xoqe.s3.amazonaws.com/7cec1cf9-884f-4ed8-fe93-393f67e2a9d8?AWSAccessKeyId=AKIAIUQNYZUJLIOKKJ3A&Expires=1801991779&Signature=teRiGReXQ7sCv%2FJdbUD32tv7l8s%3D",1,16,0.0588235294117647,0.479338842975207,0.494441759304012,0.314908446632031
387,"Q9283G","Hayden High School","Hayden","AL","Wildcat","125 Atwood Rd","https://cdn2buckets-live-s3dfaaws-1mlao80q0xoqe.s3.amazonaws.com/f4edcaed-0979-4ebf-b0f3-03f3765fa649?AWSAccessKeyId=AKIAIUQNYZUJLIOKKJ3A&Expires=1801991780&Signature=KQT8ls%2FKV%2BgoTD5EOZbMOvbpK2w%3D",0,17,0,0.482965931863727,0.495697074010327,0.292962344654886
388,"QVVGM3","New Hope High School","New Hope","AL","Indians","5216 Main Drive","https://cdn2buckets-live-s3dfaaws-1mlao80q0xoqe.s3.amazonaws.com/aae99de7-664b-4dc3-d715-e6a925febc9e?AWSAccessKeyId=AKIAIUQNYZUJLIOKKJ3A&Expires=1801991780&Signature=O%2BqkcW3%2FJErqB7tJBocHu5c1yrM%3D",0,16,0,0.47906976744186,0.49554565701559,0.291560832858549
389,"UPKKZ6","Hale County High School","Moundville","AL","Wildcats","50 Wildcat Way","https://cdn2buckets-live-s3dfaaws-1mlao80q0xoqe.s3.amazonaws.com/5728427d-accd-4a95-9346-9b76e37c4614?AWSAccessKeyId=AKIAIUQNYZUJLIOKKJ3A&Expires=1801991780&Signature=dHwB3uocbdJdIcLcZOKTzwR%2BgwY%3D",0,19,0,0.477855477855478,0.49488279960383,0.290970117150375
390,"KU8VWU","Booker T. Washington Magnet High School","Montgomery","AL","Yellow Jacket","4400 Bell Rd","https://cdn2buckets-live-s3dfaaws-1mlao80q0xoqe.s3.amazonaws.com/79cfac29-95b2-4d3f-b303-ea355a5e9f1c?AWSAccessKeyId=AKIAIUQNYZUJLIOKKJ3A&Expires=1801991779&Signature=YfoC9TkBjEogW0py9APR9CfPm9s%3D",0,13,0,0.476780185758514,0.492694330800701,0.290046647715655
391,"6D6XMT","Excel High School","Excel","AL","Panther","P.O. Box 429","https://cdn2buckets-live-s3dfaaws-1mlao80q0xoqe.s3.amazonaws.com/f39699e0-6b59-4897-f446-4f7b37cf1d3b?AWSAccessKeyId=AKIAIUQNYZUJLIOKKJ3A&Expires=1801991779&Signature=xEQzvYnTxvy65QUXLM%2BGi%2FlLtLQ%3D",0,11,0,0.476190476190476,0.490706319702602,0.289343246592317
392,"9FCUQR","Alabama School of Cyber Technology & Engineering","Huntsville","AL","Sentinels","229 Wynn Drive","https://cdn2buckets-live-s3dfaaws-1mlao80q0xoqe.s3.amazonaws.com/34a5c017-95ae-4f23-cc89-14130d4a22ee?AWSAccessKeyId=AKIAIUQNYZUJLIOKKJ3A&Expires=1801991779&Signature=bmvmR0Ddb4jZEtPhL00xMnfc3DI%3D",0,20,0,0.472826086956522,0.491758241758242,0.288428690874343
393,"YFPDNQ","Central High School, Coosa","Rockford","AL","Cougar","97 Coosa County Road 75","https://cdn2buckets-live-s3dfaaws-1mlao80q0xoqe.s3.amazonaws.com/dbb0993f-5985-411f-b40a-c848e17c2e60?AWSAccessKeyId=AKIAIUQNYZUJLIOKKJ3A&Expires=1801991779&Signature=5LY6L38aWQnIidmuigY72xZkGwE%3D",0,11,0,0.467455621301775,0.494208494208494,0.287161591007745
394,"T5AZ8B","Emmanuel Christian School","Dothan","AL",NA,"178 EARLINE RD","https://cdn2buckets-live-s3dfaaws-1mlao80q0xoqe.s3.amazonaws.com/573aa6fe-e878-4d5a-dea3-e449c088b7b0?AWSAccessKeyId=AKIAIUQNYZUJLIOKKJ3A&Expires=1801991779&Signature=MA1zoDxXYaLrOvip8AA%2Fy2PDkco%3D",0,11,0,0.468468468468468,0.488571428571429,0.286106821106821
